<?xml version='1.0' encoding='utf-8'?>
<q:quakeml xmlns="http://quakeml.org/xmlns/bed/1.2" xmlns:q="http://quakeml.org/xmlns/quakeml/1.2" xmlns:ns0="http://rts.crs.inogs.it/xmlns/ogs/0.1" xmlns:ns1="http://rts.crs.inogs.it/xmlns/catalogo/0.1">
  <eventParameters publicID="smi:local/5e56092b-5713-4b99-9585-1b906f2777da">
    <event publicID="quakeml:local/event/00001551" ns1:datasource="ogs" ns1:eventid="1551" ns1:eventsource="ogs">
      <preferredOriginID>quakeml:local/origin/1551</preferredOriginID>
      <preferredMagnitudeID>quakeml:local/magnitude/2818</preferredMagnitudeID>
      <type>earthquake</type>
      <creationInfo>
        <agencyID>ogs</agencyID>
        <author>Antelope event2qml process</author>
        <creationTime>2021-03-02T10:18:05.423000Z</creationTime>
        <version>1614680285</version>
      </creationInfo>
      <origin publicID="quakeml:local/origin/1551" ns1:datasource="ogs" ns1:dataid="1551">
        <time>
          <value>2019-09-22T12:58:43.250000Z</value>
        </time>
        <latitude>
          <value>46.441</value>
          <uncertainty>0.00271247739602</uncertainty>
        </latitude>
        <longitude>
          <value>13.001</value>
          <uncertainty>0.00391737755379</uncertainty>
        </longitude>
        <depth>
          <value>12450.0</value>
          <uncertainty>400.0</uncertainty>
        </depth>
        <quality>
          <associatedPhaseCount>53</associatedPhaseCount>
          <usedPhaseCount>53</usedPhaseCount>
          <standardError>0.17</standardError>
        </quality>
        <type>hypocenter</type>
        <evaluationMode>manual</evaluationMode>
        <evaluationStatus>reviewed</evaluationStatus>
        <comment>
          <text>algorithm: hypo71</text>
        </comment>
        <creationInfo>
          <author>ogsbulletin</author>
          <version>1614680285.39</version>
        </creationInfo>
        <originUncertainty>
          <preferredDescription>horizontal uncertainty</preferredDescription>
          <minHorizontalUncertainty>300.0</minHorizontalUncertainty>
          <maxHorizontalUncertainty>300.0</maxHorizontalUncertainty>
          <azimuthMaxHorizontalUncertainty>0.0</azimuthMaxHorizontalUncertainty>
        </originUncertainty>
        <arrival publicID="quakeml:local/arrival/23474/1551" ns0:sta="FUSE">
          <pickID>quakeml:local/pick/23474</pickID>
          <phase>P</phase>
          <azimuth>180.0</azimuth>
          <distance>0.027</distance>
          <timeResidual>-0.02</timeResidual>
          <timeWeight>1.69</timeWeight>
          <earthModelID>quakeml:local/earthmodel/</earthModelID>
          <creationInfo>
            <creationTime>2021-03-02T10:18:05.651000Z</creationTime>
          </creationInfo>
        </arrival>
        <arrival publicID="quakeml:local/arrival/23475/1551" ns0:sta="FUSE">
          <pickID>quakeml:local/pick/23475</pickID>
          <phase>S</phase>
          <azimuth>180.0</azimuth>
          <distance>0.027</distance>
          <timeResidual>0.01</timeResidual>
          <timeWeight>0.8</timeWeight>
          <earthModelID>quakeml:local/earthmodel/</earthModelID>
          <creationInfo>
            <creationTime>2021-03-02T10:18:05.685000Z</creationTime>
          </creationInfo>
        </arrival>
        <arrival publicID="quakeml:local/arrival/23476/1551" ns0:sta="CLUD">
          <pickID>quakeml:local/pick/23476</pickID>
          <phase>P</phase>
          <azimuth>281.0</azimuth>
          <distance>0.085</distance>
          <timeResidual>-0.06</timeResidual>
          <timeWeight>1.9</timeWeight>
          <earthModelID>quakeml:local/earthmodel/</earthModelID>
          <creationInfo>
            <creationTime>2021-03-02T10:18:05.783000Z</creationTime>
          </creationInfo>
        </arrival>
        <arrival publicID="quakeml:local/arrival/23477/1551" ns0:sta="CLUD">
          <pickID>quakeml:local/pick/23477</pickID>
          <phase>S</phase>
          <azimuth>281.0</azimuth>
          <distance>0.085</distance>
          <timeResidual>-0.25</timeResidual>
          <timeWeight>1.3</timeWeight>
          <earthModelID>quakeml:local/earthmodel/</earthModelID>
          <creationInfo>
            <creationTime>2021-03-02T10:18:05.811000Z</creationTime>
          </creationInfo>
        </arrival>
        <arrival publicID="quakeml:local/arrival/23478/1551" ns0:sta="ZOU2">
          <pickID>quakeml:local/pick/23478</pickID>
          <phase>P</phase>
          <azimuth>351.0</azimuth>
          <distance>0.118</distance>
          <timeResidual>0.06</timeResidual>
          <timeWeight>5.07</timeWeight>
          <earthModelID>quakeml:local/earthmodel/</earthModelID>
          <creationInfo>
            <creationTime>2021-03-02T10:18:05.908000Z</creationTime>
          </creationInfo>
        </arrival>
        <arrival publicID="quakeml:local/arrival/23479/1551" ns0:sta="ZOU2">
          <pickID>quakeml:local/pick/23479</pickID>
          <phase>S</phase>
          <azimuth>351.0</azimuth>
          <distance>0.118</distance>
          <timeResidual>-0.08</timeResidual>
          <timeWeight>2.5</timeWeight>
          <earthModelID>quakeml:local/earthmodel/</earthModelID>
          <creationInfo>
            <creationTime>2021-03-02T10:18:05.942000Z</creationTime>
          </creationInfo>
        </arrival>
        <arrival publicID="quakeml:local/arrival/23480/1551" ns0:sta="BOO">
          <pickID>quakeml:local/pick/23480</pickID>
          <phase>P</phase>
          <azimuth>151.0</azimuth>
          <distance>0.138</distance>
          <timeResidual>0.06</timeResidual>
          <timeWeight>0.55</timeWeight>
          <earthModelID>quakeml:local/earthmodel/</earthModelID>
          <creationInfo>
            <creationTime>2021-03-02T10:18:06.011000Z</creationTime>
          </creationInfo>
        </arrival>
        <arrival publicID="quakeml:local/arrival/23481/1551" ns0:sta="BOO">
          <pickID>quakeml:local/pick/23481</pickID>
          <phase>S</phase>
          <azimuth>151.0</azimuth>
          <distance>0.138</distance>
          <timeResidual>0.15</timeResidual>
          <timeWeight>0.8</timeWeight>
          <earthModelID>quakeml:local/earthmodel/</earthModelID>
          <creationInfo>
            <creationTime>2021-03-02T10:18:06.039000Z</creationTime>
          </creationInfo>
        </arrival>
        <arrival publicID="quakeml:local/arrival/23482/1551" ns0:sta="PLRO">
          <pickID>quakeml:local/pick/23482</pickID>
          <phase>P</phase>
          <azimuth>43.0</azimuth>
          <distance>0.148</distance>
          <timeResidual>0.14</timeResidual>
          <timeWeight>5.07</timeWeight>
          <earthModelID>quakeml:local/earthmodel/</earthModelID>
          <creationInfo>
            <creationTime>2021-03-02T10:18:06.142000Z</creationTime>
          </creationInfo>
        </arrival>
        <arrival publicID="quakeml:local/arrival/23483/1551" ns0:sta="PLRO">
          <pickID>quakeml:local/pick/23483</pickID>
          <phase>S</phase>
          <azimuth>43.0</azimuth>
          <distance>0.148</distance>
          <timeResidual>0.03</timeResidual>
          <timeWeight>2.5</timeWeight>
          <earthModelID>quakeml:local/earthmodel/</earthModelID>
          <creationInfo>
            <creationTime>2021-03-02T10:18:06.171000Z</creationTime>
          </creationInfo>
        </arrival>
        <arrival publicID="quakeml:local/arrival/23484/1551" ns0:sta="GEPF">
          <pickID>quakeml:local/pick/23484</pickID>
          <phase>P</phase>
          <azimuth>151.0</azimuth>
          <distance>0.195</distance>
          <timeResidual>-0.13</timeResidual>
          <timeWeight>1.1</timeWeight>
          <earthModelID>quakeml:local/earthmodel/</earthModelID>
          <creationInfo>
            <creationTime>2021-03-02T10:18:06.234000Z</creationTime>
          </creationInfo>
        </arrival>
        <arrival publicID="quakeml:local/arrival/23485/1551" ns0:sta="GEPF">
          <pickID>quakeml:local/pick/23485</pickID>
          <phase>S</phase>
          <azimuth>151.0</azimuth>
          <distance>0.195</distance>
          <timeResidual>-0.16</timeResidual>
          <timeWeight>0.6</timeWeight>
          <earthModelID>quakeml:local/earthmodel/</earthModelID>
          <creationInfo>
            <creationTime>2021-03-02T10:18:06.262000Z</creationTime>
          </creationInfo>
        </arrival>
        <arrival publicID="quakeml:local/arrival/23486/1551" ns0:sta="MPRI">
          <pickID>quakeml:local/pick/23486</pickID>
          <phase>P</phase>
          <azimuth>183.0</azimuth>
          <distance>0.201</distance>
          <timeResidual>0.01</timeResidual>
          <timeWeight>1.27</timeWeight>
          <earthModelID>quakeml:local/earthmodel/</earthModelID>
          <creationInfo>
            <creationTime>2021-03-02T10:18:06.325000Z</creationTime>
          </creationInfo>
        </arrival>
        <arrival publicID="quakeml:local/arrival/23487/1551" ns0:sta="MPRI">
          <pickID>quakeml:local/pick/23487</pickID>
          <phase>S</phase>
          <azimuth>183.0</azimuth>
          <distance>0.201</distance>
          <timeResidual>0.3</timeResidual>
          <timeWeight>0.8</timeWeight>
          <earthModelID>quakeml:local/earthmodel/</earthModelID>
          <creationInfo>
            <creationTime>2021-03-02T10:18:06.353000Z</creationTime>
          </creationInfo>
        </arrival>
        <arrival publicID="quakeml:local/arrival/23488/1551" ns0:sta="BUA">
          <pickID>quakeml:local/pick/23488</pickID>
          <phase>P</phase>
          <azimuth>159.0</azimuth>
          <distance>0.24</distance>
          <timeResidual>-0.09</timeResidual>
          <timeWeight>1.27</timeWeight>
          <earthModelID>quakeml:local/earthmodel/</earthModelID>
          <creationInfo>
            <creationTime>2021-03-02T10:18:06.416000Z</creationTime>
          </creationInfo>
        </arrival>
        <arrival publicID="quakeml:local/arrival/23489/1551" ns0:sta="BUA">
          <pickID>quakeml:local/pick/23489</pickID>
          <phase>S</phase>
          <azimuth>159.0</azimuth>
          <distance>0.24</distance>
          <timeResidual>0.18</timeResidual>
          <timeWeight>0.8</timeWeight>
          <earthModelID>quakeml:local/earthmodel/</earthModelID>
          <creationInfo>
            <creationTime>2021-03-02T10:18:06.445000Z</creationTime>
          </creationInfo>
        </arrival>
        <arrival publicID="quakeml:local/arrival/23490/1551" ns0:sta="PTCC">
          <pickID>quakeml:local/pick/23490</pickID>
          <phase>P</phase>
          <azimuth>98.0</azimuth>
          <distance>0.246</distance>
          <timeResidual>-0.07</timeResidual>
          <timeWeight>0.83</timeWeight>
          <earthModelID>quakeml:local/earthmodel/</earthModelID>
          <creationInfo>
            <creationTime>2021-03-02T10:18:06.507000Z</creationTime>
          </creationInfo>
        </arrival>
        <arrival publicID="quakeml:local/arrival/23491/1551" ns0:sta="PTCC">
          <pickID>quakeml:local/pick/23491</pickID>
          <phase>S</phase>
          <azimuth>98.0</azimuth>
          <distance>0.246</distance>
          <timeResidual>0.09</timeResidual>
          <timeWeight>0.6</timeWeight>
          <earthModelID>quakeml:local/earthmodel/</earthModelID>
          <creationInfo>
            <creationTime>2021-03-02T10:18:06.536000Z</creationTime>
          </creationInfo>
        </arrival>
        <arrival publicID="quakeml:local/arrival/23492/1551" ns0:sta="CSM">
          <pickID>quakeml:local/pick/23492</pickID>
          <phase>P</phase>
          <azimuth>286.0</azimuth>
          <distance>0.251</distance>
          <timeResidual>-0.01</timeResidual>
          <timeWeight>1.9</timeWeight>
          <earthModelID>quakeml:local/earthmodel/</earthModelID>
          <creationInfo>
            <creationTime>2021-03-02T10:18:06.564000Z</creationTime>
          </creationInfo>
        </arrival>
        <arrival publicID="quakeml:local/arrival/23493/1551" ns0:sta="CSM">
          <pickID>quakeml:local/pick/23493</pickID>
          <phase>S</phase>
          <azimuth>286.0</azimuth>
          <distance>0.251</distance>
          <timeResidual>-0.06</timeResidual>
          <timeWeight>1.3</timeWeight>
          <earthModelID>quakeml:local/earthmodel/</earthModelID>
          <creationInfo>
            <creationTime>2021-03-02T10:18:06.593000Z</creationTime>
          </creationInfo>
        </arrival>
        <arrival publicID="quakeml:local/arrival/23494/1551" ns0:sta="BAD">
          <pickID>quakeml:local/pick/23494</pickID>
          <phase>P</phase>
          <azimuth>141.0</azimuth>
          <distance>0.266</distance>
          <timeResidual>-0.18</timeResidual>
          <timeWeight>0.83</timeWeight>
          <earthModelID>quakeml:local/earthmodel/</earthModelID>
          <creationInfo>
            <creationTime>2021-03-02T10:18:06.656000Z</creationTime>
          </creationInfo>
        </arrival>
        <arrival publicID="quakeml:local/arrival/23495/1551" ns0:sta="BAD">
          <pickID>quakeml:local/pick/23495</pickID>
          <phase>S</phase>
          <azimuth>141.0</azimuth>
          <distance>0.266</distance>
          <timeResidual>0.25</timeResidual>
          <timeWeight>0.6</timeWeight>
          <earthModelID>quakeml:local/earthmodel/</earthModelID>
          <creationInfo>
            <creationTime>2021-03-02T10:18:06.702000Z</creationTime>
          </creationInfo>
        </arrival>
        <arrival publicID="quakeml:local/arrival/23496/1551" ns0:sta="VINO">
          <pickID>quakeml:local/pick/23496</pickID>
          <phase>P</phase>
          <azimuth>134.0</azimuth>
          <distance>0.268</distance>
          <timeResidual>-0.22</timeResidual>
          <timeWeight>0.83</timeWeight>
          <earthModelID>quakeml:local/earthmodel/</earthModelID>
          <creationInfo>
            <creationTime>2021-03-02T10:18:06.770000Z</creationTime>
          </creationInfo>
        </arrival>
        <arrival publicID="quakeml:local/arrival/23497/1551" ns0:sta="VINO">
          <pickID>quakeml:local/pick/23497</pickID>
          <phase>S</phase>
          <azimuth>134.0</azimuth>
          <distance>0.268</distance>
          <timeResidual>0.18</timeResidual>
          <timeWeight>0.6</timeWeight>
          <earthModelID>quakeml:local/earthmodel/</earthModelID>
          <creationInfo>
            <creationTime>2021-03-02T10:18:06.804000Z</creationTime>
          </creationInfo>
        </arrival>
        <arrival publicID="quakeml:local/arrival/23498/1551" ns0:sta="STAL">
          <pickID>quakeml:local/pick/23498</pickID>
          <phase>P</phase>
          <azimuth>228.0</azimuth>
          <distance>0.271</distance>
          <timeResidual>-0.16</timeResidual>
          <timeWeight>1.27</timeWeight>
          <earthModelID>quakeml:local/earthmodel/</earthModelID>
          <creationInfo>
            <creationTime>2021-03-02T10:18:06.873000Z</creationTime>
          </creationInfo>
        </arrival>
        <arrival publicID="quakeml:local/arrival/23499/1551" ns0:sta="STAL">
          <pickID>quakeml:local/pick/23499</pickID>
          <phase>S</phase>
          <azimuth>228.0</azimuth>
          <distance>0.271</distance>
          <timeResidual>-0.15</timeResidual>
          <timeWeight>0.8</timeWeight>
          <earthModelID>quakeml:local/earthmodel/</earthModelID>
          <creationInfo>
            <creationTime>2021-03-02T10:18:06.907000Z</creationTime>
          </creationInfo>
        </arrival>
        <arrival publicID="quakeml:local/arrival/23500/1551" ns0:sta="LSR">
          <pickID>quakeml:local/pick/23500</pickID>
          <phase>P</phase>
          <azimuth>85.0</azimuth>
          <distance>0.366</distance>
          <timeResidual>-0.3</timeResidual>
          <timeWeight>0.82</timeWeight>
          <earthModelID>quakeml:local/earthmodel/</earthModelID>
          <creationInfo>
            <creationTime>2021-03-02T10:18:06.976000Z</creationTime>
          </creationInfo>
        </arrival>
        <arrival publicID="quakeml:local/arrival/23501/1551" ns0:sta="LSR">
          <pickID>quakeml:local/pick/23501</pickID>
          <phase>S</phase>
          <azimuth>85.0</azimuth>
          <distance>0.366</distance>
          <timeResidual>0.07</timeResidual>
          <timeWeight>0.5</timeWeight>
          <earthModelID>quakeml:local/earthmodel/</earthModelID>
          <creationInfo>
            <creationTime>2021-03-02T10:18:07.010000Z</creationTime>
          </creationInfo>
        </arrival>
        <arrival publicID="quakeml:local/arrival/23502/1551" ns0:sta="ACOM">
          <pickID>quakeml:local/pick/23502</pickID>
          <phase>P</phase>
          <azimuth>73.0</azimuth>
          <distance>0.371</distance>
          <timeResidual>0.02</timeResidual>
          <timeWeight>0.82</timeWeight>
          <earthModelID>quakeml:local/earthmodel/</earthModelID>
          <creationInfo>
            <creationTime>2021-03-02T10:18:07.124000Z</creationTime>
          </creationInfo>
        </arrival>
        <arrival publicID="quakeml:local/arrival/23503/1551" ns0:sta="ACOM">
          <pickID>quakeml:local/pick/23503</pickID>
          <phase>S</phase>
          <azimuth>73.0</azimuth>
          <distance>0.371</distance>
          <timeResidual>0.26</timeResidual>
          <timeWeight>0.5</timeWeight>
          <earthModelID>quakeml:local/earthmodel/</earthModelID>
          <creationInfo>
            <creationTime>2021-03-02T10:18:07.158000Z</creationTime>
          </creationInfo>
        </arrival>
        <arrival publicID="quakeml:local/arrival/23504/1551" ns0:sta="PRED">
          <pickID>quakeml:local/pick/23504</pickID>
          <phase>P</phase>
          <azimuth>90.0</azimuth>
          <distance>0.389</distance>
          <timeResidual>0.12</timeResidual>
          <timeWeight>0.27</timeWeight>
          <earthModelID>quakeml:local/earthmodel/</earthModelID>
          <creationInfo>
            <creationTime>2021-03-02T10:18:07.192000Z</creationTime>
          </creationInfo>
        </arrival>
        <arrival publicID="quakeml:local/arrival/23505/1551" ns0:sta="MLN">
          <pickID>quakeml:local/pick/23505</pickID>
          <phase>P</phase>
          <azimuth>223.0</azimuth>
          <distance>0.396</distance>
          <timeResidual>0.03</timeResidual>
          <timeWeight>0.42</timeWeight>
          <earthModelID>quakeml:local/earthmodel/</earthModelID>
          <creationInfo>
            <creationTime>2021-03-02T10:18:07.296000Z</creationTime>
          </creationInfo>
        </arrival>
        <arrival publicID="quakeml:local/arrival/23506/1551" ns0:sta="MLN">
          <pickID>quakeml:local/pick/23506</pickID>
          <phase>S</phase>
          <azimuth>223.0</azimuth>
          <distance>0.396</distance>
          <timeResidual>0.12</timeResidual>
          <timeWeight>0.8</timeWeight>
          <earthModelID>quakeml:local/earthmodel/</earthModelID>
          <creationInfo>
            <creationTime>2021-03-02T10:18:07.330000Z</creationTime>
          </creationInfo>
        </arrival>
        <arrival publicID="quakeml:local/arrival/23507/1551" ns0:sta="ROBS">
          <pickID>quakeml:local/pick/23507</pickID>
          <phase>P</phase>
          <azimuth>119.0</azimuth>
          <distance>0.403</distance>
          <timeResidual>-0.49</timeResidual>
          <timeWeight>0.54</timeWeight>
          <earthModelID>quakeml:local/earthmodel/</earthModelID>
          <creationInfo>
            <creationTime>2021-03-02T10:18:07.404000Z</creationTime>
          </creationInfo>
        </arrival>
        <arrival publicID="quakeml:local/arrival/23508/1551" ns0:sta="COLI">
          <pickID>quakeml:local/pick/23508</pickID>
          <phase>P</phase>
          <azimuth>140.0</azimuth>
