<?xml version='1.0' encoding='utf-8'?>
<q:quakeml xmlns="http://quakeml.org/xmlns/bed/1.2" xmlns:q="http://quakeml.org/xmlns/quakeml/1.2" xmlns:ns0="http://rts.crs.inogs.it/xmlns/ogs/0.1" xmlns:ns1="http://rts.crs.inogs.it/xmlns/catalogo/0.1">
  <eventParameters publicID="smi:local/9440d3fa-5923-4a62-8903-85a7a769cb1d">
    <event publicID="quakeml:local/event/00001019" ns1:datasource="ogs" ns1:eventid="1019" ns1:eventsource="ogs">
      <preferredOriginID>quakeml:local/origin/1019</preferredOriginID>
      <preferredMagnitudeID>quakeml:local/magnitude/1873</preferredMagnitudeID>
      <type>earthquake</type>
      <creationInfo>
        <agencyID>ogs</agencyID>
        <author>Antelope event2qml process</author>
        <creationTime>2021-03-02T10:07:56.181000Z</creationTime>
        <version>1614679676</version>
      </creationInfo>
      <origin publicID="quakeml:local/origin/1019" ns1:datasource="ogs" ns1:dataid="1019">
        <time>
          <value>2019-06-16T13:40:55.700000Z</value>
        </time>
        <latitude>
          <value>46.3935</value>
          <uncertainty>0.00271247739602</uncertainty>
        </latitude>
        <longitude>
          <value>12.9888</value>
          <uncertainty>0.00391396663622</uncertainty>
        </longitude>
        <depth>
          <value>7650.0</value>
          <uncertainty>700.0</uncertainty>
        </depth>
        <quality>
          <associatedPhaseCount>64</associatedPhaseCount>
          <usedPhaseCount>64</usedPhaseCount>
          <standardError>0.2</standardError>
        </quality>
        <type>hypocenter</type>
        <evaluationMode>manual</evaluationMode>
        <evaluationStatus>reviewed</evaluationStatus>
        <comment>
          <text>algorithm: hypo71</text>
        </comment>
        <creationInfo>
          <author>ogsbulletin</author>
          <version>1614679676.14</version>
        </creationInfo>
        <originUncertainty>
          <preferredDescription>horizontal uncertainty</preferredDescription>
          <minHorizontalUncertainty>300.0</minHorizontalUncertainty>
          <maxHorizontalUncertainty>300.0</maxHorizontalUncertainty>
          <azimuthMaxHorizontalUncertainty>0.0</azimuthMaxHorizontalUncertainty>
        </originUncertainty>
        <arrival publicID="quakeml:local/arrival/15520/1019" ns0:sta="FUSE">
          <pickID>quakeml:local/pick/15520</pickID>
          <phase>P</phase>
          <azimuth>22.0</azimuth>
          <distance>0.022</distance>
          <timeResidual>-0.61</timeResidual>
          <timeWeight>0.48</timeWeight>
          <earthModelID>quakeml:local/earthmodel/</earthModelID>
          <creationInfo>
            <creationTime>2021-03-02T10:07:56.418000Z</creationTime>
          </creationInfo>
        </arrival>
        <arrival publicID="quakeml:local/arrival/15521/1019" ns0:sta="CLUD">
          <pickID>quakeml:local/pick/15521</pickID>
          <phase>P</phase>
          <azimuth>310.0</azimuth>
          <distance>0.098</distance>
          <timeResidual>-0.09</timeResidual>
          <timeWeight>1.9</timeWeight>
          <earthModelID>quakeml:local/earthmodel/</earthModelID>
          <creationInfo>
            <creationTime>2021-03-02T10:07:56.532000Z</creationTime>
          </creationInfo>
        </arrival>
        <arrival publicID="quakeml:local/arrival/15522/1019" ns0:sta="CLUD">
          <pickID>quakeml:local/pick/15522</pickID>
          <phase>S</phase>
          <azimuth>310.0</azimuth>
          <distance>0.098</distance>
          <timeResidual>-0.13</timeResidual>
          <timeWeight>1.0</timeWeight>
          <earthModelID>quakeml:local/earthmodel/</earthModelID>
          <creationInfo>
            <creationTime>2021-03-02T10:07:56.566000Z</creationTime>
          </creationInfo>
        </arrival>
        <arrival publicID="quakeml:local/arrival/15523/1019" ns0:sta="BOO">
          <pickID>quakeml:local/pick/15523</pickID>
          <phase>P</phase>
          <azimuth>134.0</azimuth>
          <distance>0.105</distance>
          <timeResidual>-0.1</timeResidual>
          <timeWeight>1.9</timeWeight>
          <earthModelID>quakeml:local/earthmodel/</earthModelID>
          <creationInfo>
            <creationTime>2021-03-02T10:07:56.669000Z</creationTime>
          </creationInfo>
        </arrival>
        <arrival publicID="quakeml:local/arrival/15524/1019" ns0:sta="BOO">
          <pickID>quakeml:local/pick/15524</pickID>
          <phase>S</phase>
          <azimuth>134.0</azimuth>
          <distance>0.105</distance>
          <timeResidual>-0.15</timeResidual>
          <timeWeight>1.4</timeWeight>
          <earthModelID>quakeml:local/earthmodel/</earthModelID>
          <creationInfo>
            <creationTime>2021-03-02T10:07:56.703000Z</creationTime>
          </creationInfo>
        </arrival>
        <arrival publicID="quakeml:local/arrival/15525/1019" ns0:sta="MPRI">
          <pickID>quakeml:local/pick/15525</pickID>
          <phase>P</phase>
          <azimuth>180.0</azimuth>
          <distance>0.154</distance>
          <timeResidual>0.01</timeResidual>
          <timeWeight>1.9</timeWeight>
          <earthModelID>quakeml:local/earthmodel/</earthModelID>
          <creationInfo>
            <creationTime>2021-03-02T10:07:56.817000Z</creationTime>
          </creationInfo>
        </arrival>
        <arrival publicID="quakeml:local/arrival/15526/1019" ns0:sta="MPRI">
          <pickID>quakeml:local/pick/15526</pickID>
          <phase>S</phase>
          <azimuth>180.0</azimuth>
          <distance>0.154</distance>
          <timeResidual>0.14</timeResidual>
          <timeWeight>1.0</timeWeight>
          <earthModelID>quakeml:local/earthmodel/</earthModelID>
          <creationInfo>
            <creationTime>2021-03-02T10:07:56.851000Z</creationTime>
          </creationInfo>
        </arrival>
        <arrival publicID="quakeml:local/arrival/15527/1019" ns0:sta="GEPF">
          <pickID>quakeml:local/pick/15527</pickID>
          <phase>P</phase>
          <azimuth>140.0</azimuth>
          <distance>0.161</distance>
          <timeResidual>-0.11</timeResidual>
          <timeWeight>1.9</timeWeight>
          <earthModelID>quakeml:local/earthmodel/</earthModelID>
          <creationInfo>
            <creationTime>2021-03-02T10:07:56.920000Z</creationTime>
          </creationInfo>
        </arrival>
        <arrival publicID="quakeml:local/arrival/15528/1019" ns0:sta="GEPF">
          <pickID>quakeml:local/pick/15528</pickID>
          <phase>S</phase>
          <azimuth>140.0</azimuth>
          <distance>0.161</distance>
          <timeResidual>-0.22</timeResidual>
          <timeWeight>1.0</timeWeight>
          <earthModelID>quakeml:local/earthmodel/</earthModelID>
          <creationInfo>
            <creationTime>2021-03-02T10:07:56.954000Z</creationTime>
          </creationInfo>
        </arrival>
        <arrival publicID="quakeml:local/arrival/15529/1019" ns0:sta="ZOU2">
          <pickID>quakeml:local/pick/15529</pickID>
          <phase>P</phase>
          <azimuth>356.0</azimuth>
          <distance>0.165</distance>
          <timeResidual>0.1</timeResidual>
          <timeWeight>1.43</timeWeight>
          <earthModelID>quakeml:local/earthmodel/</earthModelID>
          <creationInfo>
            <creationTime>2021-03-02T10:07:57.063000Z</creationTime>
          </creationInfo>
        </arrival>
        <arrival publicID="quakeml:local/arrival/15530/1019" ns0:sta="ZOU2">
          <pickID>quakeml:local/pick/15530</pickID>
          <phase>S</phase>
          <azimuth>356.0</azimuth>
          <distance>0.165</distance>
          <timeResidual>0.12</timeResidual>
          <timeWeight>1.0</timeWeight>
          <earthModelID>quakeml:local/earthmodel/</earthModelID>
          <creationInfo>
            <creationTime>2021-03-02T10:07:57.097000Z</creationTime>
          </creationInfo>
        </arrival>
        <arrival publicID="quakeml:local/arrival/15531/1019" ns0:sta="PURA">
          <pickID>quakeml:local/pick/15531</pickID>
          <phase>P</phase>
          <azimuth>280.0</azimuth>
          <distance>0.175</distance>
          <timeResidual>0.06</timeResidual>
          <timeWeight>1.43</timeWeight>
          <earthModelID>quakeml:local/earthmodel/</earthModelID>
          <creationInfo>
            <creationTime>2021-03-02T10:07:57.165000Z</creationTime>
          </creationInfo>
        </arrival>
        <arrival publicID="quakeml:local/arrival/15532/1019" ns0:sta="PURA">
          <pickID>quakeml:local/pick/15532</pickID>
          <phase>S</phase>
          <azimuth>280.0</azimuth>
          <distance>0.175</distance>
          <timeResidual>0.07</timeResidual>
          <timeWeight>1.0</timeWeight>
          <earthModelID>quakeml:local/earthmodel/</earthModelID>
          <creationInfo>
            <creationTime>2021-03-02T10:07:57.200000Z</creationTime>
          </creationInfo>
        </arrival>
        <arrival publicID="quakeml:local/arrival/15533/1019" ns0:sta="PLRO">
          <pickID>quakeml:local/pick/15533</pickID>
          <phase>P</phase>
          <azimuth>35.0</azimuth>
          <distance>0.19</distance>
          <timeResidual>-0.03</timeResidual>
          <timeWeight>1.43</timeWeight>
          <earthModelID>quakeml:local/earthmodel/</earthModelID>
          <creationInfo>
            <creationTime>2021-03-02T10:07:57.302000Z</creationTime>
          </creationInfo>
        </arrival>
        <arrival publicID="quakeml:local/arrival/15534/1019" ns0:sta="PLRO">
          <pickID>quakeml:local/pick/15534</pickID>
          <phase>S</phase>
          <azimuth>35.0</azimuth>
          <distance>0.19</distance>
          <timeResidual>0.06</timeResidual>
          <timeWeight>1.0</timeWeight>
          <earthModelID>quakeml:local/earthmodel/</earthModelID>
          <creationInfo>
            <creationTime>2021-03-02T10:07:57.337000Z</creationTime>
          </creationInfo>
        </arrival>
        <arrival publicID="quakeml:local/arrival/15535/1019" ns0:sta="MORT">
          <pickID>quakeml:local/pick/15535</pickID>
          <phase>P</phase>
          <azimuth>271.0</azimuth>
          <distance>0.199</distance>
          <timeResidual>0.05</timeResidual>
          <timeWeight>0.95</timeWeight>
          <earthModelID>quakeml:local/earthmodel/</earthModelID>
          <creationInfo>
            <creationTime>2021-03-02T10:07:57.371000Z</creationTime>
          </creationInfo>
        </arrival>
        <arrival publicID="quakeml:local/arrival/15536/1019" ns0:sta="MORT">
          <pickID>quakeml:local/pick/15536</pickID>
          <phase>S</phase>
          <azimuth>271.0</azimuth>
          <distance>0.199</distance>
          <timeResidual>0.18</timeResidual>
          <timeWeight>1.0</timeWeight>
          <earthModelID>quakeml:local/earthmodel/</earthModelID>
          <creationInfo>
            <creationTime>2021-03-02T10:07:57.405000Z</creationTime>
          </creationInfo>
        </arrival>
        <arrival publicID="quakeml:local/arrival/15537/1019" ns0:sta="BUA">
          <pickID>quakeml:local/pick/15537</pickID>
          <phase>P</phase>
          <azimuth>152.0</azimuth>
          <distance>0.2</distance>
          <timeResidual>0.04</timeResidual>
          <timeWeight>1.9</timeWeight>
          <earthModelID>quakeml:local/earthmodel/</earthModelID>
          <creationInfo>
            <creationTime>2021-03-02T10:07:57.508000Z</creationTime>
          </creationInfo>
        </arrival>
        <arrival publicID="quakeml:local/arrival/15538/1019" ns0:sta="BUA">
          <pickID>quakeml:local/pick/15538</pickID>
          <phase>S</phase>
          <azimuth>152.0</azimuth>
          <distance>0.2</distance>
          <timeResidual>0.25</timeResidual>
          <timeWeight>1.0</timeWeight>
          <earthModelID>quakeml:local/earthmodel/</earthModelID>
          <creationInfo>
            <creationTime>2021-03-02T10:07:57.542000Z</creationTime>
          </creationInfo>
        </arrival>
        <arrival publicID="quakeml:local/arrival/15539/1019" ns0:sta="STAL">
          <pickID>quakeml:local/pick/15539</pickID>
          <phase>P</phase>
          <azimuth>235.0</azimuth>
          <distance>0.235</distance>
          <timeResidual>-0.11</timeResidual>
          <timeWeight>1.43</timeWeight>
          <earthModelID>quakeml:local/earthmodel/</earthModelID>
          <creationInfo>
            <creationTime>2021-03-02T10:07:57.611000Z</creationTime>
          </creationInfo>
        </arrival>
        <arrival publicID="quakeml:local/arrival/15540/1019" ns0:sta="BAD">
          <pickID>quakeml:local/pick/15540</pickID>
          <phase>P</phase>
          <azimuth>132.0</azimuth>
          <distance>0.237</distance>
          <timeResidual>-0.08</timeResidual>
          <timeWeight>1.9</timeWeight>
          <earthModelID>quakeml:local/earthmodel/</earthModelID>
          <creationInfo>
            <creationTime>2021-03-02T10:07:57.713000Z</creationTime>
          </creationInfo>
        </arrival>
        <arrival publicID="quakeml:local/arrival/15541/1019" ns0:sta="BAD">
          <pickID>quakeml:local/pick/15541</pickID>
          <phase>S</phase>
          <azimuth>132.0</azimuth>
          <distance>0.237</distance>
          <timeResidual>0.05</timeResidual>
          <timeWeight>1.0</timeWeight>
          <earthModelID>quakeml:local/earthmodel/</earthModelID>
          <creationInfo>
            <creationTime>2021-03-02T10:07:57.748000Z</creationTime>
          </creationInfo>
        </arrival>
        <arrival publicID="quakeml:local/arrival/15542/1019" ns0:sta="VINO">
          <pickID>quakeml:local/pick/15542</pickID>
          <phase>P</phase>
          <azimuth>124.0</azimuth>
          <distance>0.245</distance>
          <timeResidual>-0.09</timeResidual>
          <timeWeight>1.9</timeWeight>
          <earthModelID>quakeml:local/earthmodel/</earthModelID>
          <creationInfo>
            <creationTime>2021-03-02T10:07:57.850000Z</creationTime>
          </creationInfo>
        </arrival>
        <arrival publicID="quakeml:local/arrival/15543/1019" ns0:sta="VINO">
          <pickID>quakeml:local/pick/15543</pickID>
          <phase>S</phase>
          <azimuth>124.0</azimuth>
          <distance>0.245</distance>
          <timeResidual>0.04</timeResidual>
          <timeWeight>1.0</timeWeight>
          <earthModelID>quakeml:local/earthmodel/</earthModelID>
          <creationInfo>
            <creationTime>2021-03-02T10:07:57.885000Z</creationTime>
          </creationInfo>
        </arrival>
        <arrival publicID="quakeml:local/arrival/15544/1019" ns0:sta="FVI">
          <pickID>quakeml:local/pick/15544</pickID>
          <phase>P</phase>
          <azimuth>325.0</azimuth>
          <distance>0.249</distance>
          <timeResidual>-0.07</timeResidual>
          <timeWeight>1.43</timeWeight>
          <earthModelID>quakeml:local/earthmodel/</earthModelID>
          <creationInfo>
            <creationTime>2021-03-02T10:07:57.957000Z</creationTime>
          </creationInfo>
        </arrival>
        <arrival publicID="quakeml:local/arrival/15545/1019" ns0:sta="FVI">
          <pickID>quakeml:local/pick/15545</pickID>
          <phase>S</phase>
          <azimuth>325.0</azimuth>
          <distance>0.249</distance>
          <timeResidual>-0.1</timeResidual>
          <timeWeight>1.0</timeWeight>
          <earthModelID>quakeml:local/earthmodel/</earthModelID>
          <creationInfo>
            <creationTime>2021-03-02T10:07:57.988000Z</creationTime>
          </creationInfo>
        </arrival>
        <arrival publicID="quakeml:local/arrival/15546/1019" ns0:sta="PTCC">
          <pickID>quakeml:local/pick/15546</pickID>
          <phase>P</phase>
          <azimuth>87.0</azimuth>
          <distance>0.252</distance>
          <timeResidual>-0.0</timeResidual>
          <timeWeight>1.43</timeWeight>
          <earthModelID>quakeml:local/earthmodel/</earthModelID>
          <creationInfo>
            <creationTime>2021-03-02T10:07:58.054000Z</creationTime>
          </creationInfo>
        </arrival>
        <arrival publicID="quakeml:local/arrival/15547/1019" ns0:sta="PTCC">
          <pickID>quakeml:local/pick/15547</pickID>
          <phase>S</phase>
          <azimuth>87.0</azimuth>
          <distance>0.252</distance>
          <timeResidual>0.2</timeResidual>
          <timeWeight>1.0</timeWeight>
          <earthModelID>quakeml:local/earthmodel/</earthModelID>
          <creationInfo>
            <creationTime>2021-03-02T10:07:58.085000Z</creationTime>
          </creationInfo>
        </arrival>
        <arrival publicID="quakeml:local/arrival/15548/1019" ns0:sta="CSM">
          <pickID>quakeml:local/pick/15548</pickID>
          <phase>P</phase>
          <azimuth>297.0</azimuth>
          <distance>0.262</distance>
          <timeResidual>0.07</timeResidual>
          <timeWeight>1.43</timeWeight>
          <earthModelID>quakeml:local/earthmodel/</earthModelID>
          <creationInfo>
            <creationTime>2021-03-02T10:07:58.151000Z</creationTime>
          </creationInfo>
        </arrival>
        <arrival publicID="quakeml:local/arrival/15549/1019" ns0:sta="CSM">
          <pickID>quakeml:local/pick/15549</pickID>
          <phase>S</phase>
          <azimuth>297.0</azimuth>
          <distance>0.262</distance>
          <timeResidual>0.31</timeResidual>
          <timeWeight>1.4</timeWeight>
          <earthModelID>quakeml:local/earthmodel/</earthModelID>
          <creationInfo>
            <creationTime>2021-03-02T10:07:58.182000Z</creationTime>
          </creationInfo>
        </arrival>
        <arrival publicID="quakeml:local/arrival/15550/1019" ns0:sta="MLN">
          <pickID>quakeml:local/pick/15550</pickID>
          <phase>P</phase>
          <azimuth>227.0</azimuth>
          <distance>0.356</distance>
          <timeResidual>-0.02</timeResidual>
          <timeWeight>0.95</timeWeight>
          <earthModelID>quakeml:local/earthmodel/</earthModelID>
          <creationInfo>
            <creationTime>2021-03-02T10:07:58.248000Z</creationTime>
          </creationInfo>
        </arrival>
        <arrival publicID="quakeml:local/arrival/15551/1019" ns0:sta="MLN">
          <pickID>quakeml:local/pick/15551</pickID>
          <phase>S</phase>
          <azimuth>227.0</azimuth>
          <distance>0.356</distance>
          <timeResidual>0.01</timeResidual>
          <timeWeight>0.5</timeWeight>
          <earthModelID>quakeml:local/earthmodel/</earthModelID>
          <creationInfo>
            <creationTime>2021-03-02T10:07:58.279000Z</creationTime>
          </creationInfo>
        </arrival>
        <arrival publicID="quakeml:local/arrival/15552/1019" ns0:sta="COLI">
          <pickID>quakeml:local/pick/15552</pickID>
          <phase>P</phase>
          <azimuth>134.0</azimuth>
          <distance>0.375</distance>
          <timeResidual>0.04</timeResidual>
          <timeWeight>1.89</timeWeight>
          <earthModelID>quakeml:local/earthmodel/</earthModelID>
          <creationInfo>
            <creationTime>2021-03-02T10:07:58.379000Z</creationTime>
          </creationInfo>
        </arrival>
        <arrival publicID="quakeml:local/arrival/15553/1019" ns0:sta="COLI">
          <pickID>quakeml:local/pick/15553</pickID>
          <phase>S</phase>
          <azimuth>134.0</azimuth>
          <distance>0.375</distance>
          <timeResidual>0.07</timeResidual>
          <timeWeight>0.9</timeWeight>
          <earthModelID>quakeml:local/earthmodel/</earthModelID>
          <creationInfo>
            <creationTime>2021-03-02T10:07:58.410000Z</creationTime>
          </creationInfo>
        </arrival>
        <arrival publicID="quakeml:local/arrival/15554/1019" ns0:sta="LSR">
          <pickID>quakeml:local/pick/15554</pickID>
          <phase>P</phase>
          <azimuth>78.0</azimuth>
          <distance>0.381</distance>
