<?xml version='1.0' encoding='utf-8'?>
<q:quakeml xmlns="http://quakeml.org/xmlns/bed/1.2" xmlns:q="http://quakeml.org/xmlns/quakeml/1.2" xmlns:ns0="http://rts.crs.inogs.it/xmlns/ogs/0.1" xmlns:ns1="http://rts.crs.inogs.it/xmlns/catalogo/0.1">
  <eventParameters publicID="smi:local/c4752d69-5e9d-4954-8270-af0aad585909">
    <event publicID="quakeml:local/event/00001433" ns1:datasource="ogs" ns1:eventid="1433" ns1:eventsource="ogs">
      <preferredOriginID>quakeml:local/origin/1433</preferredOriginID>
      <preferredMagnitudeID>quakeml:local/magnitude/2615</preferredMagnitudeID>
      <type>earthquake</type>
      <creationInfo>
        <agencyID>ogs</agencyID>
        <author>Antelope event2qml process</author>
        <creationTime>2021-03-02T10:15:50.009000Z</creationTime>
        <version>1614680150</version>
      </creationInfo>
      <origin publicID="quakeml:local/origin/1433" ns1:datasource="ogs" ns1:dataid="1433">
        <time>
          <value>2019-08-29T08:54:25.390000Z</value>
        </time>
        <latitude>
          <value>46.2985</value>
          <uncertainty>0.00271247739602</uncertainty>
        </latitude>
        <longitude>
          <value>13.1</value>
          <uncertainty>0.00390717063414</uncertainty>
        </longitude>
        <depth>
          <value>7570.0</value>
          <uncertainty>500.0</uncertainty>
        </depth>
        <quality>
          <associatedPhaseCount>51</associatedPhaseCount>
          <usedPhaseCount>51</usedPhaseCount>
          <standardError>0.18</standardError>
        </quality>
        <type>hypocenter</type>
        <evaluationMode>manual</evaluationMode>
        <evaluationStatus>reviewed</evaluationStatus>
        <comment>
          <text>algorithm: hypo71</text>
        </comment>
        <creationInfo>
          <author>ogsbulletin</author>
          <version>1614680149.97</version>
        </creationInfo>
        <originUncertainty>
          <preferredDescription>horizontal uncertainty</preferredDescription>
          <minHorizontalUncertainty>300.0</minHorizontalUncertainty>
          <maxHorizontalUncertainty>300.0</maxHorizontalUncertainty>
          <azimuthMaxHorizontalUncertainty>0.0</azimuthMaxHorizontalUncertainty>
        </originUncertainty>
        <arrival publicID="quakeml:local/arrival/21791/1433" ns0:sta="BOO">
          <pickID>quakeml:local/pick/21791</pickID>
          <phase>P</phase>
          <azimuth>357.0</azimuth>
          <distance>0.022</distance>
          <timeResidual>-0.11</timeResidual>
          <timeWeight>1.74</timeWeight>
          <earthModelID>quakeml:local/earthmodel/</earthModelID>
          <creationInfo>
            <creationTime>2021-03-02T10:15:50.274000Z</creationTime>
          </creationInfo>
        </arrival>
        <arrival publicID="quakeml:local/arrival/21792/1433" ns0:sta="BOO">
          <pickID>quakeml:local/pick/21792</pickID>
          <phase>S</phase>
          <azimuth>357.0</azimuth>
          <distance>0.022</distance>
          <timeResidual>-0.26</timeResidual>
          <timeWeight>0.9</timeWeight>
          <earthModelID>quakeml:local/earthmodel/</earthModelID>
          <creationInfo>
            <creationTime>2021-03-02T10:15:50.314000Z</creationTime>
          </creationInfo>
        </arrival>
        <arrival publicID="quakeml:local/arrival/21793/1433" ns0:sta="GEPF">
          <pickID>quakeml:local/pick/21793</pickID>
          <phase>P</phase>
          <azimuth>137.0</azimuth>
          <distance>0.039</distance>
          <timeResidual>-0.07</timeResidual>
          <timeWeight>1.74</timeWeight>
          <earthModelID>quakeml:local/earthmodel/</earthModelID>
          <creationInfo>
            <creationTime>2021-03-02T10:15:50.388000Z</creationTime>
          </creationInfo>
        </arrival>
        <arrival publicID="quakeml:local/arrival/21794/1433" ns0:sta="GEPF">
          <pickID>quakeml:local/pick/21794</pickID>
          <phase>S</phase>
          <azimuth>137.0</azimuth>
          <distance>0.039</distance>
          <timeResidual>-0.19</timeResidual>
          <timeWeight>0.9</timeWeight>
          <earthModelID>quakeml:local/earthmodel/</earthModelID>
          <creationInfo>
            <creationTime>2021-03-02T10:15:50.422000Z</creationTime>
          </creationInfo>
        </arrival>
        <arrival publicID="quakeml:local/arrival/21795/1433" ns0:sta="BUA">
          <pickID>quakeml:local/pick/21795</pickID>
          <phase>P</phase>
          <azimuth>169.0</azimuth>
          <distance>0.084</distance>
          <timeResidual>-0.03</timeResidual>
          <timeWeight>1.74</timeWeight>
          <earthModelID>quakeml:local/earthmodel/</earthModelID>
          <creationInfo>
            <creationTime>2021-03-02T10:15:50.525000Z</creationTime>
          </creationInfo>
        </arrival>
        <arrival publicID="quakeml:local/arrival/21796/1433" ns0:sta="BUA">
          <pickID>quakeml:local/pick/21796</pickID>
          <phase>S</phase>
          <azimuth>169.0</azimuth>
          <distance>0.084</distance>
          <timeResidual>0.19</timeResidual>
          <timeWeight>0.9</timeWeight>
          <earthModelID>quakeml:local/earthmodel/</earthModelID>
          <creationInfo>
            <creationTime>2021-03-02T10:15:50.559000Z</creationTime>
          </creationInfo>
        </arrival>
        <arrival publicID="quakeml:local/arrival/21797/1433" ns0:sta="MPRI">
          <pickID>quakeml:local/pick/21797</pickID>
          <phase>P</phase>
          <azimuth>233.0</azimuth>
          <distance>0.098</distance>
          <timeResidual>-0.0</timeResidual>
          <timeWeight>1.74</timeWeight>
          <earthModelID>quakeml:local/earthmodel/</earthModelID>
          <creationInfo>
            <creationTime>2021-03-02T10:15:50.668000Z</creationTime>
          </creationInfo>
        </arrival>
        <arrival publicID="quakeml:local/arrival/21798/1433" ns0:sta="MPRI">
          <pickID>quakeml:local/pick/21798</pickID>
          <phase>S</phase>
          <azimuth>233.0</azimuth>
          <distance>0.098</distance>
          <timeResidual>0.14</timeResidual>
          <timeWeight>0.9</timeWeight>
          <earthModelID>quakeml:local/earthmodel/</earthModelID>
          <creationInfo>
            <creationTime>2021-03-02T10:15:50.702000Z</creationTime>
          </creationInfo>
        </arrival>
        <arrival publicID="quakeml:local/arrival/21799/1433" ns0:sta="BAD">
          <pickID>quakeml:local/pick/21799</pickID>
          <phase>P</phase>
          <azimuth>123.0</azimuth>
          <distance>0.119</distance>
          <timeResidual>0.04</timeResidual>
          <timeWeight>1.31</timeWeight>
          <earthModelID>quakeml:local/earthmodel/</earthModelID>
          <creationInfo>
            <creationTime>2021-03-02T10:15:50.805000Z</creationTime>
          </creationInfo>
        </arrival>
        <arrival publicID="quakeml:local/arrival/21800/1433" ns0:sta="BAD">
          <pickID>quakeml:local/pick/21800</pickID>
          <phase>S</phase>
          <azimuth>123.0</azimuth>
          <distance>0.119</distance>
          <timeResidual>0.12</timeResidual>
          <timeWeight>0.9</timeWeight>
          <earthModelID>quakeml:local/earthmodel/</earthModelID>
          <creationInfo>
            <creationTime>2021-03-02T10:15:50.839000Z</creationTime>
          </creationInfo>
        </arrival>
        <arrival publicID="quakeml:local/arrival/21801/1433" ns0:sta="VINO">
          <pickID>quakeml:local/pick/21801</pickID>
          <phase>P</phase>
          <azimuth>109.0</azimuth>
          <distance>0.132</distance>
          <timeResidual>-0.04</timeResidual>
          <timeWeight>1.74</timeWeight>
          <earthModelID>quakeml:local/earthmodel/</earthModelID>
          <creationInfo>
            <creationTime>2021-03-02T10:15:50.942000Z</creationTime>
          </creationInfo>
        </arrival>
        <arrival publicID="quakeml:local/arrival/21802/1433" ns0:sta="VINO">
          <pickID>quakeml:local/pick/21802</pickID>
          <phase>S</phase>
          <azimuth>109.0</azimuth>
          <distance>0.132</distance>
          <timeResidual>0.31</timeResidual>
          <timeWeight>0.9</timeWeight>
          <earthModelID>quakeml:local/earthmodel/</earthModelID>
          <creationInfo>
            <creationTime>2021-03-02T10:15:50.976000Z</creationTime>
          </creationInfo>
        </arrival>
        <arrival publicID="quakeml:local/arrival/21803/1433" ns0:sta="FUSE">
          <pickID>quakeml:local/pick/21803</pickID>
          <phase>P</phase>
          <azimuth>329.0</azimuth>
          <distance>0.134</distance>
          <timeResidual>0.04</timeResidual>
          <timeWeight>1.31</timeWeight>
          <earthModelID>quakeml:local/earthmodel/</earthModelID>
          <creationInfo>
            <creationTime>2021-03-02T10:15:51.079000Z</creationTime>
          </creationInfo>
        </arrival>
        <arrival publicID="quakeml:local/arrival/21804/1433" ns0:sta="FUSE">
          <pickID>quakeml:local/pick/21804</pickID>
          <phase>S</phase>
          <azimuth>329.0</azimuth>
          <distance>0.134</distance>
          <timeResidual>-0.01</timeResidual>
          <timeWeight>1.3</timeWeight>
          <earthModelID>quakeml:local/earthmodel/</earthModelID>
          <creationInfo>
            <creationTime>2021-03-02T10:15:51.113000Z</creationTime>
          </creationInfo>
        </arrival>
        <arrival publicID="quakeml:local/arrival/21805/1433" ns0:sta="PTCC">
          <pickID>quakeml:local/pick/21805</pickID>
          <phase>P</phase>
          <azimuth>59.0</azimuth>
          <distance>0.205</distance>
          <timeResidual>-0.08</timeResidual>
          <timeWeight>1.74</timeWeight>
          <earthModelID>quakeml:local/earthmodel/</earthModelID>
          <creationInfo>
            <creationTime>2021-03-02T10:15:51.190000Z</creationTime>
          </creationInfo>
        </arrival>
        <arrival publicID="quakeml:local/arrival/21806/1433" ns0:sta="PTCC">
          <pickID>quakeml:local/pick/21806</pickID>
          <phase>S</phase>
          <azimuth>59.0</azimuth>
          <distance>0.205</distance>
          <timeResidual>0.03</timeResidual>
          <timeWeight>0.9</timeWeight>
          <earthModelID>quakeml:local/earthmodel/</earthModelID>
          <creationInfo>
            <creationTime>2021-03-02T10:15:51.224000Z</creationTime>
          </creationInfo>
        </arrival>
        <arrival publicID="quakeml:local/arrival/21807/1433" ns0:sta="CLUD">
          <pickID>quakeml:local/pick/21807</pickID>
          <phase>P</phase>
          <azimuth>316.0</azimuth>
          <distance>0.219</distance>
          <timeResidual>-0.09</timeResidual>
          <timeWeight>1.31</timeWeight>
          <earthModelID>quakeml:local/earthmodel/</earthModelID>
          <creationInfo>
            <creationTime>2021-03-02T10:15:51.333000Z</creationTime>
          </creationInfo>
        </arrival>
        <arrival publicID="quakeml:local/arrival/21808/1433" ns0:sta="CLUD">
          <pickID>quakeml:local/pick/21808</pickID>
          <phase>S</phase>
          <azimuth>316.0</azimuth>
          <distance>0.219</distance>
          <timeResidual>0.08</timeResidual>
          <timeWeight>0.9</timeWeight>
          <earthModelID>quakeml:local/earthmodel/</earthModelID>
          <creationInfo>
            <creationTime>2021-03-02T10:15:51.367000Z</creationTime>
          </creationInfo>
        </arrival>
        <arrival publicID="quakeml:local/arrival/21809/1433" ns0:sta="PLRO">
          <pickID>quakeml:local/pick/21809</pickID>
          <phase>P</phase>
          <azimuth>8.0</azimuth>
          <distance>0.253</distance>
          <timeResidual>0.12</timeResidual>
          <timeWeight>1.31</timeWeight>
          <earthModelID>quakeml:local/earthmodel/</earthModelID>
          <creationInfo>
            <creationTime>2021-03-02T10:15:51.487000Z</creationTime>
          </creationInfo>
        </arrival>
        <arrival publicID="quakeml:local/arrival/21810/1433" ns0:sta="PLRO">
          <pickID>quakeml:local/pick/21810</pickID>
          <phase>S</phase>
          <azimuth>8.0</azimuth>
          <distance>0.253</distance>
          <timeResidual>0.09</timeResidual>
          <timeWeight>0.9</timeWeight>
          <earthModelID>quakeml:local/earthmodel/</earthModelID>
          <creationInfo>
            <creationTime>2021-03-02T10:15:51.521000Z</creationTime>
          </creationInfo>
        </arrival>
        <arrival publicID="quakeml:local/arrival/21811/1433" ns0:sta="COLI">
          <pickID>quakeml:local/pick/21811</pickID>
          <phase>P</phase>
          <azimuth>131.0</azimuth>
          <distance>0.255</distance>
          <timeResidual>0.15</timeResidual>
          <timeWeight>1.31</timeWeight>
          <earthModelID>quakeml:local/earthmodel/</earthModelID>
          <creationInfo>
            <creationTime>2021-03-02T10:15:51.624000Z</creationTime>
          </creationInfo>
        </arrival>
        <arrival publicID="quakeml:local/arrival/21812/1433" ns0:sta="COLI">
          <pickID>quakeml:local/pick/21812</pickID>
          <phase>S</phase>
          <azimuth>131.0</azimuth>
          <distance>0.255</distance>
          <timeResidual>0.27</timeResidual>
          <timeWeight>0.4</timeWeight>
          <earthModelID>quakeml:local/earthmodel/</earthModelID>
          <creationInfo>
            <creationTime>2021-03-02T10:15:51.658000Z</creationTime>
          </creationInfo>
        </arrival>
        <arrival publicID="quakeml:local/arrival/21813/1433" ns0:sta="STAL">
          <pickID>quakeml:local/pick/21813</pickID>
          <phase>P</phase>
          <azimuth>262.0</azimuth>
          <distance>0.272</distance>
          <timeResidual>-0.21</timeResidual>
          <timeWeight>1.74</timeWeight>
          <earthModelID>quakeml:local/earthmodel/</earthModelID>
          <creationInfo>
            <creationTime>2021-03-02T10:15:51.726000Z</creationTime>
          </creationInfo>
        </arrival>
        <arrival publicID="quakeml:local/arrival/21814/1433" ns0:sta="STAL">
          <pickID>quakeml:local/pick/21814</pickID>
          <phase>S</phase>
          <azimuth>262.0</azimuth>
          <distance>0.272</distance>
          <timeResidual>-0.07</timeResidual>
          <timeWeight>0.9</timeWeight>
          <earthModelID>quakeml:local/earthmodel/</earthModelID>
          <creationInfo>
            <creationTime>2021-03-02T10:15:51.761000Z</creationTime>
          </creationInfo>
        </arrival>
        <arrival publicID="quakeml:local/arrival/21815/1433" ns0:sta="ZOU2">
          <pickID>quakeml:local/pick/21815</pickID>
          <phase>P</phase>
          <azimuth>341.0</azimuth>
          <distance>0.273</distance>
          <timeResidual>0.14</timeResidual>
          <timeWeight>1.31</timeWeight>
          <earthModelID>quakeml:local/earthmodel/</earthModelID>
          <creationInfo>
            <creationTime>2021-03-02T10:15:51.863000Z</creationTime>
          </creationInfo>
        </arrival>
        <arrival publicID="quakeml:local/arrival/21816/1433" ns0:sta="ZOU2">
          <pickID>quakeml:local/pick/21816</pickID>
          <phase>S</phase>
          <azimuth>341.0</azimuth>
          <distance>0.273</distance>
          <timeResidual>0.07</timeResidual>
          <timeWeight>0.4</timeWeight>
          <earthModelID>quakeml:local/earthmodel/</earthModelID>
          <creationInfo>
            <creationTime>2021-03-02T10:15:51.898000Z</creationTime>
          </creationInfo>
        </arrival>
        <arrival publicID="quakeml:local/arrival/21817/1433" ns0:sta="PURA">
          <pickID>quakeml:local/pick/21817</pickID>
          <phase>P</phase>
          <azimuth>296.0</azimuth>
          <distance>0.28</distance>
          <timeResidual>0.1</timeResidual>
          <timeWeight>0.87</timeWeight>
          <earthModelID>quakeml:local/earthmodel/</earthModelID>
          <creationInfo>
            <creationTime>2021-03-02T10:15:51.966000Z</creationTime>
          </creationInfo>
        </arrival>
        <arrival publicID="quakeml:local/arrival/21818/1433" ns0:sta="PURA">
          <pickID>quakeml:local/pick/21818</pickID>
          <phase>S</phase>
          <azimuth>296.0</azimuth>
          <distance>0.28</distance>
          <timeResidual>0.21</timeResidual>
          <timeWeight>0.9</timeWeight>
          <earthModelID>quakeml:local/earthmodel/</earthModelID>
          <creationInfo>
            <creationTime>2021-03-02T10:15:52.000000Z</creationTime>
          </creationInfo>
        </arrival>
        <arrival publicID="quakeml:local/arrival/21819/1433" ns0:sta="ROBS">
          <pickID>quakeml:local/pick/21819</pickID>
          <phase>P</phase>
          <azimuth>101.0</azimuth>
          <distance>0.289</distance>
          <timeResidual>-0.24</timeResidual>
          <timeWeight>1.31</timeWeight>
          <earthModelID>quakeml:local/earthmodel/</earthModelID>
          <creationInfo>
            <creationTime>2021-03-02T10:15:52.069000Z</creationTime>
          </creationInfo>
        </arrival>
        <arrival publicID="quakeml:local/arrival/21820/1433" ns0:sta="ROBS">
          <pickID>quakeml:local/pick/21820</pickID>
          <phase>S</phase>
          <azimuth>101.0</azimuth>
          <distance>0.289</distance>
          <timeResidual>-0.03</timeResidual>
          <timeWeight>0.9</timeWeight>
          <earthModelID>quakeml:local/earthmodel/</earthModelID>
          <creationInfo>
            <creationTime>2021-03-02T10:15:52.103000Z</creationTime>
          </creationInfo>
        </arrival>
        <arrival publicID="quakeml:local/arrival/21821/1433" ns0:sta="LSR">
          <pickID>quakeml:local/pick/21821</pickID>
          <phase>P</phase>
          <azimuth>59.0</azimuth>
          <distance>0.345</distance>
          <timeResidual>0.13</timeResidual>
          <timeWeight>1.74</timeWeight>
          <earthModelID>quakeml:local/earthmodel/</earthModelID>
          <creationInfo>
            <creationTime>2021-03-02T10:15:52.209000Z</creationTime>
          </creationInfo>
        </arrival>
        <arrival publicID="quakeml:local/arrival/21822/1433" ns0:sta="LSR">
          <pickID>quakeml:local/pick/21822</pickID>
          <phase>S</phase>
          <azimuth>59.0</azimuth>
          <distance>0.345</distance>
          <timeResidual>0.17</timeResidual>
          <timeWeight>0.9</timeWeight>
          <earthModelID>quakeml:local/earthmodel/</earthModelID>
          <creationInfo>
            <creationTime>2021-03-02T10:15:52.243000Z</creationTime>
          </creationInfo>
        </arrival>
        <arrival publicID="quakeml:local/arrival/21823/1433" ns0:sta="MLN">
          <pickID>quakeml:local/pick/21823</pickID>
          <phase>P</phase>
          <azimuth>246.0</azimuth>
          <distance>0.368</distance>
          <timeResidual>0.31</timeResidual>
          <timeWeight>1.74</timeWeight>
          <earthModelID>quakeml:local/earthmodel/</earthModelID>
          <creationInfo>
            <creationTime>2021-03-02T10:15:52.346000Z</creationTime>
          </creationInfo>
        </arrival>
        <arrival publicID="quakeml:local/arrival/21824/1433" ns0:sta="MLN">
          <pickID>quakeml:local/pick/21824</pickID>
          <phase>S</phase>
          <azimuth>246.0</azimuth>
          <distance>0.368</distance>
          <timeResidual>0.27</timeResidual>
          <timeWeight>0.4</timeWeight>
          <earthModelID>quakeml:local/earthmodel/</earthModelID>
          <creationInfo>
            <creationTime>2021-03-02T10:15:52.380000Z</creationTime>
          </creationInfo>
        </arrival>
        <arrival publicID="quakeml:local/arrival/21825/1433" ns0:sta="FVI">
          <pickID>quakeml:local/pick/21825</pickID>
          <phase>P</phase>
          <azimuth>323.0</azimuth>
