<?xml version='1.0' encoding='utf-8'?>
<q:quakeml xmlns="http://quakeml.org/xmlns/bed/1.2" xmlns:q="http://quakeml.org/xmlns/quakeml/1.2" xmlns:ns0="http://rts.crs.inogs.it/xmlns/ogs/0.1" xmlns:ns1="http://rts.crs.inogs.it/xmlns/catalogo/0.1">
  <eventParameters publicID="smi:local/b98b1742-3637-4052-84b1-211beabe7c14">
    <event publicID="quakeml:local/event/00001152" ns1:datasource="ogs" ns1:eventid="1152" ns1:eventsource="ogs">
      <preferredOriginID>quakeml:local/origin/1152</preferredOriginID>
      <preferredMagnitudeID>quakeml:local/magnitude/2110</preferredMagnitudeID>
      <type>earthquake</type>
      <creationInfo>
        <agencyID>ogs</agencyID>
        <author>Antelope event2qml process</author>
        <creationTime>2021-03-02T10:10:27.483000Z</creationTime>
        <version>1614679827</version>
      </creationInfo>
      <origin publicID="quakeml:local/origin/1152" ns1:datasource="ogs" ns1:dataid="1152">
        <time>
          <value>2019-07-03T07:18:50.520000Z</value>
        </time>
        <latitude>
          <value>46.4763</value>
          <uncertainty>0.00180831826401</uncertainty>
        </latitude>
        <longitude>
          <value>13.1237</value>
          <uncertainty>0.0026132786691</uncertainty>
        </longitude>
        <depth>
          <value>7450.0</value>
          <uncertainty>500.0</uncertainty>
        </depth>
        <quality>
          <associatedPhaseCount>54</associatedPhaseCount>
          <usedPhaseCount>54</usedPhaseCount>
          <standardError>0.16</standardError>
        </quality>
        <type>hypocenter</type>
        <evaluationMode>manual</evaluationMode>
        <evaluationStatus>reviewed</evaluationStatus>
        <comment>
          <text>algorithm: hypo71</text>
        </comment>
        <creationInfo>
          <author>ogsbulletin</author>
          <version>1614679827.45</version>
        </creationInfo>
        <originUncertainty>
          <preferredDescription>horizontal uncertainty</preferredDescription>
          <minHorizontalUncertainty>200.0</minHorizontalUncertainty>
          <maxHorizontalUncertainty>200.0</maxHorizontalUncertainty>
          <azimuthMaxHorizontalUncertainty>0.0</azimuthMaxHorizontalUncertainty>
        </originUncertainty>
        <arrival publicID="quakeml:local/arrival/17553/1152" ns0:sta="PLRO">
          <pickID>quakeml:local/pick/17553</pickID>
          <phase>P</phase>
          <azimuth>13.0</azimuth>
          <distance>0.075</distance>
          <timeResidual>-0.03</timeResidual>
          <timeWeight>4.62</timeWeight>
          <earthModelID>quakeml:local/earthmodel/</earthModelID>
          <creationInfo>
            <creationTime>2021-03-02T10:10:27.746000Z</creationTime>
          </creationInfo>
        </arrival>
        <arrival publicID="quakeml:local/arrival/17554/1152" ns0:sta="PLRO">
          <pickID>quakeml:local/pick/17554</pickID>
          <phase>S</phase>
          <azimuth>13.0</azimuth>
          <distance>0.075</distance>
          <timeResidual>-0.12</timeResidual>
          <timeWeight>2.3</timeWeight>
          <earthModelID>quakeml:local/earthmodel/</earthModelID>
          <creationInfo>
            <creationTime>2021-03-02T10:10:27.782000Z</creationTime>
          </creationInfo>
        </arrival>
        <arrival publicID="quakeml:local/arrival/17555/1152" ns0:sta="FUSE">
          <pickID>quakeml:local/pick/17555</pickID>
          <phase>P</phase>
          <azimuth>234.0</azimuth>
          <distance>0.105</distance>
          <timeResidual>-0.03</timeResidual>
          <timeWeight>1.36</timeWeight>
          <earthModelID>quakeml:local/earthmodel/</earthModelID>
          <creationInfo>
            <creationTime>2021-03-02T10:10:27.885000Z</creationTime>
          </creationInfo>
        </arrival>
        <arrival publicID="quakeml:local/arrival/17556/1152" ns0:sta="FUSE">
          <pickID>quakeml:local/pick/17556</pickID>
          <phase>S</phase>
          <azimuth>234.0</azimuth>
          <distance>0.105</distance>
          <timeResidual>0.03</timeResidual>
          <timeWeight>1.0</timeWeight>
          <earthModelID>quakeml:local/earthmodel/</earthModelID>
          <creationInfo>
            <creationTime>2021-03-02T10:10:27.923000Z</creationTime>
          </creationInfo>
        </arrival>
        <arrival publicID="quakeml:local/arrival/17557/1152" ns0:sta="ZOU2">
          <pickID>quakeml:local/pick/17557</pickID>
          <phase>P</phase>
          <azimuth>308.0</azimuth>
          <distance>0.131</distance>
          <timeResidual>0.18</timeResidual>
          <timeWeight>2.1</timeWeight>
          <earthModelID>quakeml:local/earthmodel/</earthModelID>
          <creationInfo>
            <creationTime>2021-03-02T10:10:28.028000Z</creationTime>
          </creationInfo>
        </arrival>
        <arrival publicID="quakeml:local/arrival/17558/1152" ns0:sta="ZOU2">
          <pickID>quakeml:local/pick/17558</pickID>
          <phase>S</phase>
          <azimuth>308.0</azimuth>
          <distance>0.131</distance>
          <timeResidual>0.11</timeResidual>
          <timeWeight>1.1</timeWeight>
          <earthModelID>quakeml:local/earthmodel/</earthModelID>
          <creationInfo>
            <creationTime>2021-03-02T10:10:28.062000Z</creationTime>
          </creationInfo>
        </arrival>
        <arrival publicID="quakeml:local/arrival/17559/1152" ns0:sta="BOO">
          <pickID>quakeml:local/pick/17559</pickID>
          <phase>P</phase>
          <azimuth>186.0</azimuth>
          <distance>0.157</distance>
          <timeResidual>-0.02</timeResidual>
          <timeWeight>1.36</timeWeight>
          <earthModelID>quakeml:local/earthmodel/</earthModelID>
          <creationInfo>
            <creationTime>2021-03-02T10:10:28.180000Z</creationTime>
          </creationInfo>
        </arrival>
        <arrival publicID="quakeml:local/arrival/17560/1152" ns0:sta="BOO">
          <pickID>quakeml:local/pick/17560</pickID>
          <phase>S</phase>
          <azimuth>186.0</azimuth>
          <distance>0.157</distance>
          <timeResidual>0.18</timeResidual>
          <timeWeight>0.7</timeWeight>
          <earthModelID>quakeml:local/earthmodel/</earthModelID>
          <creationInfo>
            <creationTime>2021-03-02T10:10:28.210000Z</creationTime>
          </creationInfo>
        </arrival>
        <arrival publicID="quakeml:local/arrival/17561/1152" ns0:sta="CLUD">
          <pickID>quakeml:local/pick/17561</pickID>
          <phase>P</phase>
          <azimuth>263.0</azimuth>
          <distance>0.168</distance>
          <timeResidual>-0.02</timeResidual>
          <timeWeight>1.58</timeWeight>
          <earthModelID>quakeml:local/earthmodel/</earthModelID>
          <creationInfo>
            <creationTime>2021-03-02T10:10:28.313000Z</creationTime>
          </creationInfo>
        </arrival>
        <arrival publicID="quakeml:local/arrival/17562/1152" ns0:sta="CLUD">
          <pickID>quakeml:local/pick/17562</pickID>
          <phase>S</phase>
          <azimuth>263.0</azimuth>
          <distance>0.168</distance>
          <timeResidual>0.07</timeResidual>
          <timeWeight>1.1</timeWeight>
          <earthModelID>quakeml:local/earthmodel/</earthModelID>
          <creationInfo>
            <creationTime>2021-03-02T10:10:28.348000Z</creationTime>
          </creationInfo>
        </arrival>
        <arrival publicID="quakeml:local/arrival/17563/1152" ns0:sta="PTCC">
          <pickID>quakeml:local/pick/17563</pickID>
          <phase>P</phase>
          <azimuth>114.0</azimuth>
          <distance>0.174</distance>
          <timeResidual>-0.07</timeResidual>
          <timeWeight>0.83</timeWeight>
          <earthModelID>quakeml:local/earthmodel/</earthModelID>
          <creationInfo>
            <creationTime>2021-03-02T10:10:28.422000Z</creationTime>
          </creationInfo>
        </arrival>
        <arrival publicID="quakeml:local/arrival/17564/1152" ns0:sta="PTCC">
          <pickID>quakeml:local/pick/17564</pickID>
          <phase>S</phase>
          <azimuth>114.0</azimuth>
          <distance>0.174</distance>
          <timeResidual>0.14</timeResidual>
          <timeWeight>0.6</timeWeight>
          <earthModelID>quakeml:local/earthmodel/</earthModelID>
          <creationInfo>
            <creationTime>2021-03-02T10:10:28.456000Z</creationTime>
          </creationInfo>
        </arrival>
        <arrival publicID="quakeml:local/arrival/17565/1152" ns0:sta="GEPF">
          <pickID>quakeml:local/pick/17565</pickID>
          <phase>P</phase>
          <azimuth>177.0</azimuth>
          <distance>0.207</distance>
          <timeResidual>-0.01</timeResidual>
          <timeWeight>1.36</timeWeight>
          <earthModelID>quakeml:local/earthmodel/</earthModelID>
          <creationInfo>
            <creationTime>2021-03-02T10:10:28.525000Z</creationTime>
          </creationInfo>
        </arrival>
        <arrival publicID="quakeml:local/arrival/17566/1152" ns0:sta="GEPF">
          <pickID>quakeml:local/pick/17566</pickID>
          <phase>S</phase>
          <azimuth>177.0</azimuth>
          <distance>0.207</distance>
          <timeResidual>-0.09</timeResidual>
          <timeWeight>0.7</timeWeight>
          <earthModelID>quakeml:local/earthmodel/</earthModelID>
          <creationInfo>
            <creationTime>2021-03-02T10:10:28.559000Z</creationTime>
          </creationInfo>
        </arrival>
        <arrival publicID="quakeml:local/arrival/17567/1152" ns0:sta="VINO">
          <pickID>quakeml:local/pick/17567</pickID>
          <phase>P</phase>
          <azimuth>154.0</azimuth>
          <distance>0.246</distance>
          <timeResidual>0.01</timeResidual>
          <timeWeight>0.83</timeWeight>
          <earthModelID>quakeml:local/earthmodel/</earthModelID>
          <creationInfo>
            <creationTime>2021-03-02T10:10:28.661000Z</creationTime>
          </creationInfo>
        </arrival>
        <arrival publicID="quakeml:local/arrival/17568/1152" ns0:sta="VINO">
          <pickID>quakeml:local/pick/17568</pickID>
          <phase>S</phase>
          <azimuth>154.0</azimuth>
          <distance>0.246</distance>
          <timeResidual>0.17</timeResidual>
          <timeWeight>0.6</timeWeight>
          <earthModelID>quakeml:local/earthmodel/</earthModelID>
          <creationInfo>
            <creationTime>2021-03-02T10:10:28.696000Z</creationTime>
          </creationInfo>
        </arrival>
        <arrival publicID="quakeml:local/arrival/17569/1152" ns0:sta="MPRI">
          <pickID>quakeml:local/pick/17569</pickID>
          <phase>P</phase>
          <azimuth>202.0</azimuth>
          <distance>0.255</distance>
          <timeResidual>0.0</timeResidual>
          <timeWeight>1.36</timeWeight>
          <earthModelID>quakeml:local/earthmodel/</earthModelID>
          <creationInfo>
            <creationTime>2021-03-02T10:10:28.798000Z</creationTime>
          </creationInfo>
        </arrival>
        <arrival publicID="quakeml:local/arrival/17570/1152" ns0:sta="MPRI">
          <pickID>quakeml:local/pick/17570</pickID>
          <phase>S</phase>
          <azimuth>202.0</azimuth>
          <distance>0.255</distance>
          <timeResidual>0.02</timeResidual>
          <timeWeight>0.7</timeWeight>
          <earthModelID>quakeml:local/earthmodel/</earthModelID>
          <creationInfo>
            <creationTime>2021-03-02T10:10:28.833000Z</creationTime>
          </creationInfo>
        </arrival>
        <arrival publicID="quakeml:local/arrival/17571/1152" ns0:sta="BAD">
          <pickID>quakeml:local/pick/17571</pickID>
          <phase>P</phase>
          <azimuth>161.0</azimuth>
          <distance>0.255</distance>
          <timeResidual>-0.05</timeResidual>
          <timeWeight>1.02</timeWeight>
          <earthModelID>quakeml:local/earthmodel/</earthModelID>
          <creationInfo>
            <creationTime>2021-03-02T10:10:28.941000Z</creationTime>
          </creationInfo>
        </arrival>
        <arrival publicID="quakeml:local/arrival/17572/1152" ns0:sta="BAD">
          <pickID>quakeml:local/pick/17572</pickID>
          <phase>S</phase>
          <azimuth>161.0</azimuth>
          <distance>0.255</distance>
          <timeResidual>0.27</timeResidual>
          <timeWeight>0.7</timeWeight>
          <earthModelID>quakeml:local/earthmodel/</earthModelID>
          <creationInfo>
            <creationTime>2021-03-02T10:10:28.975000Z</creationTime>
          </creationInfo>
        </arrival>
        <arrival publicID="quakeml:local/arrival/17573/1152" ns0:sta="BUA">
          <pickID>quakeml:local/pick/17573</pickID>
          <phase>P</phase>
          <azimuth>180.0</azimuth>
          <distance>0.26</distance>
          <timeResidual>0.08</timeResidual>
          <timeWeight>1.36</timeWeight>
          <earthModelID>quakeml:local/earthmodel/</earthModelID>
          <creationInfo>
            <creationTime>2021-03-02T10:10:29.089000Z</creationTime>
          </creationInfo>
        </arrival>
        <arrival publicID="quakeml:local/arrival/17574/1152" ns0:sta="BUA">
          <pickID>quakeml:local/pick/17574</pickID>
          <phase>S</phase>
          <azimuth>180.0</azimuth>
          <distance>0.26</distance>
          <timeResidual>0.12</timeResidual>
          <timeWeight>0.7</timeWeight>
          <earthModelID>quakeml:local/earthmodel/</earthModelID>
          <creationInfo>
            <creationTime>2021-03-02T10:10:29.124000Z</creationTime>
          </creationInfo>
        </arrival>
        <arrival publicID="quakeml:local/arrival/17575/1152" ns0:sta="PURA">
          <pickID>quakeml:local/pick/17575</pickID>
          <phase>P</phase>
          <azimuth>259.0</azimuth>
          <distance>0.272</distance>
          <timeResidual>0.03</timeResidual>
          <timeWeight>2.1</timeWeight>
          <earthModelID>quakeml:local/earthmodel/</earthModelID>
          <creationInfo>
            <creationTime>2021-03-02T10:10:29.192000Z</creationTime>
          </creationInfo>
        </arrival>
        <arrival publicID="quakeml:local/arrival/17576/1152" ns0:sta="PURA">
          <pickID>quakeml:local/pick/17576</pickID>
          <phase>S</phase>
          <azimuth>259.0</azimuth>
          <distance>0.272</distance>
          <timeResidual>0.03</timeResidual>
          <timeWeight>1.1</timeWeight>
          <earthModelID>quakeml:local/earthmodel/</earthModelID>
          <creationInfo>
            <creationTime>2021-03-02T10:10:29.226000Z</creationTime>
          </creationInfo>
        </arrival>
        <arrival publicID="quakeml:local/arrival/17577/1152" ns0:sta="LSR">
          <pickID>quakeml:local/pick/17577</pickID>
          <phase>P</phase>
          <azimuth>90.0</azimuth>
          <distance>0.279</distance>
          <timeResidual>0.06</timeResidual>
          <timeWeight>0.83</timeWeight>
          <earthModelID>quakeml:local/earthmodel/</earthModelID>
          <creationInfo>
            <creationTime>2021-03-02T10:10:29.329000Z</creationTime>
          </creationInfo>
        </arrival>
        <arrival publicID="quakeml:local/arrival/17578/1152" ns0:sta="LSR">
          <pickID>quakeml:local/pick/17578</pickID>
          <phase>S</phase>
          <azimuth>90.0</azimuth>
          <distance>0.279</distance>
          <timeResidual>0.1</timeResidual>
          <timeWeight>0.3</timeWeight>
          <earthModelID>quakeml:local/earthmodel/</earthModelID>
          <creationInfo>
            <creationTime>2021-03-02T10:10:29.363000Z</creationTime>
          </creationInfo>
        </arrival>
        <arrival publicID="quakeml:local/arrival/17579/1152" ns0:sta="ACOM">
          <pickID>quakeml:local/pick/17579</pickID>
          <phase>P</phase>
          <azimuth>75.0</azimuth>
          <distance>0.28</distance>
          <timeResidual>0.22</timeResidual>
          <timeWeight>0.83</timeWeight>
          <earthModelID>quakeml:local/earthmodel/</earthModelID>
          <creationInfo>
            <creationTime>2021-03-02T10:10:29.466000Z</creationTime>
          </creationInfo>
        </arrival>
        <arrival publicID="quakeml:local/arrival/17580/1152" ns0:sta="ACOM">
          <pickID>quakeml:local/pick/17580</pickID>
          <phase>S</phase>
          <azimuth>75.0</azimuth>
          <distance>0.28</distance>
          <timeResidual>-0.11</timeResidual>
          <timeWeight>0.6</timeWeight>
          <earthModelID>quakeml:local/earthmodel/</earthModelID>
          <creationInfo>
            <creationTime>2021-03-02T10:10:29.500000Z</creationTime>
          </creationInfo>
        </arrival>
        <arrival publicID="quakeml:local/arrival/17581/1152" ns0:sta="PRED">
          <pickID>quakeml:local/pick/17581</pickID>
          <phase>P</phase>
          <azimuth>96.0</azimuth>
          <distance>0.307</distance>
          <timeResidual>-0.08</timeResidual>
          <timeWeight>0.83</timeWeight>
          <earthModelID>quakeml:local/earthmodel/</earthModelID>
          <creationInfo>
            <creationTime>2021-03-02T10:10:29.609000Z</creationTime>
          </creationInfo>
        </arrival>
        <arrival publicID="quakeml:local/arrival/17582/1152" ns0:sta="PRED">
          <pickID>quakeml:local/pick/17582</pickID>
          <phase>S</phase>
          <azimuth>96.0</azimuth>
          <distance>0.307</distance>
          <timeResidual>-0.19</timeResidual>
          <timeWeight>0.6</timeWeight>
          <earthModelID>quakeml:local/earthmodel/</earthModelID>
          <creationInfo>
            <creationTime>2021-03-02T10:10:29.643000Z</creationTime>
          </creationInfo>
        </arrival>
        <arrival publicID="quakeml:local/arrival/17583/1152" ns0:sta="CSM">
          <pickID>quakeml:local/pick/17583</pickID>
          <phase>P</phase>
          <azimuth>276.0</azimuth>
          <distance>0.327</distance>
          <timeResidual>-0.08</timeResidual>
          <timeWeight>2.1</timeWeight>
          <earthModelID>quakeml:local/earthmodel/</earthModelID>
          <creationInfo>
            <creationTime>2021-03-02T10:10:29.711000Z</creationTime>
          </creationInfo>
        </arrival>
        <arrival publicID="quakeml:local/arrival/17584/1152" ns0:sta="CSM">
          <pickID>quakeml:local/pick/17584</pickID>
          <phase>S</phase>
          <azimuth>276.0</azimuth>
          <distance>0.327</distance>
          <timeResidual>-0.07</timeResidual>
          <timeWeight>1.1</timeWeight>
          <earthModelID>quakeml:local/earthmodel/</earthModelID>
          <creationInfo>
            <creationTime>2021-03-02T10:10:29.746000Z</creationTime>
          </creationInfo>
        </arrival>
        <arrival publicID="quakeml:local/arrival/17585/1152" ns0:sta="ROBS">
          <pickID>quakeml:local/pick/17585</pickID>
          <phase>P</phase>
          <azimuth>131.0</azimuth>
          <distance>0.353</distance>
          <timeResidual>-0.23</timeResidual>
          <timeWeight>0.83</timeWeight>
          <earthModelID>quakeml:local/earthmodel/</earthModelID>
          <creationInfo>
            <creationTime>2021-03-02T10:10:29.814000Z</creationTime>
          </creationInfo>
        </arrival>
        <arrival publicID="quakeml:local/arrival/17586/1152" ns0:sta="ROBS">
          <pickID>quakeml:local/pick/17586</pickID>
          <phase>S</phase>
          <azimuth>131.0</azimuth>
          <distance>0.353</distance>
          <timeResidual>0.25</timeResidual>
          <timeWeight>0.3</timeWeight>
          <earthModelID>quakeml:local/earthmodel/</earthModelID>
          <creationInfo>
            <creationTime>2021-03-02T10:10:29.848000Z</creationTime>
          </creationInfo>
        </arrival>
        <arrival publicID="quakeml:local/arrival/17587/1152" ns0:sta="STAL">
          <pickID>quakeml:local/pick/17587</pickID>
          <phase>P</phase>
          <azimuth>233.0</azimuth>
