<?xml version='1.0' encoding='utf-8'?>
<q:quakeml xmlns="http://quakeml.org/xmlns/bed/1.2" xmlns:q="http://quakeml.org/xmlns/quakeml/1.2" xmlns:ns0="http://rts.crs.inogs.it/xmlns/ogs/0.1" xmlns:ns1="http://rts.crs.inogs.it/xmlns/catalogo/0.1">
  <eventParameters publicID="smi:local/6187d7ee-12ec-434f-be93-ca8e20c50d43">
    <event publicID="quakeml:local/event/00001179" ns1:datasource="ogs" ns1:eventid="1179" ns1:eventsource="ogs">
      <preferredOriginID>quakeml:local/origin/1179</preferredOriginID>
      <preferredMagnitudeID>quakeml:local/magnitude/2159</preferredMagnitudeID>
      <type>earthquake</type>
      <creationInfo>
        <agencyID>ogs</agencyID>
        <author>Antelope event2qml process</author>
        <creationTime>2021-03-02T10:11:00.265000Z</creationTime>
        <version>1614679860</version>
      </creationInfo>
      <origin publicID="quakeml:local/origin/1179" ns1:datasource="ogs" ns1:dataid="1179">
        <time>
          <value>2019-07-07T21:09:33.080000Z</value>
        </time>
        <latitude>
          <value>46.3968</value>
          <uncertainty>0.00361663652803</uncertainty>
        </latitude>
        <longitude>
          <value>12.999</value>
          <uncertainty>0.00521893776838</uncertainty>
        </longitude>
        <depth>
          <value>7950.0</value>
          <uncertainty>900.0</uncertainty>
        </depth>
        <quality>
          <associatedPhaseCount>56</associatedPhaseCount>
          <usedPhaseCount>57</usedPhaseCount>
          <standardError>0.24</standardError>
        </quality>
        <type>hypocenter</type>
        <evaluationMode>manual</evaluationMode>
        <evaluationStatus>reviewed</evaluationStatus>
        <comment>
          <text>algorithm: hypo71</text>
        </comment>
        <creationInfo>
          <author>ogsbulletin</author>
          <version>1614679860.23</version>
        </creationInfo>
        <originUncertainty>
          <preferredDescription>horizontal uncertainty</preferredDescription>
          <minHorizontalUncertainty>400.0</minHorizontalUncertainty>
          <maxHorizontalUncertainty>400.0</maxHorizontalUncertainty>
          <azimuthMaxHorizontalUncertainty>0.0</azimuthMaxHorizontalUncertainty>
        </originUncertainty>
        <arrival publicID="quakeml:local/arrival/17994/1179" ns0:sta="FUSE">
          <pickID>quakeml:local/pick/17994</pickID>
          <phase>P</phase>
          <azimuth>5.0</azimuth>
          <distance>0.017</distance>
          <timeResidual>-0.52</timeResidual>
          <timeWeight>0.51</timeWeight>
          <earthModelID>quakeml:local/earthmodel/</earthModelID>
          <creationInfo>
            <creationTime>2021-03-02T10:11:00.496000Z</creationTime>
          </creationInfo>
        </arrival>
        <arrival publicID="quakeml:local/arrival/17995/1179" ns0:sta="CLUD">
          <pickID>quakeml:local/pick/17995</pickID>
          <phase>P</phase>
          <azimuth>306.0</azimuth>
          <distance>0.101</distance>
          <timeResidual>-0.02</timeResidual>
          <timeWeight>2.04</timeWeight>
          <earthModelID>quakeml:local/earthmodel/</earthModelID>
          <creationInfo>
            <creationTime>2021-03-02T10:11:00.613000Z</creationTime>
          </creationInfo>
        </arrival>
        <arrival publicID="quakeml:local/arrival/17996/1179" ns0:sta="CLUD">
          <pickID>quakeml:local/pick/17996</pickID>
          <phase>S</phase>
          <azimuth>306.0</azimuth>
          <distance>0.101</distance>
          <timeResidual>-0.16</timeResidual>
          <timeWeight>1.0</timeWeight>
          <earthModelID>quakeml:local/earthmodel/</earthModelID>
          <creationInfo>
            <creationTime>2021-03-02T10:11:00.647000Z</creationTime>
          </creationInfo>
        </arrival>
        <arrival publicID="quakeml:local/arrival/17997/1179" ns0:sta="BOO">
          <pickID>quakeml:local/pick/17997</pickID>
          <phase>P</phase>
          <azimuth>138.0</azimuth>
          <distance>0.103</distance>
          <timeResidual>-0.01</timeResidual>
          <timeWeight>2.04</timeWeight>
          <earthModelID>quakeml:local/earthmodel/</earthModelID>
          <creationInfo>
            <creationTime>2021-03-02T10:11:00.753000Z</creationTime>
          </creationInfo>
        </arrival>
        <arrival publicID="quakeml:local/arrival/17998/1179" ns0:sta="BOO">
          <pickID>quakeml:local/pick/17998</pickID>
          <phase>S</phase>
          <azimuth>138.0</azimuth>
          <distance>0.103</distance>
          <timeResidual>-0.11</timeResidual>
          <timeWeight>1.0</timeWeight>
          <earthModelID>quakeml:local/earthmodel/</earthModelID>
          <creationInfo>
            <creationTime>2021-03-02T10:11:00.784000Z</creationTime>
          </creationInfo>
        </arrival>
        <arrival publicID="quakeml:local/arrival/17999/1179" ns0:sta="MPRI">
          <pickID>quakeml:local/pick/17999</pickID>
          <phase>P</phase>
          <azimuth>183.0</azimuth>
          <distance>0.157</distance>
          <timeResidual>0.04</timeResidual>
          <timeWeight>2.04</timeWeight>
          <earthModelID>quakeml:local/earthmodel/</earthModelID>
          <creationInfo>
            <creationTime>2021-03-02T10:11:00.887000Z</creationTime>
          </creationInfo>
        </arrival>
        <arrival publicID="quakeml:local/arrival/18000/1179" ns0:sta="MPRI">
          <pickID>quakeml:local/pick/18000</pickID>
          <phase>S</phase>
          <azimuth>183.0</azimuth>
          <distance>0.157</distance>
          <timeResidual>0.12</timeResidual>
          <timeWeight>1.0</timeWeight>
          <earthModelID>quakeml:local/earthmodel/</earthModelID>
          <creationInfo>
            <creationTime>2021-03-02T10:11:00.924000Z</creationTime>
          </creationInfo>
        </arrival>
        <arrival publicID="quakeml:local/arrival/18001/1179" ns0:sta="GEPF">
          <pickID>quakeml:local/pick/18001</pickID>
          <phase>P</phase>
          <azimuth>143.0</azimuth>
          <distance>0.159</distance>
          <timeResidual>-0.06</timeResidual>
          <timeWeight>2.04</timeWeight>
          <earthModelID>quakeml:local/earthmodel/</earthModelID>
          <creationInfo>
            <creationTime>2021-03-02T10:11:00.993000Z</creationTime>
          </creationInfo>
        </arrival>
        <arrival publicID="quakeml:local/arrival/18002/1179" ns0:sta="GEPF">
          <pickID>quakeml:local/pick/18002</pickID>
          <phase>S</phase>
          <azimuth>143.0</azimuth>
          <distance>0.159</distance>
          <timeResidual>-0.01</timeResidual>
          <timeWeight>1.0</timeWeight>
          <earthModelID>quakeml:local/earthmodel/</earthModelID>
          <creationInfo>
            <creationTime>2021-03-02T10:11:01.027000Z</creationTime>
          </creationInfo>
        </arrival>
        <arrival publicID="quakeml:local/arrival/18003/1179" ns0:sta="PURA">
          <pickID>quakeml:local/pick/18003</pickID>
          <phase>P</phase>
          <azimuth>278.0</azimuth>
          <distance>0.182</distance>
          <timeResidual>0.1</timeResidual>
          <timeWeight>1.53</timeWeight>
          <earthModelID>quakeml:local/earthmodel/</earthModelID>
          <creationInfo>
            <creationTime>2021-03-02T10:11:01.096000Z</creationTime>
          </creationInfo>
        </arrival>
        <arrival publicID="quakeml:local/arrival/18004/1179" ns0:sta="PURA">
          <pickID>quakeml:local/pick/18004</pickID>
          <phase>S</phase>
          <azimuth>278.0</azimuth>
          <distance>0.182</distance>
          <timeResidual>0.36</timeResidual>
          <timeWeight>0.5</timeWeight>
          <earthModelID>quakeml:local/earthmodel/</earthModelID>
          <creationInfo>
            <creationTime>2021-03-02T10:11:01.130000Z</creationTime>
          </creationInfo>
        </arrival>
        <arrival publicID="quakeml:local/arrival/18005/1179" ns0:sta="PLRO">
          <pickID>quakeml:local/pick/18005</pickID>
          <phase>P</phase>
          <azimuth>34.0</azimuth>
          <distance>0.183</distance>
          <timeResidual>0.07</timeResidual>
          <timeWeight>2.04</timeWeight>
          <earthModelID>quakeml:local/earthmodel/</earthModelID>
          <creationInfo>
            <creationTime>2021-03-02T10:11:01.238000Z</creationTime>
          </creationInfo>
        </arrival>
        <arrival publicID="quakeml:local/arrival/18006/1179" ns0:sta="PLRO">
          <pickID>quakeml:local/pick/18006</pickID>
          <phase>S</phase>
          <azimuth>34.0</azimuth>
          <distance>0.183</distance>
          <timeResidual>0.09</timeResidual>
          <timeWeight>1.0</timeWeight>
          <earthModelID>quakeml:local/earthmodel/</earthModelID>
          <creationInfo>
            <creationTime>2021-03-02T10:11:01.272000Z</creationTime>
          </creationInfo>
        </arrival>
        <arrival publicID="quakeml:local/arrival/18007/1179" ns0:sta="BUA">
          <pickID>quakeml:local/pick/18007</pickID>
          <phase>P</phase>
          <azimuth>154.0</azimuth>
          <distance>0.2</distance>
          <timeResidual>0.0</timeResidual>
          <timeWeight>2.04</timeWeight>
          <earthModelID>quakeml:local/earthmodel/</earthModelID>
          <creationInfo>
            <creationTime>2021-03-02T10:11:01.378000Z</creationTime>
          </creationInfo>
        </arrival>
        <arrival publicID="quakeml:local/arrival/18008/1179" ns0:sta="BUA">
          <pickID>quakeml:local/pick/18008</pickID>
          <phase>S</phase>
          <azimuth>154.0</azimuth>
          <distance>0.2</distance>
          <timeResidual>0.23</timeResidual>
          <timeWeight>0.5</timeWeight>
          <earthModelID>quakeml:local/earthmodel/</earthModelID>
          <creationInfo>
            <creationTime>2021-03-02T10:11:01.415000Z</creationTime>
          </creationInfo>
        </arrival>
        <arrival publicID="quakeml:local/arrival/18009/1179" ns0:sta="MORT">
          <pickID>quakeml:local/pick/18009</pickID>
          <phase>P</phase>
          <azimuth>270.0</azimuth>
          <distance>0.205</distance>
          <timeResidual>0.01</timeResidual>
          <timeWeight>1.02</timeWeight>
          <earthModelID>quakeml:local/earthmodel/</earthModelID>
          <creationInfo>
            <creationTime>2021-03-02T10:11:01.449000Z</creationTime>
          </creationInfo>
        </arrival>
        <arrival publicID="quakeml:local/arrival/18010/1179" ns0:sta="MORT">
          <pickID>quakeml:local/pick/18010</pickID>
          <phase>S</phase>
          <azimuth>270.0</azimuth>
          <distance>0.205</distance>
          <timeResidual>0.3</timeResidual>
          <timeWeight>1.0</timeWeight>
          <earthModelID>quakeml:local/earthmodel/</earthModelID>
          <creationInfo>
            <creationTime>2021-03-02T10:11:01.486000Z</creationTime>
          </creationInfo>
        </arrival>
        <arrival publicID="quakeml:local/arrival/18011/1179" ns0:sta="BAD">
          <pickID>quakeml:local/pick/18011</pickID>
          <phase>P</phase>
          <azimuth>134.0</azimuth>
          <distance>0.235</distance>
          <timeResidual>-0.01</timeResidual>
          <timeWeight>2.04</timeWeight>
          <earthModelID>quakeml:local/earthmodel/</earthModelID>
          <creationInfo>
            <creationTime>2021-03-02T10:11:01.589000Z</creationTime>
          </creationInfo>
        </arrival>
        <arrival publicID="quakeml:local/arrival/18012/1179" ns0:sta="BAD">
          <pickID>quakeml:local/pick/18012</pickID>
          <phase>S</phase>
          <azimuth>134.0</azimuth>
          <distance>0.235</distance>
          <timeResidual>0.1</timeResidual>
          <timeWeight>1.0</timeWeight>
          <earthModelID>quakeml:local/earthmodel/</earthModelID>
          <creationInfo>
            <creationTime>2021-03-02T10:11:01.623000Z</creationTime>
          </creationInfo>
        </arrival>
        <arrival publicID="quakeml:local/arrival/18013/1179" ns0:sta="VINO">
          <pickID>quakeml:local/pick/18013</pickID>
          <phase>P</phase>
          <azimuth>126.0</azimuth>
          <distance>0.241</distance>
          <timeResidual>-0.01</timeResidual>
          <timeWeight>2.04</timeWeight>
          <earthModelID>quakeml:local/earthmodel/</earthModelID>
          <creationInfo>
            <creationTime>2021-03-02T10:11:01.729000Z</creationTime>
          </creationInfo>
        </arrival>
        <arrival publicID="quakeml:local/arrival/18014/1179" ns0:sta="VINO">
          <pickID>quakeml:local/pick/18014</pickID>
          <phase>S</phase>
          <azimuth>126.0</azimuth>
          <distance>0.241</distance>
          <timeResidual>0.12</timeResidual>
          <timeWeight>1.0</timeWeight>
          <earthModelID>quakeml:local/earthmodel/</earthModelID>
          <creationInfo>
            <creationTime>2021-03-02T10:11:01.766000Z</creationTime>
          </creationInfo>
        </arrival>
        <arrival publicID="quakeml:local/arrival/18015/1179" ns0:sta="STAL">
          <pickID>quakeml:local/pick/18015</pickID>
          <phase>P</phase>
          <azimuth>236.0</azimuth>
          <distance>0.242</distance>
          <timeResidual>-0.11</timeResidual>
          <timeWeight>2.04</timeWeight>
          <earthModelID>quakeml:local/earthmodel/</earthModelID>
          <creationInfo>
            <creationTime>2021-03-02T10:11:01.837000Z</creationTime>
          </creationInfo>
        </arrival>
        <arrival publicID="quakeml:local/arrival/18016/1179" ns0:sta="STAL">
          <pickID>quakeml:local/pick/18016</pickID>
          <phase>S</phase>
          <azimuth>236.0</azimuth>
          <distance>0.242</distance>
          <timeResidual>-0.11</timeResidual>
          <timeWeight>1.0</timeWeight>
          <earthModelID>quakeml:local/earthmodel/</earthModelID>
          <creationInfo>
            <creationTime>2021-03-02T10:11:01.874000Z</creationTime>
          </creationInfo>
        </arrival>
        <arrival publicID="quakeml:local/arrival/18017/1179" ns0:sta="PTCC">
          <pickID>quakeml:local/pick/18017</pickID>
          <phase>P</phase>
          <azimuth>88.0</azimuth>
          <distance>0.246</distance>
          <timeResidual>0.11</timeResidual>
          <timeWeight>1.53</timeWeight>
          <earthModelID>quakeml:local/earthmodel/</earthModelID>
          <creationInfo>
            <creationTime>2021-03-02T10:11:01.937000Z</creationTime>
          </creationInfo>
        </arrival>
        <arrival publicID="quakeml:local/arrival/18018/1179" ns0:sta="PTCC">
          <pickID>quakeml:local/pick/18018</pickID>
          <phase>S</phase>
          <azimuth>88.0</azimuth>
          <distance>0.246</distance>
          <timeResidual>0.09</timeResidual>
          <timeWeight>1.0</timeWeight>
          <earthModelID>quakeml:local/earthmodel/</earthModelID>
          <creationInfo>
            <creationTime>2021-03-02T10:11:01.971000Z</creationTime>
          </creationInfo>
        </arrival>
        <arrival publicID="quakeml:local/arrival/18019/1179" ns0:sta="MLN">
          <pickID>quakeml:local/pick/18019</pickID>
          <phase>P</phase>
          <azimuth>227.0</azimuth>
          <distance>0.363</distance>
          <timeResidual>-0.02</timeResidual>
          <timeWeight>0.51</timeWeight>
          <earthModelID>quakeml:local/earthmodel/</earthModelID>
          <creationInfo>
            <creationTime>2021-03-02T10:11:02.040000Z</creationTime>
          </creationInfo>
        </arrival>
        <arrival publicID="quakeml:local/arrival/18020/1179" ns0:sta="MLN">
          <pickID>quakeml:local/pick/18020</pickID>
          <phase>S</phase>
          <azimuth>227.0</azimuth>
          <distance>0.363</distance>
          <timeResidual>0.06</timeResidual>
          <timeWeight>1.0</timeWeight>
          <earthModelID>quakeml:local/earthmodel/</earthModelID>
          <creationInfo>
            <creationTime>2021-03-02T10:11:02.074000Z</creationTime>
          </creationInfo>
        </arrival>
        <arrival publicID="quakeml:local/arrival/18021/1179" ns0:sta="COLI">
          <pickID>quakeml:local/pick/18021</pickID>
          <phase>P</phase>
          <azimuth>135.0</azimuth>
          <distance>0.372</distance>
          <timeResidual>0.1</timeResidual>
          <timeWeight>2.03</timeWeight>
          <earthModelID>quakeml:local/earthmodel/</earthModelID>
          <creationInfo>
            <creationTime>2021-03-02T10:11:02.171000Z</creationTime>
          </creationInfo>
        </arrival>
        <arrival publicID="quakeml:local/arrival/18022/1179" ns0:sta="COLI">
          <pickID>quakeml:local/pick/18022</pickID>
          <phase>S</phase>
          <azimuth>135.0</azimuth>
          <distance>0.372</distance>
          <timeResidual>0.06</timeResidual>
          <timeWeight>0.5</timeWeight>
          <earthModelID>quakeml:local/earthmodel/</earthModelID>
          <creationInfo>
            <creationTime>2021-03-02T10:11:02.206000Z</creationTime>
          </creationInfo>
        </arrival>
        <arrival publicID="quakeml:local/arrival/18023/1179" ns0:sta="ROBS">
          <pickID>quakeml:local/pick/18023</pickID>
          <phase>P</phase>
          <azimuth>113.0</azimuth>
          <distance>0.385</distance>
          <timeResidual>-0.25</timeResidual>
          <timeWeight>1.01</timeWeight>
          <earthModelID>quakeml:local/earthmodel/</earthModelID>
          <creationInfo>
            <creationTime>2021-03-02T10:11:02.274000Z</creationTime>
          </creationInfo>
        </arrival>
        <arrival publicID="quakeml:local/arrival/18024/1179" ns0:sta="ROBS">
          <pickID>quakeml:local/pick/18024</pickID>
          <phase>S</phase>
          <azimuth>113.0</azimuth>
          <distance>0.385</distance>
          <timeResidual>-0.1</timeResidual>
          <timeWeight>0.5</timeWeight>
          <earthModelID>quakeml:local/earthmodel/</earthModelID>
          <creationInfo>
            <creationTime>2021-03-02T10:11:02.308000Z</creationTime>
          </creationInfo>
        </arrival>
        <arrival publicID="quakeml:local/arrival/18025/1179" ns0:sta="CIMO">
          <pickID>quakeml:local/pick/18025</pickID>
          <phase>P</phase>
          <azimuth>258.0</azimuth>
          <distance>0.393</distance>
          <timeResidual>-0.36</timeResidual>
          <timeWeight>1.51</timeWeight>
          <earthModelID>quakeml:local/earthmodel/</earthModelID>
          <creationInfo>
            <creationTime>2021-03-02T10:11:02.371000Z</creationTime>
          </creationInfo>
        </arrival>
        <arrival publicID="quakeml:local/arrival/18026/1179" ns0:sta="CIMO">
          <pickID>quakeml:local/pick/18026</pickID>
          <phase>S</phase>
          <azimuth>258.0</azimuth>
          <distance>0.393</distance>
          <timeResidual>0.09</timeResidual>
          <timeWeight>0.5</timeWeight>
          <earthModelID>quakeml:local/earthmodel/</earthModelID>
          <creationInfo>
            <creationTime>2021-03-02T10:11:02.405000Z</creationTime>
          </creationInfo>
        </arrival>
        <arrival publicID="quakeml:local/arrival/18027/1179" ns0:sta="PRED">
          <pickID>quakeml:local/pick/18027</pickID>
          <phase>P</phase>
          <azimuth>83.0</azimuth>
          <distance>0.394</distance>
          <timeResidual>-0.05</timeResidual>
          <timeWeight>1.01</timeWeight>
          <earthModelID>quakeml:local/earthmodel/</earthModelID>
          <creationInfo>
            <creationTime>2021-03-02T10:11:02.502000Z</creationTime>
          </creationInfo>
        </arrival>
        <arrival publicID="quakeml:local/arrival/18028/1179" ns0:sta="PRED">
          <pickID>quakeml:local/pick/18028</pickID>
          <phase>S</phase>
          <azimuth>83.0</azimuth>
