<?xml version='1.0' encoding='utf-8'?>
<q:quakeml xmlns="http://quakeml.org/xmlns/bed/1.2" xmlns:q="http://quakeml.org/xmlns/quakeml/1.2" xmlns:ns0="http://rts.crs.inogs.it/xmlns/ogs/0.1" xmlns:ns1="http://rts.crs.inogs.it/xmlns/catalogo/0.1">
  <eventParameters publicID="smi:local/4db6c9d9-ea73-44ac-8fdd-e1a955dd1d9a">
    <event publicID="quakeml:local/event/00000969" ns1:datasource="ogs" ns1:eventid="969" ns1:eventsource="ogs">
      <preferredOriginID>quakeml:local/origin/969</preferredOriginID>
      <preferredMagnitudeID>quakeml:local/magnitude/1776</preferredMagnitudeID>
      <type>earthquake</type>
      <creationInfo>
        <agencyID>ogs</agencyID>
        <author>Antelope event2qml process</author>
        <creationTime>2021-03-02T10:06:39.686000Z</creationTime>
        <version>1614679599</version>
      </creationInfo>
      <origin publicID="quakeml:local/origin/969" ns1:datasource="ogs" ns1:dataid="969">
        <time>
          <value>2019-06-14T13:57:24.040000Z</value>
        </time>
        <latitude>
          <value>46.3955</value>
          <uncertainty>0.00271247739602</uncertainty>
        </latitude>
        <longitude>
          <value>12.9933</value>
          <uncertainty>0.00391411007977</uncertainty>
        </longitude>
        <depth>
          <value>8130.0</value>
          <uncertainty>600.0</uncertainty>
        </depth>
        <quality>
          <associatedPhaseCount>49</associatedPhaseCount>
          <usedPhaseCount>51</usedPhaseCount>
          <standardError>0.17</standardError>
        </quality>
        <type>hypocenter</type>
        <evaluationMode>manual</evaluationMode>
        <evaluationStatus>reviewed</evaluationStatus>
        <comment>
          <text>algorithm: hypo71</text>
        </comment>
        <creationInfo>
          <author>ogsbulletin</author>
          <version>1614679599.65</version>
        </creationInfo>
        <originUncertainty>
          <preferredDescription>horizontal uncertainty</preferredDescription>
          <minHorizontalUncertainty>300.0</minHorizontalUncertainty>
          <maxHorizontalUncertainty>300.0</maxHorizontalUncertainty>
          <azimuthMaxHorizontalUncertainty>0.0</azimuthMaxHorizontalUncertainty>
        </originUncertainty>
        <arrival publicID="quakeml:local/arrival/14386/969" ns0:sta="FUSE">
          <pickID>quakeml:local/pick/14386</pickID>
          <phase>P</phase>
          <azimuth>16.0</azimuth>
          <distance>0.02</distance>
          <timeResidual>-0.65</timeResidual>
          <timeWeight>1.0</timeWeight>
          <earthModelID>quakeml:local/earthmodel/</earthModelID>
          <creationInfo>
            <creationTime>2021-03-02T10:06:39.853000Z</creationTime>
          </creationInfo>
        </arrival>
        <arrival publicID="quakeml:local/arrival/14387/969" ns0:sta="CLUD">
          <pickID>quakeml:local/pick/14387</pickID>
          <phase>P</phase>
          <azimuth>308.0</azimuth>
          <distance>0.099</distance>
          <timeResidual>-0.16</timeResidual>
          <timeWeight>2.33</timeWeight>
          <earthModelID>quakeml:local/earthmodel/</earthModelID>
          <creationInfo>
            <creationTime>2021-03-02T10:06:39.926000Z</creationTime>
          </creationInfo>
        </arrival>
        <arrival publicID="quakeml:local/arrival/14388/969" ns0:sta="CLUD">
          <pickID>quakeml:local/pick/14388</pickID>
          <phase>S</phase>
          <azimuth>308.0</azimuth>
          <distance>0.099</distance>
          <timeResidual>0.13</timeResidual>
          <timeWeight>1.6</timeWeight>
          <earthModelID>quakeml:local/earthmodel/</earthModelID>
          <creationInfo>
            <creationTime>2021-03-02T10:06:39.955000Z</creationTime>
          </creationInfo>
        </arrival>
        <arrival publicID="quakeml:local/arrival/14389/969" ns0:sta="BOO">
          <pickID>quakeml:local/pick/14389</pickID>
          <phase>P</phase>
          <azimuth>136.0</azimuth>
          <distance>0.105</distance>
          <timeResidual>-0.06</timeResidual>
          <timeWeight>1.55</timeWeight>
          <earthModelID>quakeml:local/earthmodel/</earthModelID>
          <creationInfo>
            <creationTime>2021-03-02T10:06:40.029000Z</creationTime>
          </creationInfo>
        </arrival>
        <arrival publicID="quakeml:local/arrival/14390/969" ns0:sta="BOO">
          <pickID>quakeml:local/pick/14390</pickID>
          <phase>S</phase>
          <azimuth>136.0</azimuth>
          <distance>0.105</distance>
          <timeResidual>-0.12</timeResidual>
          <timeWeight>1.2</timeWeight>
          <earthModelID>quakeml:local/earthmodel/</earthModelID>
          <creationInfo>
            <creationTime>2021-03-02T10:06:40.063000Z</creationTime>
          </creationInfo>
        </arrival>
        <arrival publicID="quakeml:local/arrival/14391/969" ns0:sta="MPRI">
          <pickID>quakeml:local/pick/14391</pickID>
          <phase>P</phase>
          <azimuth>182.0</azimuth>
          <distance>0.156</distance>
          <timeResidual>-0.05</timeResidual>
          <timeWeight>1.55</timeWeight>
          <earthModelID>quakeml:local/earthmodel/</earthModelID>
          <creationInfo>
            <creationTime>2021-03-02T10:06:40.137000Z</creationTime>
          </creationInfo>
        </arrival>
        <arrival publicID="quakeml:local/arrival/14392/969" ns0:sta="MPRI">
          <pickID>quakeml:local/pick/14392</pickID>
          <phase>S</phase>
          <azimuth>182.0</azimuth>
          <distance>0.156</distance>
          <timeResidual>-0.02</timeResidual>
          <timeWeight>0.8</timeWeight>
          <earthModelID>quakeml:local/earthmodel/</earthModelID>
          <creationInfo>
            <creationTime>2021-03-02T10:06:40.172000Z</creationTime>
          </creationInfo>
        </arrival>
        <arrival publicID="quakeml:local/arrival/14393/969" ns0:sta="GEPF">
          <pickID>quakeml:local/pick/14393</pickID>
          <phase>P</phase>
          <azimuth>141.0</azimuth>
          <distance>0.16</distance>
          <timeResidual>-0.12</timeResidual>
          <timeWeight>1.17</timeWeight>
          <earthModelID>quakeml:local/earthmodel/</earthModelID>
          <creationInfo>
            <creationTime>2021-03-02T10:06:40.240000Z</creationTime>
          </creationInfo>
        </arrival>
        <arrival publicID="quakeml:local/arrival/14394/969" ns0:sta="GEPF">
          <pickID>quakeml:local/pick/14394</pickID>
          <phase>S</phase>
          <azimuth>141.0</azimuth>
          <distance>0.16</distance>
          <timeResidual>-0.04</timeResidual>
          <timeWeight>0.8</timeWeight>
          <earthModelID>quakeml:local/earthmodel/</earthModelID>
          <creationInfo>
            <creationTime>2021-03-02T10:06:40.274000Z</creationTime>
          </creationInfo>
        </arrival>
        <arrival publicID="quakeml:local/arrival/14395/969" ns0:sta="ZOU2">
          <pickID>quakeml:local/pick/14395</pickID>
          <phase>P</phase>
          <azimuth>355.0</azimuth>
          <distance>0.163</distance>
          <timeResidual>0.08</timeResidual>
          <timeWeight>2.33</timeWeight>
          <earthModelID>quakeml:local/earthmodel/</earthModelID>
          <creationInfo>
            <creationTime>2021-03-02T10:06:40.343000Z</creationTime>
          </creationInfo>
        </arrival>
        <arrival publicID="quakeml:local/arrival/14396/969" ns0:sta="ZOU2">
          <pickID>quakeml:local/pick/14396</pickID>
          <phase>S</phase>
          <azimuth>355.0</azimuth>
          <distance>0.163</distance>
          <timeResidual>-0.01</timeResidual>
          <timeWeight>1.6</timeWeight>
          <earthModelID>quakeml:local/earthmodel/</earthModelID>
          <creationInfo>
            <creationTime>2021-03-02T10:06:40.377000Z</creationTime>
          </creationInfo>
        </arrival>
        <arrival publicID="quakeml:local/arrival/14397/969" ns0:sta="PURA">
          <pickID>quakeml:local/pick/14397</pickID>
          <phase>P</phase>
          <azimuth>279.0</azimuth>
          <distance>0.178</distance>
          <timeResidual>-0.05</timeResidual>
          <timeWeight>1.24</timeWeight>
          <earthModelID>quakeml:local/earthmodel/</earthModelID>
          <creationInfo>
            <creationTime>2021-03-02T10:06:40.446000Z</creationTime>
          </creationInfo>
        </arrival>
        <arrival publicID="quakeml:local/arrival/14398/969" ns0:sta="PLRO">
          <pickID>quakeml:local/pick/14398</pickID>
          <phase>P</phase>
          <azimuth>35.0</azimuth>
          <distance>0.187</distance>
          <timeResidual>-0.3</timeResidual>
          <timeWeight>1.87</timeWeight>
          <earthModelID>quakeml:local/earthmodel/</earthModelID>
          <creationInfo>
            <creationTime>2021-03-02T10:06:40.514000Z</creationTime>
          </creationInfo>
        </arrival>
        <arrival publicID="quakeml:local/arrival/14399/969" ns0:sta="PLRO">
          <pickID>quakeml:local/pick/14399</pickID>
          <phase>S</phase>
          <azimuth>35.0</azimuth>
          <distance>0.187</distance>
          <timeResidual>0.19</timeResidual>
          <timeWeight>1.2</timeWeight>
          <earthModelID>quakeml:local/earthmodel/</earthModelID>
          <creationInfo>
            <creationTime>2021-03-02T10:06:40.548000Z</creationTime>
          </creationInfo>
        </arrival>
        <arrival publicID="quakeml:local/arrival/14400/969" ns0:sta="BUA">
          <pickID>quakeml:local/pick/14400</pickID>
          <phase>P</phase>
          <azimuth>153.0</azimuth>
          <distance>0.201</distance>
          <timeResidual>0.08</timeResidual>
          <timeWeight>1.17</timeWeight>
          <earthModelID>quakeml:local/earthmodel/</earthModelID>
          <creationInfo>
            <creationTime>2021-03-02T10:06:40.623000Z</creationTime>
          </creationInfo>
        </arrival>
        <arrival publicID="quakeml:local/arrival/14401/969" ns0:sta="BUA">
          <pickID>quakeml:local/pick/14401</pickID>
          <phase>S</phase>
          <azimuth>153.0</azimuth>
          <distance>0.201</distance>
          <timeResidual>0.01</timeResidual>
          <timeWeight>0.8</timeWeight>
          <earthModelID>quakeml:local/earthmodel/</earthModelID>
          <creationInfo>
            <creationTime>2021-03-02T10:06:40.657000Z</creationTime>
          </creationInfo>
        </arrival>
        <arrival publicID="quakeml:local/arrival/14402/969" ns0:sta="MORT">
          <pickID>quakeml:local/pick/14402</pickID>
          <phase>P</phase>
          <azimuth>271.0</azimuth>
          <distance>0.201</distance>
          <timeResidual>-0.11</timeResidual>
          <timeWeight>0.83</timeWeight>
          <earthModelID>quakeml:local/earthmodel/</earthModelID>
          <creationInfo>
            <creationTime>2021-03-02T10:06:40.691000Z</creationTime>
          </creationInfo>
        </arrival>
        <arrival publicID="quakeml:local/arrival/14403/969" ns0:sta="BAD">
          <pickID>quakeml:local/pick/14403</pickID>
          <phase>P</phase>
          <azimuth>133.0</azimuth>
          <distance>0.237</distance>
          <timeResidual>-0.02</timeResidual>
          <timeWeight>1.17</timeWeight>
          <earthModelID>quakeml:local/earthmodel/</earthModelID>
          <creationInfo>
            <creationTime>2021-03-02T10:06:40.791000Z</creationTime>
          </creationInfo>
        </arrival>
        <arrival publicID="quakeml:local/arrival/14404/969" ns0:sta="BAD">
          <pickID>quakeml:local/pick/14404</pickID>
          <phase>S</phase>
          <azimuth>133.0</azimuth>
          <distance>0.237</distance>
          <timeResidual>0.19</timeResidual>
          <timeWeight>0.8</timeWeight>
          <earthModelID>quakeml:local/earthmodel/</earthModelID>
          <creationInfo>
            <creationTime>2021-03-02T10:06:40.834000Z</creationTime>
          </creationInfo>
        </arrival>
        <arrival publicID="quakeml:local/arrival/14405/969" ns0:sta="STAL">
          <pickID>quakeml:local/pick/14405</pickID>
          <phase>P</phase>
          <azimuth>235.0</azimuth>
          <distance>0.238</distance>
          <timeResidual>-0.22</timeResidual>
          <timeWeight>1.66</timeWeight>
          <earthModelID>quakeml:local/earthmodel/</earthModelID>
          <creationInfo>
            <creationTime>2021-03-02T10:06:40.900000Z</creationTime>
          </creationInfo>
        </arrival>
        <arrival publicID="quakeml:local/arrival/14406/969" ns0:sta="VINO">
          <pickID>quakeml:local/pick/14406</pickID>
          <phase>P</phase>
          <azimuth>125.0</azimuth>
          <distance>0.243</distance>
          <timeResidual>-0.06</timeResidual>
          <timeWeight>0.78</timeWeight>
          <earthModelID>quakeml:local/earthmodel/</earthModelID>
          <creationInfo>
            <creationTime>2021-03-02T10:06:41.002000Z</creationTime>
          </creationInfo>
        </arrival>
        <arrival publicID="quakeml:local/arrival/14407/969" ns0:sta="VINO">
          <pickID>quakeml:local/pick/14407</pickID>
          <phase>S</phase>
          <azimuth>125.0</azimuth>
          <distance>0.243</distance>
          <timeResidual>0.12</timeResidual>
          <timeWeight>0.8</timeWeight>
          <earthModelID>quakeml:local/earthmodel/</earthModelID>
          <creationInfo>
            <creationTime>2021-03-02T10:06:41.039000Z</creationTime>
          </creationInfo>
        </arrival>
        <arrival publicID="quakeml:local/arrival/14408/969" ns0:sta="PTCC">
          <pickID>quakeml:local/pick/14408</pickID>
          <phase>P</phase>
          <azimuth>88.0</azimuth>
          <distance>0.249</distance>
          <timeResidual>0.01</timeResidual>
          <timeWeight>1.87</timeWeight>
          <earthModelID>quakeml:local/earthmodel/</earthModelID>
          <creationInfo>
            <creationTime>2021-03-02T10:06:41.105000Z</creationTime>
          </creationInfo>
        </arrival>
        <arrival publicID="quakeml:local/arrival/14409/969" ns0:sta="PTCC">
          <pickID>quakeml:local/pick/14409</pickID>
          <phase>S</phase>
          <azimuth>88.0</azimuth>
          <distance>0.249</distance>
          <timeResidual>0.21</timeResidual>
          <timeWeight>0.6</timeWeight>
          <earthModelID>quakeml:local/earthmodel/</earthModelID>
          <creationInfo>
            <creationTime>2021-03-02T10:06:41.142000Z</creationTime>
          </creationInfo>
        </arrival>
        <arrival publicID="quakeml:local/arrival/14410/969" ns0:sta="FVI">
          <pickID>quakeml:local/pick/14410</pickID>
          <phase>P</phase>
          <azimuth>324.0</azimuth>
          <distance>0.249</distance>
          <timeResidual>-0.12</timeResidual>
          <timeWeight>2.33</timeWeight>
          <earthModelID>quakeml:local/earthmodel/</earthModelID>
          <creationInfo>
            <creationTime>2021-03-02T10:06:41.208000Z</creationTime>
          </creationInfo>
        </arrival>
        <arrival publicID="quakeml:local/arrival/14411/969" ns0:sta="FVI">
          <pickID>quakeml:local/pick/14411</pickID>
          <phase>S</phase>
          <azimuth>324.0</azimuth>
          <distance>0.249</distance>
          <timeResidual>0.19</timeResidual>
          <timeWeight>1.6</timeWeight>
          <earthModelID>quakeml:local/earthmodel/</earthModelID>
          <creationInfo>
            <creationTime>2021-03-02T10:06:41.245000Z</creationTime>
          </creationInfo>
        </arrival>
        <arrival publicID="quakeml:local/arrival/14412/969" ns0:sta="CSM">
          <pickID>quakeml:local/pick/14412</pickID>
          <phase>P</phase>
          <azimuth>296.0</azimuth>
          <distance>0.264</distance>
          <timeResidual>-0.02</timeResidual>
          <timeWeight>2.33</timeWeight>
          <earthModelID>quakeml:local/earthmodel/</earthModelID>
          <creationInfo>
            <creationTime>2021-03-02T10:06:41.279000Z</creationTime>
          </creationInfo>
        </arrival>
        <arrival publicID="quakeml:local/arrival/14413/969" ns0:sta="MLN">
          <pickID>quakeml:local/pick/14413</pickID>
          <phase>P</phase>
          <azimuth>227.0</azimuth>
          <distance>0.36</distance>
          <timeResidual>-0.17</timeResidual>
          <timeWeight>0.83</timeWeight>
          <earthModelID>quakeml:local/earthmodel/</earthModelID>
          <creationInfo>
            <creationTime>2021-03-02T10:06:41.345000Z</creationTime>
          </creationInfo>
        </arrival>
        <arrival publicID="quakeml:local/arrival/14414/969" ns0:sta="MLN">
          <pickID>quakeml:local/pick/14414</pickID>
          <phase>S</phase>
          <azimuth>227.0</azimuth>
          <distance>0.36</distance>
          <timeResidual>0.41</timeResidual>
          <timeWeight>0.8</timeWeight>
          <earthModelID>quakeml:local/earthmodel/</earthModelID>
          <creationInfo>
            <creationTime>2021-03-02T10:06:41.381000Z</creationTime>
          </creationInfo>
        </arrival>
        <arrival publicID="quakeml:local/arrival/14415/969" ns0:sta="COLI">
          <pickID>quakeml:local/pick/14415</pickID>
          <phase>P</phase>
          <azimuth>135.0</azimuth>
          <distance>0.374</distance>
          <timeResidual>0.06</timeResidual>
          <timeWeight>1.16</timeWeight>
          <earthModelID>quakeml:local/earthmodel/</earthModelID>
          <creationInfo>
            <creationTime>2021-03-02T10:06:41.447000Z</creationTime>
          </creationInfo>
        </arrival>
        <arrival publicID="quakeml:local/arrival/14416/969" ns0:sta="LSR">
          <pickID>quakeml:local/pick/14416</pickID>
          <phase>P</phase>
          <azimuth>78.0</azimuth>
          <distance>0.378</distance>
          <timeResidual>0.19</timeResidual>
          <timeWeight>1.24</timeWeight>
          <earthModelID>quakeml:local/earthmodel/</earthModelID>
          <creationInfo>
            <creationTime>2021-03-02T10:06:41.516000Z</creationTime>
          </creationInfo>
        </arrival>
        <arrival publicID="quakeml:local/arrival/14417/969" ns0:sta="ROBS">
          <pickID>quakeml:local/pick/14417</pickID>
          <phase>P</phase>
          <azimuth>113.0</azimuth>
          <distance>0.389</distance>
          <timeResidual>-0.46</timeResidual>
          <timeWeight>0.77</timeWeight>
          <earthModelID>quakeml:local/earthmodel/</earthModelID>
          <creationInfo>
            <creationTime>2021-03-02T10:06:41.584000Z</creationTime>
          </creationInfo>
        </arrival>
        <arrival publicID="quakeml:local/arrival/14418/969" ns0:sta="CIMO">
          <pickID>quakeml:local/pick/14418</pickID>
          <phase>P</phase>
          <azimuth>258.0</azimuth>
          <distance>0.389</distance>
          <timeResidual>-0.29</timeResidual>
          <timeWeight>0.41</timeWeight>
          <earthModelID>quakeml:local/earthmodel/</earthModelID>
          <creationInfo>
            <creationTime>2021-03-02T10:06:41.653000Z</creationTime>
          </creationInfo>
        </arrival>
        <arrival publicID="quakeml:local/arrival/14419/969" ns0:sta="ACOM">
          <pickID>quakeml:local/pick/14419</pickID>
          <phase>P</phase>
          <azimuth>67.0</azimuth>
          <distance>0.391</distance>
          <timeResidual>0.31</timeResidual>
          <timeWeight>1.23</timeWeight>
          <earthModelID>quakeml:local/earthmodel/</earthModelID>
          <creationInfo>
            <creationTime>2021-03-02T10:06:41.721000Z</creationTime>
          </creationInfo>
        </arrival>
        <arrival publicID="quakeml:local/arrival/14420/969" ns0:sta="PRED">
          <pickID>quakeml:local/pick/14420</pickID>
          <phase>P</phase>
          <azimuth>83.0</azimuth>
          <distance>0.398</distance>
