<?xml version='1.0' encoding='utf-8'?>
<q:quakeml xmlns="http://quakeml.org/xmlns/bed/1.2" xmlns:q="http://quakeml.org/xmlns/quakeml/1.2" xmlns:ns0="http://rts.crs.inogs.it/xmlns/ogs/0.1" xmlns:ns1="http://rts.crs.inogs.it/xmlns/catalogo/0.1">
  <eventParameters publicID="smi:local/4db043a5-2f97-42cd-b326-613fa2ba1004">
    <event publicID="quakeml:local/event/00000994" ns1:datasource="ogs" ns1:eventid="994" ns1:eventsource="ogs">
      <preferredOriginID>quakeml:local/origin/994</preferredOriginID>
      <preferredMagnitudeID>quakeml:local/magnitude/1824</preferredMagnitudeID>
      <type>earthquake</type>
      <creationInfo>
        <agencyID>ogs</agencyID>
        <author>Antelope event2qml process</author>
        <creationTime>2021-03-02T10:07:19.623000Z</creationTime>
        <version>1614679639</version>
      </creationInfo>
      <origin publicID="quakeml:local/origin/994" ns1:datasource="ogs" ns1:dataid="994">
        <time>
          <value>2019-06-15T04:12:46.750000Z</value>
        </time>
        <latitude>
          <value>46.3943</value>
          <uncertainty>0.00361663652803</uncertainty>
        </latitude>
        <longitude>
          <value>12.9867</value>
          <uncertainty>0.00521869868241</uncertainty>
        </longitude>
        <depth>
          <value>7000.0</value>
          <uncertainty>900.0</uncertainty>
        </depth>
        <quality>
          <associatedPhaseCount>60</associatedPhaseCount>
          <usedPhaseCount>60</usedPhaseCount>
          <standardError>0.25</standardError>
        </quality>
        <type>hypocenter</type>
        <evaluationMode>manual</evaluationMode>
        <evaluationStatus>reviewed</evaluationStatus>
        <comment>
          <text>algorithm: hypo71</text>
        </comment>
        <creationInfo>
          <author>ogsbulletin</author>
          <version>1614679639.59</version>
        </creationInfo>
        <originUncertainty>
          <preferredDescription>horizontal uncertainty</preferredDescription>
          <minHorizontalUncertainty>400.0</minHorizontalUncertainty>
          <maxHorizontalUncertainty>400.0</maxHorizontalUncertainty>
          <azimuthMaxHorizontalUncertainty>0.0</azimuthMaxHorizontalUncertainty>
        </originUncertainty>
        <arrival publicID="quakeml:local/arrival/14966/994" ns0:sta="FUSE">
          <pickID>quakeml:local/pick/14966</pickID>
          <phase>P</phase>
          <azimuth>27.0</azimuth>
          <distance>0.022</distance>
          <timeResidual>-0.58</timeResidual>
          <timeWeight>1.02</timeWeight>
          <earthModelID>quakeml:local/earthmodel/</earthModelID>
          <creationInfo>
            <creationTime>2021-03-02T10:07:19.830000Z</creationTime>
          </creationInfo>
        </arrival>
        <arrival publicID="quakeml:local/arrival/14967/994" ns0:sta="CLUD">
          <pickID>quakeml:local/pick/14967</pickID>
          <phase>P</phase>
          <azimuth>311.0</azimuth>
          <distance>0.096</distance>
          <timeResidual>-0.05</timeResidual>
          <timeWeight>2.04</timeWeight>
          <earthModelID>quakeml:local/earthmodel/</earthModelID>
          <creationInfo>
            <creationTime>2021-03-02T10:07:19.903000Z</creationTime>
          </creationInfo>
        </arrival>
        <arrival publicID="quakeml:local/arrival/14968/994" ns0:sta="CLUD">
          <pickID>quakeml:local/pick/14968</pickID>
          <phase>S</phase>
          <azimuth>311.0</azimuth>
          <distance>0.096</distance>
          <timeResidual>-0.15</timeResidual>
          <timeWeight>1.0</timeWeight>
          <earthModelID>quakeml:local/earthmodel/</earthModelID>
          <creationInfo>
            <creationTime>2021-03-02T10:07:19.934000Z</creationTime>
          </creationInfo>
        </arrival>
        <arrival publicID="quakeml:local/arrival/14969/994" ns0:sta="BOO">
          <pickID>quakeml:local/pick/14969</pickID>
          <phase>P</phase>
          <azimuth>134.0</azimuth>
          <distance>0.107</distance>
          <timeResidual>-0.07</timeResidual>
          <timeWeight>1.53</timeWeight>
          <earthModelID>quakeml:local/earthmodel/</earthModelID>
          <creationInfo>
            <creationTime>2021-03-02T10:07:19.994000Z</creationTime>
          </creationInfo>
        </arrival>
        <arrival publicID="quakeml:local/arrival/14970/994" ns0:sta="BOO">
          <pickID>quakeml:local/pick/14970</pickID>
          <phase>S</phase>
          <azimuth>134.0</azimuth>
          <distance>0.107</distance>
          <timeResidual>-0.27</timeResidual>
          <timeWeight>1.0</timeWeight>
          <earthModelID>quakeml:local/earthmodel/</earthModelID>
          <creationInfo>
            <creationTime>2021-03-02T10:07:20.023000Z</creationTime>
          </creationInfo>
        </arrival>
        <arrival publicID="quakeml:local/arrival/14971/994" ns0:sta="MPRI">
          <pickID>quakeml:local/pick/14971</pickID>
          <phase>P</phase>
          <azimuth>180.0</azimuth>
          <distance>0.155</distance>
          <timeResidual>0.02</timeResidual>
          <timeWeight>2.04</timeWeight>
          <earthModelID>quakeml:local/earthmodel/</earthModelID>
          <creationInfo>
            <creationTime>2021-03-02T10:07:20.114000Z</creationTime>
          </creationInfo>
        </arrival>
        <arrival publicID="quakeml:local/arrival/14972/994" ns0:sta="MPRI">
          <pickID>quakeml:local/pick/14972</pickID>
          <phase>S</phase>
          <azimuth>180.0</azimuth>
          <distance>0.155</distance>
          <timeResidual>0.14</timeResidual>
          <timeWeight>1.0</timeWeight>
          <earthModelID>quakeml:local/earthmodel/</earthModelID>
          <creationInfo>
            <creationTime>2021-03-02T10:07:20.143000Z</creationTime>
          </creationInfo>
        </arrival>
        <arrival publicID="quakeml:local/arrival/14973/994" ns0:sta="GEPF">
          <pickID>quakeml:local/pick/14973</pickID>
          <phase>P</phase>
          <azimuth>140.0</azimuth>
          <distance>0.163</distance>
          <timeResidual>-0.14</timeResidual>
          <timeWeight>2.04</timeWeight>
          <earthModelID>quakeml:local/earthmodel/</earthModelID>
          <creationInfo>
            <creationTime>2021-03-02T10:07:20.200000Z</creationTime>
          </creationInfo>
        </arrival>
        <arrival publicID="quakeml:local/arrival/14974/994" ns0:sta="GEPF">
          <pickID>quakeml:local/pick/14974</pickID>
          <phase>S</phase>
          <azimuth>140.0</azimuth>
          <distance>0.163</distance>
          <timeResidual>1.11</timeResidual>
          <timeWeight>1.0</timeWeight>
          <earthModelID>quakeml:local/earthmodel/</earthModelID>
          <creationInfo>
            <creationTime>2021-03-02T10:07:20.228000Z</creationTime>
          </creationInfo>
        </arrival>
        <arrival publicID="quakeml:local/arrival/14976/994" ns0:sta="ZOU2">
          <pickID>quakeml:local/pick/14976</pickID>
          <phase>S</phase>
          <azimuth>357.0</azimuth>
          <distance>0.164</distance>
          <timeResidual>0.16</timeResidual>
          <timeWeight>1.0</timeWeight>
          <earthModelID>quakeml:local/earthmodel/</earthModelID>
          <creationInfo>
            <creationTime>2021-03-02T10:07:20.348000Z</creationTime>
          </creationInfo>
        </arrival>
        <arrival publicID="quakeml:local/arrival/14975/994" ns0:sta="ZOU2">
          <pickID>quakeml:local/pick/14975</pickID>
          <phase>P</phase>
          <azimuth>357.0</azimuth>
          <distance>0.164</distance>
          <timeResidual>0.07</timeResidual>
          <timeWeight>1.53</timeWeight>
          <earthModelID>quakeml:local/earthmodel/</earthModelID>
          <creationInfo>
            <creationTime>2021-03-02T10:07:20.320000Z</creationTime>
          </creationInfo>
        </arrival>
        <arrival publicID="quakeml:local/arrival/14977/994" ns0:sta="PURA">
          <pickID>quakeml:local/pick/14977</pickID>
          <phase>P</phase>
          <azimuth>279.0</azimuth>
          <distance>0.174</distance>
          <timeResidual>-0.17</timeResidual>
          <timeWeight>1.53</timeWeight>
          <earthModelID>quakeml:local/earthmodel/</earthModelID>
          <creationInfo>
            <creationTime>2021-03-02T10:07:20.405000Z</creationTime>
          </creationInfo>
        </arrival>
        <arrival publicID="quakeml:local/arrival/14978/994" ns0:sta="PURA">
          <pickID>quakeml:local/pick/14978</pickID>
          <phase>S</phase>
          <azimuth>279.0</azimuth>
          <distance>0.174</distance>
          <timeResidual>0.32</timeResidual>
          <timeWeight>1.0</timeWeight>
          <earthModelID>quakeml:local/earthmodel/</earthModelID>
          <creationInfo>
            <creationTime>2021-03-02T10:07:20.434000Z</creationTime>
          </creationInfo>
        </arrival>
        <arrival publicID="quakeml:local/arrival/14979/994" ns0:sta="PLRO">
          <pickID>quakeml:local/pick/14979</pickID>
          <phase>P</phase>
          <azimuth>36.0</azimuth>
          <distance>0.191</distance>
          <timeResidual>-0.05</timeResidual>
          <timeWeight>1.53</timeWeight>
          <earthModelID>quakeml:local/earthmodel/</earthModelID>
          <creationInfo>
            <creationTime>2021-03-02T10:07:20.497000Z</creationTime>
          </creationInfo>
        </arrival>
        <arrival publicID="quakeml:local/arrival/14980/994" ns0:sta="PLRO">
          <pickID>quakeml:local/pick/14980</pickID>
          <phase>S</phase>
          <azimuth>36.0</azimuth>
          <distance>0.191</distance>
          <timeResidual>0.18</timeResidual>
          <timeWeight>1.0</timeWeight>
          <earthModelID>quakeml:local/earthmodel/</earthModelID>
          <creationInfo>
            <creationTime>2021-03-02T10:07:20.525000Z</creationTime>
          </creationInfo>
        </arrival>
        <arrival publicID="quakeml:local/arrival/14981/994" ns0:sta="MORT">
          <pickID>quakeml:local/pick/14981</pickID>
          <phase>P</phase>
          <azimuth>271.0</azimuth>
          <distance>0.197</distance>
          <timeResidual>-0.04</timeResidual>
          <timeWeight>2.04</timeWeight>
          <earthModelID>quakeml:local/earthmodel/</earthModelID>
          <creationInfo>
            <creationTime>2021-03-02T10:07:20.554000Z</creationTime>
          </creationInfo>
        </arrival>
        <arrival publicID="quakeml:local/arrival/14982/994" ns0:sta="MORT">
          <pickID>quakeml:local/pick/14982</pickID>
          <phase>S</phase>
          <azimuth>271.0</azimuth>
          <distance>0.197</distance>
          <timeResidual>0.26</timeResidual>
          <timeWeight>1.0</timeWeight>
          <earthModelID>quakeml:local/earthmodel/</earthModelID>
          <creationInfo>
            <creationTime>2021-03-02T10:07:20.582000Z</creationTime>
          </creationInfo>
        </arrival>
        <arrival publicID="quakeml:local/arrival/14983/994" ns0:sta="BUA">
          <pickID>quakeml:local/pick/14983</pickID>
          <phase>P</phase>
          <azimuth>152.0</azimuth>
          <distance>0.201</distance>
          <timeResidual>0.04</timeResidual>
          <timeWeight>1.53</timeWeight>
          <earthModelID>quakeml:local/earthmodel/</earthModelID>
          <creationInfo>
            <creationTime>2021-03-02T10:07:20.639000Z</creationTime>
          </creationInfo>
        </arrival>
        <arrival publicID="quakeml:local/arrival/14984/994" ns0:sta="BUA">
          <pickID>quakeml:local/pick/14984</pickID>
          <phase>S</phase>
          <azimuth>152.0</azimuth>
          <distance>0.201</distance>
          <timeResidual>0.02</timeResidual>
          <timeWeight>1.0</timeWeight>
          <earthModelID>quakeml:local/earthmodel/</earthModelID>
          <creationInfo>
            <creationTime>2021-03-02T10:07:20.668000Z</creationTime>
          </creationInfo>
        </arrival>
        <arrival publicID="quakeml:local/arrival/14985/994" ns0:sta="STAL">
          <pickID>quakeml:local/pick/14985</pickID>
          <phase>P</phase>
          <azimuth>235.0</azimuth>
          <distance>0.234</distance>
          <timeResidual>-0.09</timeResidual>
          <timeWeight>2.04</timeWeight>
          <earthModelID>quakeml:local/earthmodel/</earthModelID>
          <creationInfo>
            <creationTime>2021-03-02T10:07:20.730000Z</creationTime>
          </creationInfo>
        </arrival>
        <arrival publicID="quakeml:local/arrival/14986/994" ns0:sta="BAD">
          <pickID>quakeml:local/pick/14986</pickID>
          <phase>P</phase>
          <azimuth>132.0</azimuth>
          <distance>0.239</distance>
          <timeResidual>-0.11</timeResidual>
          <timeWeight>1.53</timeWeight>
          <earthModelID>quakeml:local/earthmodel/</earthModelID>
          <creationInfo>
            <creationTime>2021-03-02T10:07:20.827000Z</creationTime>
          </creationInfo>
        </arrival>
        <arrival publicID="quakeml:local/arrival/14987/994" ns0:sta="BAD">
          <pickID>quakeml:local/pick/14987</pickID>
          <phase>S</phase>
          <azimuth>132.0</azimuth>
          <distance>0.239</distance>
          <timeResidual>-0.23</timeResidual>
          <timeWeight>0.5</timeWeight>
          <earthModelID>quakeml:local/earthmodel/</earthModelID>
          <creationInfo>
            <creationTime>2021-03-02T10:07:20.856000Z</creationTime>
          </creationInfo>
        </arrival>
        <arrival publicID="quakeml:local/arrival/14988/994" ns0:sta="VINO">
          <pickID>quakeml:local/pick/14988</pickID>
          <phase>P</phase>
          <azimuth>124.0</azimuth>
          <distance>0.246</distance>
          <timeResidual>-0.13</timeResidual>
          <timeWeight>1.53</timeWeight>
          <earthModelID>quakeml:local/earthmodel/</earthModelID>
          <creationInfo>
            <creationTime>2021-03-02T10:07:20.953000Z</creationTime>
          </creationInfo>
        </arrival>
        <arrival publicID="quakeml:local/arrival/14989/994" ns0:sta="VINO">
          <pickID>quakeml:local/pick/14989</pickID>
          <phase>S</phase>
          <azimuth>124.0</azimuth>
          <distance>0.246</distance>
          <timeResidual>-0.05</timeResidual>
          <timeWeight>1.0</timeWeight>
          <earthModelID>quakeml:local/earthmodel/</earthModelID>
          <creationInfo>
            <creationTime>2021-03-02T10:07:20.981000Z</creationTime>
          </creationInfo>
        </arrival>
        <arrival publicID="quakeml:local/arrival/14990/994" ns0:sta="PTCC">
          <pickID>quakeml:local/pick/14990</pickID>
          <phase>P</phase>
          <azimuth>88.0</azimuth>
          <distance>0.254</distance>
          <timeResidual>-0.07</timeResidual>
          <timeWeight>1.53</timeWeight>
          <earthModelID>quakeml:local/earthmodel/</earthModelID>
          <creationInfo>
            <creationTime>2021-03-02T10:07:21.044000Z</creationTime>
          </creationInfo>
        </arrival>
        <arrival publicID="quakeml:local/arrival/14991/994" ns0:sta="PTCC">
          <pickID>quakeml:local/pick/14991</pickID>
          <phase>S</phase>
          <azimuth>88.0</azimuth>
          <distance>0.254</distance>
          <timeResidual>0.24</timeResidual>
          <timeWeight>1.0</timeWeight>
          <earthModelID>quakeml:local/earthmodel/</earthModelID>
          <creationInfo>
            <creationTime>2021-03-02T10:07:21.073000Z</creationTime>
          </creationInfo>
        </arrival>
        <arrival publicID="quakeml:local/arrival/14992/994" ns0:sta="CSM">
          <pickID>quakeml:local/pick/14992</pickID>
          <phase>P</phase>
          <azimuth>297.0</azimuth>
          <distance>0.26</distance>
          <timeResidual>0.04</timeResidual>
          <timeWeight>1.02</timeWeight>
          <earthModelID>quakeml:local/earthmodel/</earthModelID>
          <creationInfo>
            <creationTime>2021-03-02T10:07:21.141000Z</creationTime>
          </creationInfo>
        </arrival>
        <arrival publicID="quakeml:local/arrival/14993/994" ns0:sta="CSM">
          <pickID>quakeml:local/pick/14993</pickID>
          <phase>S</phase>
          <azimuth>297.0</azimuth>
          <distance>0.26</distance>
          <timeResidual>0.1</timeResidual>
          <timeWeight>1.0</timeWeight>
          <earthModelID>quakeml:local/earthmodel/</earthModelID>
          <creationInfo>
            <creationTime>2021-03-02T10:07:21.181000Z</creationTime>
          </creationInfo>
        </arrival>
        <arrival publicID="quakeml:local/arrival/14994/994" ns0:sta="MLN">
          <pickID>quakeml:local/pick/14994</pickID>
          <phase>P</phase>
          <azimuth>227.0</azimuth>
          <distance>0.355</distance>
          <timeResidual>-0.01</timeResidual>
          <timeWeight>0.51</timeWeight>
          <earthModelID>quakeml:local/earthmodel/</earthModelID>
          <creationInfo>
            <creationTime>2021-03-02T10:07:21.256000Z</creationTime>
          </creationInfo>
        </arrival>
        <arrival publicID="quakeml:local/arrival/14995/994" ns0:sta="COLI">
          <pickID>quakeml:local/pick/14995</pickID>
          <phase>P</phase>
          <azimuth>134.0</azimuth>
          <distance>0.377</distance>
          <timeResidual>0.0</timeResidual>
          <timeWeight>1.52</timeWeight>
          <earthModelID>quakeml:local/earthmodel/</earthModelID>
          <creationInfo>
            <creationTime>2021-03-02T10:07:21.335000Z</creationTime>
          </creationInfo>
        </arrival>
        <arrival publicID="quakeml:local/arrival/14996/994" ns0:sta="COLI">
          <pickID>quakeml:local/pick/14996</pickID>
          <phase>S</phase>
          <azimuth>134.0</azimuth>
          <distance>0.377</distance>
          <timeResidual>0.09</timeResidual>
          <timeWeight>1.0</timeWeight>
          <earthModelID>quakeml:local/earthmodel/</earthModelID>
          <creationInfo>
            <creationTime>2021-03-02T10:07:21.375000Z</creationTime>
          </creationInfo>
        </arrival>
        <arrival publicID="quakeml:local/arrival/14997/994" ns0:sta="LSR">
          <pickID>quakeml:local/pick/14997</pickID>
          <phase>P</phase>
          <azimuth>78.0</azimuth>
          <distance>0.383</distance>
          <timeResidual>0.06</timeResidual>
          <timeWeight>1.52</timeWeight>
          <earthModelID>quakeml:local/earthmodel/</earthModelID>
          <creationInfo>
            <creationTime>2021-03-02T10:07:21.444000Z</creationTime>
          </creationInfo>
        </arrival>
        <arrival publicID="quakeml:local/arrival/14998/994" ns0:sta="LSR">
          <pickID>quakeml:local/pick/14998</pickID>
          <phase>S</phase>
          <azimuth>78.0</azimuth>
          <distance>0.383</distance>
          <timeResidual>0.48</timeResidual>
          <timeWeight>0.5</timeWeight>
          <earthModelID>quakeml:local/earthmodel/</earthModelID>
          <creationInfo>
            <creationTime>2021-03-02T10:07:21.478000Z</creationTime>
          </creationInfo>
        </arrival>
        <arrival publicID="quakeml:local/arrival/14999/994" ns0:sta="CIMO">
          <pickID>quakeml:local/pick/14999</pickID>
          <phase>P</phase>
          <azimuth>258.0</azimuth>
          <distance>0.384</distance>
          <timeResidual>-0.33</timeResidual>
          <timeWeight>1.52</timeWeight>
          <earthModelID>quakeml:local/earthmodel/</earthModelID>
          <creationInfo>
            <creationTime>2021-03-02T10:07:21.547000Z</creationTime>
          </creationInfo>
        </arrival>
        <arrival publicID="quakeml:local/arrival/15000/994" ns0:sta="CIMO">
          <pickID>quakeml:local/pick/15000</pickID>
          <phase>S</phase>
          <azimuth>258.0</azimuth>
          <distance>0.384</distance>
