<?xml version='1.0' encoding='utf-8'?>
<q:quakeml xmlns="http://quakeml.org/xmlns/bed/1.2" xmlns:q="http://quakeml.org/xmlns/quakeml/1.2" xmlns:ns0="http://rts.crs.inogs.it/xmlns/ogs/0.1" xmlns:ns1="http://rts.crs.inogs.it/xmlns/catalogo/0.1">
  <eventParameters publicID="smi:local/11d25cc4-9e52-4447-b0d8-f789a9129232">
    <event publicID="quakeml:local/event/00001315" ns1:datasource="ogs" ns1:eventid="1315" ns1:eventsource="ogs">
      <preferredOriginID>quakeml:local/origin/1315</preferredOriginID>
      <preferredMagnitudeID>quakeml:local/magnitude/2399</preferredMagnitudeID>
      <type>earthquake</type>
      <creationInfo>
        <agencyID>ogs</agencyID>
        <author>Antelope event2qml process</author>
        <creationTime>2021-03-02T10:13:34.605000Z</creationTime>
        <version>1614680014</version>
      </creationInfo>
      <origin publicID="quakeml:local/origin/1315" ns1:datasource="ogs" ns1:dataid="1315">
        <time>
          <value>2019-07-28T18:33:25.960000Z</value>
        </time>
        <latitude>
          <value>46.4638</value>
          <uncertainty>0.00271247739602</uncertainty>
        </latitude>
        <longitude>
          <value>13.1497</value>
          <uncertainty>0.00391901786408</uncertainty>
        </longitude>
        <depth>
          <value>7380.0</value>
          <uncertainty>600.0</uncertainty>
        </depth>
        <quality>
          <associatedPhaseCount>45</associatedPhaseCount>
          <usedPhaseCount>45</usedPhaseCount>
          <standardError>0.18</standardError>
        </quality>
        <type>hypocenter</type>
        <evaluationMode>manual</evaluationMode>
        <evaluationStatus>reviewed</evaluationStatus>
        <comment>
          <text>algorithm: hypo71</text>
        </comment>
        <creationInfo>
          <author>ogsbulletin</author>
          <version>1614680014.57</version>
        </creationInfo>
        <originUncertainty>
          <preferredDescription>horizontal uncertainty</preferredDescription>
          <minHorizontalUncertainty>300.0</minHorizontalUncertainty>
          <maxHorizontalUncertainty>300.0</maxHorizontalUncertainty>
          <azimuthMaxHorizontalUncertainty>0.0</azimuthMaxHorizontalUncertainty>
        </originUncertainty>
        <arrival publicID="quakeml:local/arrival/20013/1315" ns0:sta="PLRO">
          <pickID>quakeml:local/pick/20013</pickID>
          <phase>P</phase>
          <azimuth>359.0</azimuth>
          <distance>0.085</distance>
          <timeResidual>-0.19</timeResidual>
          <timeWeight>5.39</timeWeight>
          <earthModelID>quakeml:local/earthmodel/</earthModelID>
          <creationInfo>
            <creationTime>2021-03-02T10:13:34.833000Z</creationTime>
          </creationInfo>
        </arrival>
        <arrival publicID="quakeml:local/arrival/20014/1315" ns0:sta="PLRO">
          <pickID>quakeml:local/pick/20014</pickID>
          <phase>S</phase>
          <azimuth>359.0</azimuth>
          <distance>0.085</distance>
          <timeResidual>0.08</timeResidual>
          <timeWeight>3.6</timeWeight>
          <earthModelID>quakeml:local/earthmodel/</earthModelID>
          <creationInfo>
            <creationTime>2021-03-02T10:13:34.873000Z</creationTime>
          </creationInfo>
        </arrival>
        <arrival publicID="quakeml:local/arrival/20015/1315" ns0:sta="FUSE">
          <pickID>quakeml:local/pick/20015</pickID>
          <phase>P</phase>
          <azimuth>244.0</azimuth>
          <distance>0.114</distance>
          <timeResidual>-0.11</timeResidual>
          <timeWeight>1.08</timeWeight>
          <earthModelID>quakeml:local/earthmodel/</earthModelID>
          <creationInfo>
            <creationTime>2021-03-02T10:13:34.976000Z</creationTime>
          </creationInfo>
        </arrival>
        <arrival publicID="quakeml:local/arrival/20016/1315" ns0:sta="FUSE">
          <pickID>quakeml:local/pick/20016</pickID>
          <phase>S</phase>
          <azimuth>244.0</azimuth>
          <distance>0.114</distance>
          <timeResidual>0.04</timeResidual>
          <timeWeight>1.1</timeWeight>
          <earthModelID>quakeml:local/earthmodel/</earthModelID>
          <creationInfo>
            <creationTime>2021-03-02T10:13:35.010000Z</creationTime>
          </creationInfo>
        </arrival>
        <arrival publicID="quakeml:local/arrival/20017/1315" ns0:sta="BOO">
          <pickID>quakeml:local/pick/20017</pickID>
          <phase>P</phase>
          <azimuth>194.0</azimuth>
          <distance>0.148</distance>
          <timeResidual>-0.11</timeResidual>
          <timeWeight>0.9</timeWeight>
          <earthModelID>quakeml:local/earthmodel/</earthModelID>
          <creationInfo>
            <creationTime>2021-03-02T10:13:35.113000Z</creationTime>
          </creationInfo>
        </arrival>
        <arrival publicID="quakeml:local/arrival/20018/1315" ns0:sta="BOO">
          <pickID>quakeml:local/pick/20018</pickID>
          <phase>S</phase>
          <azimuth>194.0</azimuth>
          <distance>0.148</distance>
          <timeResidual>0.13</timeResidual>
          <timeWeight>0.6</timeWeight>
          <earthModelID>quakeml:local/earthmodel/</earthModelID>
          <creationInfo>
            <creationTime>2021-03-02T10:13:35.147000Z</creationTime>
          </creationInfo>
        </arrival>
        <arrival publicID="quakeml:local/arrival/20019/1315" ns0:sta="PTCC">
          <pickID>quakeml:local/pick/20019</pickID>
          <phase>P</phase>
          <azimuth>113.0</azimuth>
          <distance>0.153</distance>
          <timeResidual>-0.22</timeResidual>
          <timeWeight>1.8</timeWeight>
          <earthModelID>quakeml:local/earthmodel/</earthModelID>
          <creationInfo>
            <creationTime>2021-03-02T10:13:35.216000Z</creationTime>
          </creationInfo>
        </arrival>
        <arrival publicID="quakeml:local/arrival/20020/1315" ns0:sta="PTCC">
          <pickID>quakeml:local/pick/20020</pickID>
          <phase>S</phase>
          <azimuth>113.0</azimuth>
          <distance>0.153</distance>
          <timeResidual>-0.03</timeResidual>
          <timeWeight>1.2</timeWeight>
          <earthModelID>quakeml:local/earthmodel/</earthModelID>
          <creationInfo>
            <creationTime>2021-03-02T10:13:35.249000Z</creationTime>
          </creationInfo>
        </arrival>
        <arrival publicID="quakeml:local/arrival/20021/1315" ns0:sta="ZOU2">
          <pickID>quakeml:local/pick/20021</pickID>
          <phase>P</phase>
          <azimuth>308.0</azimuth>
          <distance>0.153</distance>
          <timeResidual>0.06</timeResidual>
          <timeWeight>1.08</timeWeight>
          <earthModelID>quakeml:local/earthmodel/</earthModelID>
          <creationInfo>
            <creationTime>2021-03-02T10:13:35.347000Z</creationTime>
          </creationInfo>
        </arrival>
        <arrival publicID="quakeml:local/arrival/20022/1315" ns0:sta="ZOU2">
          <pickID>quakeml:local/pick/20022</pickID>
          <phase>S</phase>
          <azimuth>308.0</azimuth>
          <distance>0.153</distance>
          <timeResidual>0.05</timeResidual>
          <timeWeight>0.7</timeWeight>
          <earthModelID>quakeml:local/earthmodel/</earthModelID>
          <creationInfo>
            <creationTime>2021-03-02T10:13:35.380000Z</creationTime>
          </creationInfo>
        </arrival>
        <arrival publicID="quakeml:local/arrival/20023/1315" ns0:sta="CLUD">
          <pickID>quakeml:local/pick/20023</pickID>
          <phase>P</phase>
          <azimuth>268.0</azimuth>
          <distance>0.185</distance>
          <timeResidual>-0.11</timeResidual>
          <timeWeight>1.08</timeWeight>
          <earthModelID>quakeml:local/earthmodel/</earthModelID>
          <creationInfo>
            <creationTime>2021-03-02T10:13:35.490000Z</creationTime>
          </creationInfo>
        </arrival>
        <arrival publicID="quakeml:local/arrival/20024/1315" ns0:sta="CLUD">
          <pickID>quakeml:local/pick/20024</pickID>
          <phase>S</phase>
          <azimuth>268.0</azimuth>
          <distance>0.185</distance>
          <timeResidual>0.02</timeResidual>
          <timeWeight>0.7</timeWeight>
          <earthModelID>quakeml:local/earthmodel/</earthModelID>
          <creationInfo>
            <creationTime>2021-03-02T10:13:35.523000Z</creationTime>
          </creationInfo>
        </arrival>
        <arrival publicID="quakeml:local/arrival/20025/1315" ns0:sta="GEPF">
          <pickID>quakeml:local/pick/20025</pickID>
          <phase>P</phase>
          <azimuth>182.0</azimuth>
          <distance>0.194</distance>
          <timeResidual>-0.17</timeResidual>
          <timeWeight>1.2</timeWeight>
          <earthModelID>quakeml:local/earthmodel/</earthModelID>
          <creationInfo>
            <creationTime>2021-03-02T10:13:35.593000Z</creationTime>
          </creationInfo>
        </arrival>
        <arrival publicID="quakeml:local/arrival/20026/1315" ns0:sta="GEPF">
          <pickID>quakeml:local/pick/20026</pickID>
          <phase>S</phase>
          <azimuth>182.0</azimuth>
          <distance>0.194</distance>
          <timeResidual>0.26</timeResidual>
          <timeWeight>0.6</timeWeight>
          <earthModelID>quakeml:local/earthmodel/</earthModelID>
          <creationInfo>
            <creationTime>2021-03-02T10:13:35.631000Z</creationTime>
          </creationInfo>
        </arrival>
        <arrival publicID="quakeml:local/arrival/20027/1315" ns0:sta="VINO">
          <pickID>quakeml:local/pick/20027</pickID>
          <phase>P</phase>
          <azimuth>156.0</azimuth>
          <distance>0.227</distance>
          <timeResidual>0.04</timeResidual>
          <timeWeight>0.9</timeWeight>
          <earthModelID>quakeml:local/earthmodel/</earthModelID>
          <creationInfo>
            <creationTime>2021-03-02T10:13:35.735000Z</creationTime>
          </creationInfo>
        </arrival>
        <arrival publicID="quakeml:local/arrival/20028/1315" ns0:sta="VINO">
          <pickID>quakeml:local/pick/20028</pickID>
          <phase>S</phase>
          <azimuth>156.0</azimuth>
          <distance>0.227</distance>
          <timeResidual>0.14</timeResidual>
          <timeWeight>0.6</timeWeight>
          <earthModelID>quakeml:local/earthmodel/</earthModelID>
          <creationInfo>
            <creationTime>2021-03-02T10:13:35.768000Z</creationTime>
          </creationInfo>
        </arrival>
        <arrival publicID="quakeml:local/arrival/20029/1315" ns0:sta="BAD">
          <pickID>quakeml:local/pick/20029</pickID>
          <phase>P</phase>
          <azimuth>164.0</azimuth>
          <distance>0.238</distance>
          <timeResidual>-0.08</timeResidual>
          <timeWeight>0.9</timeWeight>
          <earthModelID>quakeml:local/earthmodel/</earthModelID>
          <creationInfo>
            <creationTime>2021-03-02T10:13:35.872000Z</creationTime>
          </creationInfo>
        </arrival>
        <arrival publicID="quakeml:local/arrival/20030/1315" ns0:sta="BAD">
          <pickID>quakeml:local/pick/20030</pickID>
          <phase>S</phase>
          <azimuth>164.0</azimuth>
          <distance>0.238</distance>
          <timeResidual>0.11</timeResidual>
          <timeWeight>0.6</timeWeight>
          <earthModelID>quakeml:local/earthmodel/</earthModelID>
          <creationInfo>
            <creationTime>2021-03-02T10:13:35.905000Z</creationTime>
          </creationInfo>
        </arrival>
        <arrival publicID="quakeml:local/arrival/20031/1315" ns0:sta="BUA">
          <pickID>quakeml:local/pick/20031</pickID>
          <phase>P</phase>
          <azimuth>184.0</azimuth>
          <distance>0.248</distance>
          <timeResidual>0.22</timeResidual>
          <timeWeight>0.9</timeWeight>
          <earthModelID>quakeml:local/earthmodel/</earthModelID>
          <creationInfo>
            <creationTime>2021-03-02T10:13:36.015000Z</creationTime>
          </creationInfo>
        </arrival>
        <arrival publicID="quakeml:local/arrival/20032/1315" ns0:sta="BUA">
          <pickID>quakeml:local/pick/20032</pickID>
          <phase>S</phase>
          <azimuth>184.0</azimuth>
          <distance>0.248</distance>
          <timeResidual>0.13</timeResidual>
          <timeWeight>0.6</timeWeight>
          <earthModelID>quakeml:local/earthmodel/</earthModelID>
          <creationInfo>
            <creationTime>2021-03-02T10:13:36.048000Z</creationTime>
          </creationInfo>
        </arrival>
        <arrival publicID="quakeml:local/arrival/20033/1315" ns0:sta="MPRI">
          <pickID>quakeml:local/pick/20033</pickID>
          <phase>P</phase>
          <azimuth>207.0</azimuth>
          <distance>0.251</distance>
          <timeResidual>0.06</timeResidual>
          <timeWeight>0.6</timeWeight>
          <earthModelID>quakeml:local/earthmodel/</earthModelID>
          <creationInfo>
            <creationTime>2021-03-02T10:13:36.152000Z</creationTime>
          </creationInfo>
        </arrival>
        <arrival publicID="quakeml:local/arrival/20034/1315" ns0:sta="MPRI">
          <pickID>quakeml:local/pick/20034</pickID>
          <phase>S</phase>
          <azimuth>207.0</azimuth>
          <distance>0.251</distance>
          <timeResidual>0.07</timeResidual>
          <timeWeight>0.6</timeWeight>
          <earthModelID>quakeml:local/earthmodel/</earthModelID>
          <creationInfo>
            <creationTime>2021-03-02T10:13:36.184000Z</creationTime>
          </creationInfo>
        </arrival>
        <arrival publicID="quakeml:local/arrival/20035/1315" ns0:sta="LSR">
          <pickID>quakeml:local/pick/20035</pickID>
          <phase>P</phase>
          <azimuth>87.0</azimuth>
          <distance>0.262</distance>
          <timeResidual>0.08</timeResidual>
          <timeWeight>1.8</timeWeight>
          <earthModelID>quakeml:local/earthmodel/</earthModelID>
          <creationInfo>
            <creationTime>2021-03-02T10:13:36.289000Z</creationTime>
          </creationInfo>
        </arrival>
        <arrival publicID="quakeml:local/arrival/20036/1315" ns0:sta="LSR">
          <pickID>quakeml:local/pick/20036</pickID>
          <phase>S</phase>
          <azimuth>87.0</azimuth>
          <distance>0.262</distance>
          <timeResidual>0.01</timeResidual>
          <timeWeight>0.6</timeWeight>
          <earthModelID>quakeml:local/earthmodel/</earthModelID>
          <creationInfo>
            <creationTime>2021-03-02T10:13:36.321000Z</creationTime>
          </creationInfo>
        </arrival>
        <arrival publicID="quakeml:local/arrival/20037/1315" ns0:sta="ACOM">
          <pickID>quakeml:local/pick/20037</pickID>
          <phase>P</phase>
          <azimuth>72.0</azimuth>
          <distance>0.266</distance>
          <timeResidual>0.22</timeResidual>
          <timeWeight>2.4</timeWeight>
          <earthModelID>quakeml:local/earthmodel/</earthModelID>
          <creationInfo>
            <creationTime>2021-03-02T10:13:36.426000Z</creationTime>
          </creationInfo>
        </arrival>
        <arrival publicID="quakeml:local/arrival/20038/1315" ns0:sta="ACOM">
          <pickID>quakeml:local/pick/20038</pickID>
          <phase>S</phase>
          <azimuth>72.0</azimuth>
          <distance>0.266</distance>
          <timeResidual>0.14</timeResidual>
          <timeWeight>1.2</timeWeight>
          <earthModelID>quakeml:local/earthmodel/</earthModelID>
          <creationInfo>
            <creationTime>2021-03-02T10:13:36.458000Z</creationTime>
          </creationInfo>
        </arrival>
        <arrival publicID="quakeml:local/arrival/20039/1315" ns0:sta="PURA">
          <pickID>quakeml:local/pick/20039</pickID>
          <phase>P</phase>
          <azimuth>262.0</azimuth>
          <distance>0.287</distance>
          <timeResidual>0.07</timeResidual>
          <timeWeight>0.72</timeWeight>
          <earthModelID>quakeml:local/earthmodel/</earthModelID>
          <creationInfo>
            <creationTime>2021-03-02T10:13:36.529000Z</creationTime>
          </creationInfo>
        </arrival>
        <arrival publicID="quakeml:local/arrival/20040/1315" ns0:sta="PURA">
          <pickID>quakeml:local/pick/20040</pickID>
          <phase>S</phase>
          <azimuth>262.0</azimuth>
          <distance>0.287</distance>
          <timeResidual>0.05</timeResidual>
          <timeWeight>0.7</timeWeight>
          <earthModelID>quakeml:local/earthmodel/</earthModelID>
          <creationInfo>
            <creationTime>2021-03-02T10:13:36.561000Z</creationTime>
          </creationInfo>
        </arrival>
        <arrival publicID="quakeml:local/arrival/20041/1315" ns0:sta="MORT">
          <pickID>quakeml:local/pick/20041</pickID>
          <phase>P</phase>
          <azimuth>258.0</azimuth>
          <distance>0.317</distance>
          <timeResidual>-0.06</timeResidual>
          <timeWeight>0.36</timeWeight>
          <earthModelID>quakeml:local/earthmodel/</earthModelID>
          <creationInfo>
            <creationTime>2021-03-02T10:13:36.595000Z</creationTime>
          </creationInfo>
        </arrival>
        <arrival publicID="quakeml:local/arrival/20042/1315" ns0:sta="ROBS">
          <pickID>quakeml:local/pick/20042</pickID>
          <phase>P</phase>
          <azimuth>131.0</azimuth>
          <distance>0.332</distance>
          <timeResidual>-0.12</timeResidual>
          <timeWeight>0.6</timeWeight>
          <earthModelID>quakeml:local/earthmodel/</earthModelID>
          <creationInfo>
            <creationTime>2021-03-02T10:13:36.665000Z</creationTime>
          </creationInfo>
        </arrival>
        <arrival publicID="quakeml:local/arrival/20043/1315" ns0:sta="ROBS">
          <pickID>quakeml:local/pick/20043</pickID>
          <phase>S</phase>
          <azimuth>131.0</azimuth>
          <distance>0.332</distance>
          <timeResidual>0.17</timeResidual>
          <timeWeight>0.6</timeWeight>
          <earthModelID>quakeml:local/earthmodel/</earthModelID>
          <creationInfo>
            <creationTime>2021-03-02T10:13:36.698000Z</creationTime>
          </creationInfo>
        </arrival>
        <arrival publicID="quakeml:local/arrival/20044/1315" ns0:sta="COLI">
          <pickID>quakeml:local/pick/20044</pickID>
          <phase>P</phase>
          <azimuth>155.0</azimuth>
          <distance>0.368</distance>
          <timeResidual>0.09</timeResidual>
          <timeWeight>0.6</timeWeight>
          <earthModelID>quakeml:local/earthmodel/</earthModelID>
          <creationInfo>
            <creationTime>2021-03-02T10:13:36.803000Z</creationTime>
          </creationInfo>
        </arrival>
        <arrival publicID="quakeml:local/arrival/20045/1315" ns0:sta="COLI">
          <pickID>quakeml:local/pick/20045</pickID>
          <phase>S</phase>
          <azimuth>155.0</azimuth>
          <distance>0.368</distance>
          <timeResidual>-0.59</timeResidual>
          <timeWeight>0.6</timeWeight>
          <earthModelID>quakeml:local/earthmodel/</earthModelID>
          <creationInfo>
            <creationTime>2021-03-02T10:13:36.835000Z</creationTime>
          </creationInfo>
        </arrival>
        <arrival publicID="quakeml:local/arrival/20046/1315" ns0:sta="MYKA">
          <pickID>quakeml:local/pick/20046</pickID>
          <phase>P</phase>
          <azimuth>64.0</azimuth>
          <distance>0.378</distance>
          <timeResidual>0.03</timeResidual>
          <timeWeight>1.19</timeWeight>
          <earthModelID>quakeml:local/earthmodel/</earthModelID>
          <creationInfo>
            <creationTime>2021-03-02T10:13:36.869000Z</creationTime>
          </creationInfo>
        </arrival>
        <arrival publicID="quakeml:local/arrival/20047/1315" ns0:sta="CADS">
          <pickID>quakeml:local/pick/20047</pickID>
          <phase>P</phase>
          <azimuth>120.0</azimuth>
