<?xml version='1.0' encoding='utf-8'?>
<q:quakeml xmlns="http://quakeml.org/xmlns/bed/1.2" xmlns:q="http://quakeml.org/xmlns/quakeml/1.2" xmlns:ns0="http://rts.crs.inogs.it/xmlns/ogs/0.1" xmlns:ns1="http://rts.crs.inogs.it/xmlns/catalogo/0.1">
  <eventParameters publicID="smi:local/5921630c-51d4-40f5-9ce4-49a37af28908">
    <event publicID="quakeml:local/event/00000982" ns1:datasource="ogs" ns1:eventid="982" ns1:eventsource="ogs">
      <preferredOriginID>quakeml:local/origin/982</preferredOriginID>
      <preferredMagnitudeID>quakeml:local/magnitude/1800</preferredMagnitudeID>
      <type>earthquake</type>
      <creationInfo>
        <agencyID>ogs</agencyID>
        <author>Antelope event2qml process</author>
        <creationTime>2021-03-02T10:06:57.409000Z</creationTime>
        <version>1614679617</version>
      </creationInfo>
      <origin publicID="quakeml:local/origin/982" ns1:datasource="ogs" ns1:dataid="982">
        <time>
          <value>2019-06-14T16:13:10.640000Z</value>
        </time>
        <latitude>
          <value>46.3912</value>
          <uncertainty>0.00180831826401</uncertainty>
        </latitude>
        <longitude>
          <value>12.9873</value>
          <uncertainty>0.00260920113001</uncertainty>
        </longitude>
        <depth>
          <value>6630.0</value>
          <uncertainty>700.0</uncertainty>
        </depth>
        <quality>
          <associatedPhaseCount>54</associatedPhaseCount>
          <usedPhaseCount>55</usedPhaseCount>
          <standardError>0.15</standardError>
        </quality>
        <type>hypocenter</type>
        <evaluationMode>manual</evaluationMode>
        <evaluationStatus>reviewed</evaluationStatus>
        <comment>
          <text>algorithm: hypo71</text>
        </comment>
        <creationInfo>
          <author>ogsbulletin</author>
          <version>1614679617.37</version>
        </creationInfo>
        <originUncertainty>
          <preferredDescription>horizontal uncertainty</preferredDescription>
          <minHorizontalUncertainty>200.0</minHorizontalUncertainty>
          <maxHorizontalUncertainty>200.0</maxHorizontalUncertainty>
          <azimuthMaxHorizontalUncertainty>0.0</azimuthMaxHorizontalUncertainty>
        </originUncertainty>
        <arrival publicID="quakeml:local/arrival/14636/982" ns0:sta="FUSE">
          <pickID>quakeml:local/pick/14636</pickID>
          <phase>P</phase>
          <azimuth>23.0</azimuth>
          <distance>0.025</distance>
          <timeResidual>-0.51</timeResidual>
          <timeWeight>1.0</timeWeight>
          <earthModelID>quakeml:local/earthmodel/</earthModelID>
          <creationInfo>
            <creationTime>2021-03-02T10:06:57.593000Z</creationTime>
          </creationInfo>
        </arrival>
        <arrival publicID="quakeml:local/arrival/14637/982" ns0:sta="CLUD">
          <pickID>quakeml:local/pick/14637</pickID>
          <phase>P</phase>
          <azimuth>312.0</azimuth>
          <distance>0.098</distance>
          <timeResidual>-0.1</timeResidual>
          <timeWeight>2.57</timeWeight>
          <earthModelID>quakeml:local/earthmodel/</earthModelID>
          <creationInfo>
            <creationTime>2021-03-02T10:06:57.706000Z</creationTime>
          </creationInfo>
        </arrival>
        <arrival publicID="quakeml:local/arrival/14638/982" ns0:sta="CLUD">
          <pickID>quakeml:local/pick/14638</pickID>
          <phase>S</phase>
          <azimuth>312.0</azimuth>
          <distance>0.098</distance>
          <timeResidual>-0.18</timeResidual>
          <timeWeight>1.3</timeWeight>
          <earthModelID>quakeml:local/earthmodel/</earthModelID>
          <creationInfo>
            <creationTime>2021-03-02T10:06:57.746000Z</creationTime>
          </creationInfo>
        </arrival>
        <arrival publicID="quakeml:local/arrival/14639/982" ns0:sta="BOO">
          <pickID>quakeml:local/pick/14639</pickID>
          <phase>P</phase>
          <azimuth>133.0</azimuth>
          <distance>0.104</distance>
          <timeResidual>-0.07</timeResidual>
          <timeWeight>1.36</timeWeight>
          <earthModelID>quakeml:local/earthmodel/</earthModelID>
          <creationInfo>
            <creationTime>2021-03-02T10:06:57.868000Z</creationTime>
          </creationInfo>
        </arrival>
        <arrival publicID="quakeml:local/arrival/14640/982" ns0:sta="BOO">
          <pickID>quakeml:local/pick/14640</pickID>
          <phase>S</phase>
          <azimuth>133.0</azimuth>
          <distance>0.104</distance>
          <timeResidual>0.02</timeResidual>
          <timeWeight>1.0</timeWeight>
          <earthModelID>quakeml:local/earthmodel/</earthModelID>
          <creationInfo>
            <creationTime>2021-03-02T10:06:57.902000Z</creationTime>
          </creationInfo>
        </arrival>
        <arrival publicID="quakeml:local/arrival/14641/982" ns0:sta="MPRI">
          <pickID>quakeml:local/pick/14641</pickID>
          <phase>P</phase>
          <azimuth>180.0</azimuth>
          <distance>0.151</distance>
          <timeResidual>0.01</timeResidual>
          <timeWeight>1.36</timeWeight>
          <earthModelID>quakeml:local/earthmodel/</earthModelID>
          <creationInfo>
            <creationTime>2021-03-02T10:06:58.011000Z</creationTime>
          </creationInfo>
        </arrival>
        <arrival publicID="quakeml:local/arrival/14642/982" ns0:sta="MPRI">
          <pickID>quakeml:local/pick/14642</pickID>
          <phase>S</phase>
          <azimuth>180.0</azimuth>
          <distance>0.151</distance>
          <timeResidual>0.1</timeResidual>
          <timeWeight>0.7</timeWeight>
          <earthModelID>quakeml:local/earthmodel/</earthModelID>
          <creationInfo>
            <creationTime>2021-03-02T10:06:58.045000Z</creationTime>
          </creationInfo>
        </arrival>
        <arrival publicID="quakeml:local/arrival/14643/982" ns0:sta="GEPF">
          <pickID>quakeml:local/pick/14643</pickID>
          <phase>P</phase>
          <azimuth>139.0</azimuth>
          <distance>0.16</distance>
          <timeResidual>-0.15</timeResidual>
          <timeWeight>1.36</timeWeight>
          <earthModelID>quakeml:local/earthmodel/</earthModelID>
          <creationInfo>
            <creationTime>2021-03-02T10:06:58.114000Z</creationTime>
          </creationInfo>
        </arrival>
        <arrival publicID="quakeml:local/arrival/14644/982" ns0:sta="GEPF">
          <pickID>quakeml:local/pick/14644</pickID>
          <phase>S</phase>
          <azimuth>139.0</azimuth>
          <distance>0.16</distance>
          <timeResidual>-0.03</timeResidual>
          <timeWeight>0.7</timeWeight>
          <earthModelID>quakeml:local/earthmodel/</earthModelID>
          <creationInfo>
            <creationTime>2021-03-02T10:06:58.148000Z</creationTime>
          </creationInfo>
        </arrival>
        <arrival publicID="quakeml:local/arrival/14645/982" ns0:sta="ZOU2">
          <pickID>quakeml:local/pick/14645</pickID>
          <phase>P</phase>
          <azimuth>357.0</azimuth>
          <distance>0.166</distance>
          <timeResidual>0.02</timeResidual>
          <timeWeight>2.57</timeWeight>
          <earthModelID>quakeml:local/earthmodel/</earthModelID>
          <creationInfo>
            <creationTime>2021-03-02T10:06:58.256000Z</creationTime>
          </creationInfo>
        </arrival>
        <arrival publicID="quakeml:local/arrival/14646/982" ns0:sta="ZOU2">
          <pickID>quakeml:local/pick/14646</pickID>
          <phase>S</phase>
          <azimuth>357.0</azimuth>
          <distance>0.166</distance>
          <timeResidual>0.09</timeResidual>
          <timeWeight>1.3</timeWeight>
          <earthModelID>quakeml:local/earthmodel/</earthModelID>
          <creationInfo>
            <creationTime>2021-03-02T10:06:58.291000Z</creationTime>
          </creationInfo>
        </arrival>
        <arrival publicID="quakeml:local/arrival/14647/982" ns0:sta="PURA">
          <pickID>quakeml:local/pick/14647</pickID>
          <phase>P</phase>
          <azimuth>280.0</azimuth>
          <distance>0.175</distance>
          <timeResidual>0.06</timeResidual>
          <timeWeight>1.54</timeWeight>
          <earthModelID>quakeml:local/earthmodel/</earthModelID>
          <creationInfo>
            <creationTime>2021-03-02T10:06:58.365000Z</creationTime>
          </creationInfo>
        </arrival>
        <arrival publicID="quakeml:local/arrival/14648/982" ns0:sta="PURA">
          <pickID>quakeml:local/pick/14648</pickID>
          <phase>S</phase>
          <azimuth>280.0</azimuth>
          <distance>0.175</distance>
          <timeResidual>0.35</timeResidual>
          <timeWeight>0.8</timeWeight>
          <earthModelID>quakeml:local/earthmodel/</earthModelID>
          <creationInfo>
            <creationTime>2021-03-02T10:06:58.399000Z</creationTime>
          </creationInfo>
        </arrival>
        <arrival publicID="quakeml:local/arrival/14649/982" ns0:sta="PLRO">
          <pickID>quakeml:local/pick/14649</pickID>
          <phase>P</phase>
          <azimuth>35.0</azimuth>
          <distance>0.192</distance>
          <timeResidual>0.05</timeResidual>
          <timeWeight>1.78</timeWeight>
          <earthModelID>quakeml:local/earthmodel/</earthModelID>
          <creationInfo>
            <creationTime>2021-03-02T10:06:58.570000Z</creationTime>
          </creationInfo>
        </arrival>
        <arrival publicID="quakeml:local/arrival/14650/982" ns0:sta="PLRO">
          <pickID>quakeml:local/pick/14650</pickID>
          <phase>S</phase>
          <azimuth>35.0</azimuth>
          <distance>0.192</distance>
          <timeResidual>0.09</timeResidual>
          <timeWeight>0.9</timeWeight>
          <earthModelID>quakeml:local/earthmodel/</earthModelID>
          <creationInfo>
            <creationTime>2021-03-02T10:06:58.605000Z</creationTime>
          </creationInfo>
        </arrival>
        <arrival publicID="quakeml:local/arrival/14651/982" ns0:sta="MORT">
          <pickID>quakeml:local/pick/14651</pickID>
          <phase>P</phase>
          <azimuth>272.0</azimuth>
          <distance>0.198</distance>
          <timeResidual>0.11</timeResidual>
          <timeWeight>1.54</timeWeight>
          <earthModelID>quakeml:local/earthmodel/</earthModelID>
          <creationInfo>
            <creationTime>2021-03-02T10:06:58.639000Z</creationTime>
          </creationInfo>
        </arrival>
        <arrival publicID="quakeml:local/arrival/14652/982" ns0:sta="MORT">
          <pickID>quakeml:local/pick/14652</pickID>
          <phase>S</phase>
          <azimuth>272.0</azimuth>
          <distance>0.198</distance>
          <timeResidual>0.19</timeResidual>
          <timeWeight>0.8</timeWeight>
          <earthModelID>quakeml:local/earthmodel/</earthModelID>
          <creationInfo>
            <creationTime>2021-03-02T10:06:58.673000Z</creationTime>
          </creationInfo>
        </arrival>
        <arrival publicID="quakeml:local/arrival/14653/982" ns0:sta="BUA">
          <pickID>quakeml:local/pick/14653</pickID>
          <phase>P</phase>
          <azimuth>152.0</azimuth>
          <distance>0.198</distance>
          <timeResidual>0.03</timeResidual>
          <timeWeight>1.36</timeWeight>
          <earthModelID>quakeml:local/earthmodel/</earthModelID>
          <creationInfo>
            <creationTime>2021-03-02T10:06:58.782000Z</creationTime>
          </creationInfo>
        </arrival>
        <arrival publicID="quakeml:local/arrival/14654/982" ns0:sta="BUA">
          <pickID>quakeml:local/pick/14654</pickID>
          <phase>S</phase>
          <azimuth>152.0</azimuth>
          <distance>0.198</distance>
          <timeResidual>0.2</timeResidual>
          <timeWeight>0.7</timeWeight>
          <earthModelID>quakeml:local/earthmodel/</earthModelID>
          <creationInfo>
            <creationTime>2021-03-02T10:06:58.816000Z</creationTime>
          </creationInfo>
        </arrival>
        <arrival publicID="quakeml:local/arrival/14655/982" ns0:sta="STAL">
          <pickID>quakeml:local/pick/14655</pickID>
          <phase>P</phase>
          <azimuth>236.0</azimuth>
          <distance>0.232</distance>
          <timeResidual>-0.13</timeResidual>
          <timeWeight>1.16</timeWeight>
          <earthModelID>quakeml:local/earthmodel/</earthModelID>
          <creationInfo>
            <creationTime>2021-03-02T10:06:58.884000Z</creationTime>
          </creationInfo>
        </arrival>
        <arrival publicID="quakeml:local/arrival/14656/982" ns0:sta="STAL">
          <pickID>quakeml:local/pick/14656</pickID>
          <phase>S</phase>
          <azimuth>236.0</azimuth>
          <distance>0.232</distance>
          <timeResidual>-0.03</timeResidual>
          <timeWeight>1.2</timeWeight>
          <earthModelID>quakeml:local/earthmodel/</earthModelID>
          <creationInfo>
            <creationTime>2021-03-02T10:06:58.918000Z</creationTime>
          </creationInfo>
        </arrival>
        <arrival publicID="quakeml:local/arrival/14657/982" ns0:sta="BAD">
          <pickID>quakeml:local/pick/14657</pickID>
          <phase>P</phase>
          <azimuth>132.0</azimuth>
          <distance>0.237</distance>
          <timeResidual>-0.15</timeResidual>
          <timeWeight>1.36</timeWeight>
          <earthModelID>quakeml:local/earthmodel/</earthModelID>
          <creationInfo>
            <creationTime>2021-03-02T10:06:59.021000Z</creationTime>
          </creationInfo>
        </arrival>
        <arrival publicID="quakeml:local/arrival/14658/982" ns0:sta="BAD">
          <pickID>quakeml:local/pick/14658</pickID>
          <phase>S</phase>
          <azimuth>132.0</azimuth>
          <distance>0.237</distance>
          <timeResidual>0.04</timeResidual>
          <timeWeight>0.7</timeWeight>
          <earthModelID>quakeml:local/earthmodel/</earthModelID>
          <creationInfo>
            <creationTime>2021-03-02T10:06:59.056000Z</creationTime>
          </creationInfo>
        </arrival>
        <arrival publicID="quakeml:local/arrival/14659/982" ns0:sta="VINO">
          <pickID>quakeml:local/pick/14659</pickID>
          <phase>P</phase>
          <azimuth>124.0</azimuth>
          <distance>0.244</distance>
          <timeResidual>-0.15</timeResidual>
          <timeWeight>1.36</timeWeight>
          <earthModelID>quakeml:local/earthmodel/</earthModelID>
          <creationInfo>
            <creationTime>2021-03-02T10:06:59.158000Z</creationTime>
          </creationInfo>
        </arrival>
        <arrival publicID="quakeml:local/arrival/14660/982" ns0:sta="VINO">
          <pickID>quakeml:local/pick/14660</pickID>
          <phase>S</phase>
          <azimuth>124.0</azimuth>
          <distance>0.244</distance>
          <timeResidual>-0.01</timeResidual>
          <timeWeight>0.7</timeWeight>
          <earthModelID>quakeml:local/earthmodel/</earthModelID>
          <creationInfo>
            <creationTime>2021-03-02T10:06:59.187000Z</creationTime>
          </creationInfo>
        </arrival>
        <arrival publicID="quakeml:local/arrival/14661/982" ns0:sta="FVI">
          <pickID>quakeml:local/pick/14661</pickID>
          <phase>P</phase>
          <azimuth>325.0</azimuth>
          <distance>0.25</distance>
          <timeResidual>-0.14</timeResidual>
          <timeWeight>1.93</timeWeight>
          <earthModelID>quakeml:local/earthmodel/</earthModelID>
          <creationInfo>
            <creationTime>2021-03-02T10:06:59.250000Z</creationTime>
          </creationInfo>
        </arrival>
        <arrival publicID="quakeml:local/arrival/14662/982" ns0:sta="FVI">
          <pickID>quakeml:local/pick/14662</pickID>
          <phase>S</phase>
          <azimuth>325.0</azimuth>
          <distance>0.25</distance>
          <timeResidual>-0.24</timeResidual>
          <timeWeight>1.3</timeWeight>
          <earthModelID>quakeml:local/earthmodel/</earthModelID>
          <creationInfo>
            <creationTime>2021-03-02T10:06:59.278000Z</creationTime>
          </creationInfo>
        </arrival>
        <arrival publicID="quakeml:local/arrival/14663/982" ns0:sta="PTCC">
          <pickID>quakeml:local/pick/14663</pickID>
          <phase>P</phase>
          <azimuth>87.0</azimuth>
          <distance>0.254</distance>
          <timeResidual>-0.08</timeResidual>
          <timeWeight>1.78</timeWeight>
          <earthModelID>quakeml:local/earthmodel/</earthModelID>
          <creationInfo>
            <creationTime>2021-03-02T10:06:59.341000Z</creationTime>
          </creationInfo>
        </arrival>
        <arrival publicID="quakeml:local/arrival/14664/982" ns0:sta="PTCC">
          <pickID>quakeml:local/pick/14664</pickID>
          <phase>S</phase>
          <azimuth>87.0</azimuth>
          <distance>0.254</distance>
          <timeResidual>0.28</timeResidual>
          <timeWeight>0.9</timeWeight>
          <earthModelID>quakeml:local/earthmodel/</earthModelID>
          <creationInfo>
            <creationTime>2021-03-02T10:06:59.392000Z</creationTime>
          </creationInfo>
        </arrival>
        <arrival publicID="quakeml:local/arrival/14665/982" ns0:sta="CSM">
          <pickID>quakeml:local/pick/14665</pickID>
          <phase>P</phase>
          <azimuth>298.0</azimuth>
          <distance>0.262</distance>
          <timeResidual>0.03</timeResidual>
          <timeWeight>2.57</timeWeight>
          <earthModelID>quakeml:local/earthmodel/</earthModelID>
          <creationInfo>
            <creationTime>2021-03-02T10:06:59.461000Z</creationTime>
          </creationInfo>
        </arrival>
        <arrival publicID="quakeml:local/arrival/14666/982" ns0:sta="CSM">
          <pickID>quakeml:local/pick/14666</pickID>
          <phase>S</phase>
          <azimuth>298.0</azimuth>
          <distance>0.262</distance>
          <timeResidual>0.1</timeResidual>
          <timeWeight>1.3</timeWeight>
          <earthModelID>quakeml:local/earthmodel/</earthModelID>
          <creationInfo>
            <creationTime>2021-03-02T10:06:59.495000Z</creationTime>
          </creationInfo>
        </arrival>
        <arrival publicID="quakeml:local/arrival/14667/982" ns0:sta="MLN">
          <pickID>quakeml:local/pick/14667</pickID>
          <phase>P</phase>
          <azimuth>227.0</azimuth>
          <distance>0.353</distance>
          <timeResidual>0.22</timeResidual>
          <timeWeight>1.54</timeWeight>
          <earthModelID>quakeml:local/earthmodel/</earthModelID>
          <creationInfo>
            <creationTime>2021-03-02T10:06:59.564000Z</creationTime>
          </creationInfo>
        </arrival>
        <arrival publicID="quakeml:local/arrival/14668/982" ns0:sta="MLN">
          <pickID>quakeml:local/pick/14668</pickID>
          <phase>S</phase>
          <azimuth>227.0</azimuth>
          <distance>0.353</distance>
          <timeResidual>0.05</timeResidual>
          <timeWeight>0.8</timeWeight>
          <earthModelID>quakeml:local/earthmodel/</earthModelID>
          <creationInfo>
            <creationTime>2021-03-02T10:06:59.598000Z</creationTime>
          </creationInfo>
        </arrival>
        <arrival publicID="quakeml:local/arrival/14669/982" ns0:sta="COLI">
          <pickID>quakeml:local/pick/14669</pickID>
          <phase>P</phase>
          <azimuth>134.0</azimuth>
          <distance>0.374</distance>
          <timeResidual>-0.03</timeResidual>
          <timeWeight>1.02</timeWeight>
          <earthModelID>quakeml:local/earthmodel/</earthModelID>
          <creationInfo>
            <creationTime>2021-03-02T10:06:59.698000Z</creationTime>
          </creationInfo>
        </arrival>
        <arrival publicID="quakeml:local/arrival/14670/982" ns0:sta="COLI">
          <pickID>quakeml:local/pick/14670</pickID>
          <phase>S</phase>
          <azimuth>134.0</azimuth>
          <distance>0.374</distance>
