<?xml version='1.0' encoding='utf-8'?>
<q:quakeml xmlns="http://quakeml.org/xmlns/bed/1.2" xmlns:q="http://quakeml.org/xmlns/quakeml/1.2" xmlns:ns0="http://rts.crs.inogs.it/xmlns/ogs/0.1" xmlns:ns1="http://rts.crs.inogs.it/xmlns/catalogo/0.1">
  <eventParameters publicID="smi:local/7678ecb9-3adc-409d-9bc9-1c5b0fe6ad05">
    <event publicID="quakeml:local/event/00001316" ns1:datasource="ogs" ns1:eventid="1316" ns1:eventsource="ogs">
      <preferredOriginID>quakeml:local/origin/1316</preferredOriginID>
      <preferredMagnitudeID>quakeml:local/magnitude/2401</preferredMagnitudeID>
      <type>earthquake</type>
      <creationInfo>
        <agencyID>ogs</agencyID>
        <author>Antelope event2qml process</author>
        <creationTime>2021-03-02T10:13:37.658000Z</creationTime>
        <version>1614680017</version>
      </creationInfo>
      <origin publicID="quakeml:local/origin/1316" ns1:datasource="ogs" ns1:dataid="1316">
        <time>
          <value>2019-07-28T19:19:14.770000Z</value>
        </time>
        <latitude>
          <value>46.1847</value>
          <uncertainty>0.00452079566004</uncertainty>
        </latitude>
        <longitude>
          <value>13.059</value>
          <uncertainty>0.00649845804341</uncertainty>
        </longitude>
        <depth>
          <value>11290.0</value>
          <uncertainty>700.0</uncertainty>
        </depth>
        <quality>
          <associatedPhaseCount>56</associatedPhaseCount>
          <usedPhaseCount>57</usedPhaseCount>
          <standardError>0.27</standardError>
        </quality>
        <type>hypocenter</type>
        <evaluationMode>manual</evaluationMode>
        <evaluationStatus>reviewed</evaluationStatus>
        <comment>
          <text>algorithm: hypo71</text>
        </comment>
        <creationInfo>
          <author>ogsbulletin</author>
          <version>1614680017.61</version>
        </creationInfo>
        <originUncertainty>
          <preferredDescription>horizontal uncertainty</preferredDescription>
          <minHorizontalUncertainty>500.0</minHorizontalUncertainty>
          <maxHorizontalUncertainty>500.0</maxHorizontalUncertainty>
          <azimuthMaxHorizontalUncertainty>0.0</azimuthMaxHorizontalUncertainty>
        </originUncertainty>
        <arrival publicID="quakeml:local/arrival/20058/1316" ns0:sta="BUA">
          <pickID>quakeml:local/pick/20058</pickID>
          <phase>P</phase>
          <azimuth>54.0</azimuth>
          <distance>0.055</distance>
          <timeResidual>-0.02</timeResidual>
          <timeWeight>1.14</timeWeight>
          <earthModelID>quakeml:local/earthmodel/</earthModelID>
          <creationInfo>
            <creationTime>2021-03-02T10:13:37.880000Z</creationTime>
          </creationInfo>
        </arrival>
        <arrival publicID="quakeml:local/arrival/20059/1316" ns0:sta="BUA">
          <pickID>quakeml:local/pick/20059</pickID>
          <phase>S</phase>
          <azimuth>54.0</azimuth>
          <distance>0.055</distance>
          <timeResidual>-0.05</timeResidual>
          <timeWeight>1.1</timeWeight>
          <earthModelID>quakeml:local/earthmodel/</earthModelID>
          <creationInfo>
            <creationTime>2021-03-02T10:13:37.919000Z</creationTime>
          </creationInfo>
        </arrival>
        <arrival publicID="quakeml:local/arrival/20060/1316" ns0:sta="MPRI">
          <pickID>quakeml:local/pick/20060</pickID>
          <phase>P</phase>
          <azimuth>318.0</azimuth>
          <distance>0.075</distance>
          <timeResidual>-0.44</timeResidual>
          <timeWeight>1.7</timeWeight>
          <earthModelID>quakeml:local/earthmodel/</earthModelID>
          <creationInfo>
            <creationTime>2021-03-02T10:13:38.035000Z</creationTime>
          </creationInfo>
        </arrival>
        <arrival publicID="quakeml:local/arrival/20061/1316" ns0:sta="MPRI">
          <pickID>quakeml:local/pick/20061</pickID>
          <phase>S</phase>
          <azimuth>318.0</azimuth>
          <distance>0.075</distance>
          <timeResidual>-0.21</timeResidual>
          <timeWeight>1.1</timeWeight>
          <earthModelID>quakeml:local/earthmodel/</earthModelID>
          <creationInfo>
            <creationTime>2021-03-02T10:13:38.068000Z</creationTime>
          </creationInfo>
        </arrival>
        <arrival publicID="quakeml:local/arrival/20062/1316" ns0:sta="GEPF">
          <pickID>quakeml:local/pick/20062</pickID>
          <phase>P</phase>
          <azimuth>33.0</azimuth>
          <distance>0.102</distance>
          <timeResidual>0.04</timeResidual>
          <timeWeight>0.57</timeWeight>
          <earthModelID>quakeml:local/earthmodel/</earthModelID>
          <creationInfo>
            <creationTime>2021-03-02T10:13:38.136000Z</creationTime>
          </creationInfo>
        </arrival>
        <arrival publicID="quakeml:local/arrival/20063/1316" ns0:sta="GEPF">
          <pickID>quakeml:local/pick/20063</pickID>
          <phase>S</phase>
          <azimuth>33.0</azimuth>
          <distance>0.102</distance>
          <timeResidual>-0.02</timeResidual>
          <timeWeight>1.1</timeWeight>
          <earthModelID>quakeml:local/earthmodel/</earthModelID>
          <creationInfo>
            <creationTime>2021-03-02T10:13:38.170000Z</creationTime>
          </creationInfo>
        </arrival>
        <arrival publicID="quakeml:local/arrival/20064/1316" ns0:sta="BAD">
          <pickID>quakeml:local/pick/20064</pickID>
          <phase>P</phase>
          <azimuth>69.0</azimuth>
          <distance>0.137</distance>
          <timeResidual>0.17</timeResidual>
          <timeWeight>1.7</timeWeight>
          <earthModelID>quakeml:local/earthmodel/</earthModelID>
          <creationInfo>
            <creationTime>2021-03-02T10:13:38.273000Z</creationTime>
          </creationInfo>
        </arrival>
        <arrival publicID="quakeml:local/arrival/20065/1316" ns0:sta="BAD">
          <pickID>quakeml:local/pick/20065</pickID>
          <phase>S</phase>
          <azimuth>69.0</azimuth>
          <distance>0.137</distance>
          <timeResidual>0.19</timeResidual>
          <timeWeight>1.1</timeWeight>
          <earthModelID>quakeml:local/earthmodel/</earthModelID>
          <creationInfo>
            <creationTime>2021-03-02T10:13:38.307000Z</creationTime>
          </creationInfo>
        </arrival>
        <arrival publicID="quakeml:local/arrival/20066/1316" ns0:sta="BOO">
          <pickID>quakeml:local/pick/20066</pickID>
          <phase>P</phase>
          <azimuth>11.0</azimuth>
          <distance>0.138</distance>
          <timeResidual>-0.24</timeResidual>
          <timeWeight>1.7</timeWeight>
          <earthModelID>quakeml:local/earthmodel/</earthModelID>
          <creationInfo>
            <creationTime>2021-03-02T10:13:38.404000Z</creationTime>
          </creationInfo>
        </arrival>
        <arrival publicID="quakeml:local/arrival/20067/1316" ns0:sta="BOO">
          <pickID>quakeml:local/pick/20067</pickID>
          <phase>S</phase>
          <azimuth>11.0</azimuth>
          <distance>0.138</distance>
          <timeResidual>-0.1</timeResidual>
          <timeWeight>0.6</timeWeight>
          <earthModelID>quakeml:local/earthmodel/</earthModelID>
          <creationInfo>
            <creationTime>2021-03-02T10:13:38.439000Z</creationTime>
          </creationInfo>
        </arrival>
        <arrival publicID="quakeml:local/arrival/20068/1316" ns0:sta="VINO">
          <pickID>quakeml:local/pick/20068</pickID>
          <phase>P</phase>
          <azimuth>65.0</azimuth>
          <distance>0.17</distance>
          <timeResidual>0.08</timeResidual>
          <timeWeight>1.7</timeWeight>
          <earthModelID>quakeml:local/earthmodel/</earthModelID>
          <creationInfo>
            <creationTime>2021-03-02T10:13:38.541000Z</creationTime>
          </creationInfo>
        </arrival>
        <arrival publicID="quakeml:local/arrival/20069/1316" ns0:sta="VINO">
          <pickID>quakeml:local/pick/20069</pickID>
          <phase>S</phase>
          <azimuth>65.0</azimuth>
          <distance>0.17</distance>
          <timeResidual>0.2</timeResidual>
          <timeWeight>0.6</timeWeight>
          <earthModelID>quakeml:local/earthmodel/</earthModelID>
          <creationInfo>
            <creationTime>2021-03-02T10:13:38.571000Z</creationTime>
          </creationInfo>
        </arrival>
        <arrival publicID="quakeml:local/arrival/20070/1316" ns0:sta="COLI">
          <pickID>quakeml:local/pick/20070</pickID>
          <phase>P</phase>
          <azimuth>104.0</azimuth>
          <distance>0.227</distance>
          <timeResidual>0.45</timeResidual>
          <timeWeight>0.57</timeWeight>
          <earthModelID>quakeml:local/earthmodel/</earthModelID>
          <creationInfo>
            <creationTime>2021-03-02T10:13:38.633000Z</creationTime>
          </creationInfo>
        </arrival>
        <arrival publicID="quakeml:local/arrival/20071/1316" ns0:sta="COLI">
          <pickID>quakeml:local/pick/20071</pickID>
          <phase>S</phase>
          <azimuth>104.0</azimuth>
          <distance>0.227</distance>
          <timeResidual>0.78</timeResidual>
          <timeWeight>0.6</timeWeight>
          <earthModelID>quakeml:local/earthmodel/</earthModelID>
          <creationInfo>
            <creationTime>2021-03-02T10:13:38.663000Z</creationTime>
          </creationInfo>
        </arrival>
        <arrival publicID="quakeml:local/arrival/20072/1316" ns0:sta="FUSE">
          <pickID>quakeml:local/pick/20072</pickID>
          <phase>P</phase>
          <azimuth>350.0</azimuth>
          <distance>0.233</distance>
          <timeResidual>-0.27</timeResidual>
          <timeWeight>1.7</timeWeight>
          <earthModelID>quakeml:local/earthmodel/</earthModelID>
          <creationInfo>
            <creationTime>2021-03-02T10:13:38.764000Z</creationTime>
          </creationInfo>
        </arrival>
        <arrival publicID="quakeml:local/arrival/20073/1316" ns0:sta="FUSE">
          <pickID>quakeml:local/pick/20073</pickID>
          <phase>S</phase>
          <azimuth>350.0</azimuth>
          <distance>0.233</distance>
          <timeResidual>0.09</timeResidual>
          <timeWeight>0.6</timeWeight>
          <earthModelID>quakeml:local/earthmodel/</earthModelID>
          <creationInfo>
            <creationTime>2021-03-02T10:13:38.794000Z</creationTime>
          </creationInfo>
        </arrival>
        <arrival publicID="quakeml:local/arrival/20074/1316" ns0:sta="CLUD">
          <pickID>quakeml:local/pick/20074</pickID>
          <phase>P</phase>
          <azimuth>336.0</azimuth>
          <distance>0.299</distance>
          <timeResidual>-0.24</timeResidual>
          <timeWeight>1.14</timeWeight>
          <earthModelID>quakeml:local/earthmodel/</earthModelID>
          <creationInfo>
            <creationTime>2021-03-02T10:13:38.889000Z</creationTime>
          </creationInfo>
        </arrival>
        <arrival publicID="quakeml:local/arrival/20075/1316" ns0:sta="CLUD">
          <pickID>quakeml:local/pick/20075</pickID>
          <phase>S</phase>
          <azimuth>336.0</azimuth>
          <distance>0.299</distance>
          <timeResidual>0.26</timeResidual>
          <timeWeight>0.6</timeWeight>
          <earthModelID>quakeml:local/earthmodel/</earthModelID>
          <creationInfo>
            <creationTime>2021-03-02T10:13:38.920000Z</creationTime>
          </creationInfo>
        </arrival>
        <arrival publicID="quakeml:local/arrival/20076/1316" ns0:sta="PTCC">
          <pickID>quakeml:local/pick/20076</pickID>
          <phase>P</phase>
          <azimuth>43.0</azimuth>
          <distance>0.3</distance>
          <timeResidual>-0.12</timeResidual>
          <timeWeight>2.27</timeWeight>
          <earthModelID>quakeml:local/earthmodel/</earthModelID>
          <creationInfo>
            <creationTime>2021-03-02T10:13:38.986000Z</creationTime>
          </creationInfo>
        </arrival>
        <arrival publicID="quakeml:local/arrival/20077/1316" ns0:sta="PTCC">
          <pickID>quakeml:local/pick/20077</pickID>
          <phase>S</phase>
          <azimuth>43.0</azimuth>
          <distance>0.3</distance>
          <timeResidual>0.01</timeResidual>
          <timeWeight>0.6</timeWeight>
          <earthModelID>quakeml:local/earthmodel/</earthModelID>
          <creationInfo>
            <creationTime>2021-03-02T10:13:39.017000Z</creationTime>
          </creationInfo>
        </arrival>
        <arrival publicID="quakeml:local/arrival/20078/1316" ns0:sta="MLN">
          <pickID>quakeml:local/pick/20078</pickID>
          <phase>P</phase>
          <azimuth>264.0</azimuth>
          <distance>0.31</distance>
          <timeResidual>0.36</timeResidual>
          <timeWeight>1.7</timeWeight>
          <earthModelID>quakeml:local/earthmodel/</earthModelID>
          <creationInfo>
            <creationTime>2021-03-02T10:13:39.112000Z</creationTime>
          </creationInfo>
        </arrival>
        <arrival publicID="quakeml:local/arrival/20079/1316" ns0:sta="MLN">
          <pickID>quakeml:local/pick/20079</pickID>
          <phase>S</phase>
          <azimuth>264.0</azimuth>
          <distance>0.31</distance>
          <timeResidual>0.49</timeResidual>
          <timeWeight>0.6</timeWeight>
          <earthModelID>quakeml:local/earthmodel/</earthModelID>
          <creationInfo>
            <creationTime>2021-03-02T10:13:39.142000Z</creationTime>
          </creationInfo>
        </arrival>
        <arrival publicID="quakeml:local/arrival/20080/1316" ns0:sta="ROBS">
          <pickID>quakeml:local/pick/20080</pickID>
          <phase>P</phase>
          <azimuth>79.0</azimuth>
          <distance>0.318</distance>
          <timeResidual>-0.03</timeResidual>
          <timeWeight>2.27</timeWeight>
          <earthModelID>quakeml:local/earthmodel/</earthModelID>
          <creationInfo>
            <creationTime>2021-03-02T10:13:39.209000Z</creationTime>
          </creationInfo>
        </arrival>
        <arrival publicID="quakeml:local/arrival/20081/1316" ns0:sta="ROBS">
          <pickID>quakeml:local/pick/20081</pickID>
          <phase>S</phase>
          <azimuth>79.0</azimuth>
          <distance>0.318</distance>
          <timeResidual>0.06</timeResidual>
          <timeWeight>1.1</timeWeight>
          <earthModelID>quakeml:local/earthmodel/</earthModelID>
          <creationInfo>
            <creationTime>2021-03-02T10:13:39.239000Z</creationTime>
          </creationInfo>
        </arrival>
        <arrival publicID="quakeml:local/arrival/20082/1316" ns0:sta="PURA">
          <pickID>quakeml:local/pick/20082</pickID>
          <phase>P</phase>
          <azimuth>317.0</azimuth>
          <distance>0.326</distance>
          <timeResidual>-0.07</timeResidual>
          <timeWeight>1.7</timeWeight>
          <earthModelID>quakeml:local/earthmodel/</earthModelID>
          <creationInfo>
            <creationTime>2021-03-02T10:13:39.300000Z</creationTime>
          </creationInfo>
        </arrival>
        <arrival publicID="quakeml:local/arrival/20083/1316" ns0:sta="PURA">
          <pickID>quakeml:local/pick/20083</pickID>
          <phase>S</phase>
          <azimuth>317.0</azimuth>
          <distance>0.326</distance>
          <timeResidual>0.37</timeResidual>
          <timeWeight>1.1</timeWeight>
          <earthModelID>quakeml:local/earthmodel/</earthModelID>
          <creationInfo>
            <creationTime>2021-03-02T10:13:39.330000Z</creationTime>
          </creationInfo>
        </arrival>
        <arrival publicID="quakeml:local/arrival/20084/1316" ns0:sta="MORT">
          <pickID>quakeml:local/pick/20084</pickID>
          <phase>P</phase>
          <azimuth>311.0</azimuth>
          <distance>0.326</distance>
          <timeResidual>-0.29</timeResidual>
          <timeWeight>1.7</timeWeight>
          <earthModelID>quakeml:local/earthmodel/</earthModelID>
          <creationInfo>
            <creationTime>2021-03-02T10:13:39.359000Z</creationTime>
          </creationInfo>
        </arrival>
        <arrival publicID="quakeml:local/arrival/20085/1316" ns0:sta="MORT">
          <pickID>quakeml:local/pick/20085</pickID>
          <phase>S</phase>
          <azimuth>311.0</azimuth>
          <distance>0.326</distance>
          <timeResidual>0.34</timeResidual>
          <timeWeight>0.6</timeWeight>
          <earthModelID>quakeml:local/earthmodel/</earthModelID>
          <creationInfo>
            <creationTime>2021-03-02T10:13:39.387000Z</creationTime>
          </creationInfo>
        </arrival>
        <arrival publicID="quakeml:local/arrival/20086/1316" ns0:sta="PLRO">
          <pickID>quakeml:local/pick/20086</pickID>
          <phase>P</phase>
          <azimuth>10.0</azimuth>
          <distance>0.37</distance>
          <timeResidual>0.02</timeResidual>
          <timeWeight>1.13</timeWeight>
          <earthModelID>quakeml:local/earthmodel/</earthModelID>
          <creationInfo>
            <creationTime>2021-03-02T10:13:39.449000Z</creationTime>
          </creationInfo>
        </arrival>
        <arrival publicID="quakeml:local/arrival/20087/1316" ns0:sta="PLRO">
          <pickID>quakeml:local/pick/20087</pickID>
          <phase>S</phase>
          <azimuth>10.0</azimuth>
          <distance>0.37</distance>
          <timeResidual>0.59</timeResidual>
          <timeWeight>0.6</timeWeight>
          <earthModelID>quakeml:local/earthmodel/</earthModelID>
          <creationInfo>
            <creationTime>2021-03-02T10:13:39.479000Z</creationTime>
          </creationInfo>
        </arrival>
        <arrival publicID="quakeml:local/arrival/20088/1316" ns0:sta="ZOU2">
          <pickID>quakeml:local/pick/20088</pickID>
          <phase>P</phase>
          <azimuth>351.0</azimuth>
          <distance>0.378</distance>
          <timeResidual>0.18</timeResidual>
          <timeWeight>1.69</timeWeight>
          <earthModelID>quakeml:local/earthmodel/</earthModelID>
          <creationInfo>
            <creationTime>2021-03-02T10:13:39.540000Z</creationTime>
          </creationInfo>
        </arrival>
        <arrival publicID="quakeml:local/arrival/20089/1316" ns0:sta="ZOU2">
          <pickID>quakeml:local/pick/20089</pickID>
          <phase>S</phase>
          <azimuth>351.0</azimuth>
          <distance>0.378</distance>
          <timeResidual>0.53</timeResidual>
          <timeWeight>0.6</timeWeight>
          <earthModelID>quakeml:local/earthmodel/</earthModelID>
          <creationInfo>
            <creationTime>2021-03-02T10:13:39.570000Z</creationTime>
          </creationInfo>
        </arrival>
        <arrival publicID="quakeml:local/arrival/20090/1316" ns0:sta="POLC">
          <pickID>quakeml:local/pick/20090</pickID>
          <phase>P</phase>
          <azimuth>248.0</azimuth>
          <distance>0.419</distance>
          <timeResidual>0.53</timeResidual>
          <timeWeight>1.67</timeWeight>
          <earthModelID>quakeml:local/earthmodel/</earthModelID>
          <creationInfo>
            <creationTime>2021-03-02T10:13:39.631000Z</creationTime>
          </creationInfo>
        </arrival>
        <arrival publicID="quakeml:local/arrival/20091/1316" ns0:sta="CSM">
          <pickID>quakeml:local/pick/20091</pickID>
          <phase>P</phase>
          <azimuth>319.0</azimuth>
          <distance>0.432</distance>
          <timeResidual>-0.1</timeResidual>
          <timeWeight>1.11</timeWeight>
          <earthModelID>quakeml:local/earthmodel/</earthModelID>
          <creationInfo>
            <creationTime>2021-03-02T10:13:39.694000Z</creationTime>
          </creationInfo>
        </arrival>
        <arrival publicID="quakeml:local/arrival/20092/1316" ns0:sta="CSM">
          <pickID>quakeml:local/pick/20092</pickID>
          <phase>S</phase>
          <azimuth>319.0</azimuth>
          <distance>0.432</distance>
