<?xml version='1.0' encoding='utf-8'?>
<q:quakeml xmlns="http://quakeml.org/xmlns/bed/1.2" xmlns:q="http://quakeml.org/xmlns/quakeml/1.2" xmlns:ns0="http://rts.crs.inogs.it/xmlns/ogs/0.1" xmlns:ns1="http://rts.crs.inogs.it/xmlns/catalogo/0.1">
  <eventParameters publicID="smi:local/19fdd10d-5e84-41dc-8c6b-57d3a5716fc0">
    <event publicID="quakeml:local/event/00001373" ns1:datasource="ogs" ns1:eventid="1373" ns1:eventsource="ogs">
      <preferredOriginID>quakeml:local/origin/1373</preferredOriginID>
      <preferredMagnitudeID>quakeml:local/magnitude/2501</preferredMagnitudeID>
      <type>earthquake</type>
      <creationInfo>
        <agencyID>ogs</agencyID>
        <author>Antelope event2qml process</author>
        <creationTime>2021-03-02T10:14:40.848000Z</creationTime>
        <version>1614680080</version>
      </creationInfo>
      <origin publicID="quakeml:local/origin/1373" ns1:datasource="ogs" ns1:dataid="1373">
        <time>
          <value>2019-08-13T19:58:44.760000Z</value>
        </time>
        <latitude>
          <value>46.3405</value>
          <uncertainty>0.00271247739602</uncertainty>
        </latitude>
        <longitude>
          <value>12.764</value>
          <uncertainty>0.00391017094408</uncertainty>
        </longitude>
        <depth>
          <value>11400.0</value>
          <uncertainty>500.0</uncertainty>
        </depth>
        <quality>
          <associatedPhaseCount>64</associatedPhaseCount>
          <usedPhaseCount>64</usedPhaseCount>
          <standardError>0.2</standardError>
        </quality>
        <type>hypocenter</type>
        <evaluationMode>manual</evaluationMode>
        <evaluationStatus>reviewed</evaluationStatus>
        <comment>
          <text>algorithm: hypo71</text>
        </comment>
        <creationInfo>
          <author>ogsbulletin</author>
          <version>1614680080.8</version>
        </creationInfo>
        <originUncertainty>
          <preferredDescription>horizontal uncertainty</preferredDescription>
          <minHorizontalUncertainty>300.0</minHorizontalUncertainty>
          <maxHorizontalUncertainty>300.0</maxHorizontalUncertainty>
          <azimuthMaxHorizontalUncertainty>0.0</azimuthMaxHorizontalUncertainty>
        </originUncertainty>
        <arrival publicID="quakeml:local/arrival/20883/1373" ns0:sta="MORT">
          <pickID>quakeml:local/pick/20883</pickID>
          <phase>P</phase>
          <azimuth>323.0</azimuth>
          <distance>0.072</distance>
          <timeResidual>0.09</timeResidual>
          <timeWeight>2.78</timeWeight>
          <earthModelID>quakeml:local/earthmodel/</earthModelID>
          <creationInfo>
            <creationTime>2021-03-02T10:14:40.998000Z</creationTime>
          </creationInfo>
        </arrival>
        <arrival publicID="quakeml:local/arrival/20884/1373" ns0:sta="MORT">
          <pickID>quakeml:local/pick/20884</pickID>
          <phase>S</phase>
          <azimuth>323.0</azimuth>
          <distance>0.072</distance>
          <timeResidual>-0.15</timeResidual>
          <timeWeight>1.4</timeWeight>
          <earthModelID>quakeml:local/earthmodel/</earthModelID>
          <creationInfo>
            <creationTime>2021-03-02T10:14:41.040000Z</creationTime>
          </creationInfo>
        </arrival>
        <arrival publicID="quakeml:local/arrival/20885/1373" ns0:sta="PURA">
          <pickID>quakeml:local/pick/20885</pickID>
          <phase>P</phase>
          <azimuth>348.0</azimuth>
          <distance>0.085</distance>
          <timeResidual>0.24</timeResidual>
          <timeWeight>2.78</timeWeight>
          <earthModelID>quakeml:local/earthmodel/</earthModelID>
          <creationInfo>
            <creationTime>2021-03-02T10:14:41.172000Z</creationTime>
          </creationInfo>
        </arrival>
        <arrival publicID="quakeml:local/arrival/20886/1373" ns0:sta="PURA">
          <pickID>quakeml:local/pick/20886</pickID>
          <phase>S</phase>
          <azimuth>348.0</azimuth>
          <distance>0.085</distance>
          <timeResidual>0.01</timeResidual>
          <timeWeight>1.4</timeWeight>
          <earthModelID>quakeml:local/earthmodel/</earthModelID>
          <creationInfo>
            <creationTime>2021-03-02T10:14:41.205000Z</creationTime>
          </creationInfo>
        </arrival>
        <arrival publicID="quakeml:local/arrival/20887/1373" ns0:sta="STAL">
          <pickID>quakeml:local/pick/20887</pickID>
          <phase>P</phase>
          <azimuth>205.0</azimuth>
          <distance>0.088</distance>
          <timeResidual>0.13</timeResidual>
          <timeWeight>2.26</timeWeight>
          <earthModelID>quakeml:local/earthmodel/</earthModelID>
          <creationInfo>
            <creationTime>2021-03-02T10:14:41.274000Z</creationTime>
          </creationInfo>
        </arrival>
        <arrival publicID="quakeml:local/arrival/20888/1373" ns0:sta="STAL">
          <pickID>quakeml:local/pick/20888</pickID>
          <phase>S</phase>
          <azimuth>205.0</azimuth>
          <distance>0.088</distance>
          <timeResidual>-0.01</timeResidual>
          <timeWeight>1.1</timeWeight>
          <earthModelID>quakeml:local/earthmodel/</earthModelID>
          <creationInfo>
            <creationTime>2021-03-02T10:14:41.308000Z</creationTime>
          </creationInfo>
        </arrival>
        <arrival publicID="quakeml:local/arrival/20889/1373" ns0:sta="CLUD">
          <pickID>quakeml:local/pick/20889</pickID>
          <phase>P</phase>
          <azimuth>35.0</azimuth>
          <distance>0.142</distance>
          <timeResidual>0.03</timeResidual>
          <timeWeight>2.41</timeWeight>
          <earthModelID>quakeml:local/earthmodel/</earthModelID>
          <creationInfo>
            <creationTime>2021-03-02T10:14:41.417000Z</creationTime>
          </creationInfo>
        </arrival>
        <arrival publicID="quakeml:local/arrival/20890/1373" ns0:sta="CLUD">
          <pickID>quakeml:local/pick/20890</pickID>
          <phase>S</phase>
          <azimuth>35.0</azimuth>
          <distance>0.142</distance>
          <timeResidual>-0.12</timeResidual>
          <timeWeight>1.2</timeWeight>
          <earthModelID>quakeml:local/earthmodel/</earthModelID>
          <creationInfo>
            <creationTime>2021-03-02T10:14:41.451000Z</creationTime>
          </creationInfo>
        </arrival>
        <arrival publicID="quakeml:local/arrival/20891/1373" ns0:sta="FUSE">
          <pickID>quakeml:local/pick/20891</pickID>
          <phase>P</phase>
          <azimuth>66.0</azimuth>
          <distance>0.18</distance>
          <timeResidual>0.13</timeResidual>
          <timeWeight>1.21</timeWeight>
          <earthModelID>quakeml:local/earthmodel/</earthModelID>
          <creationInfo>
            <creationTime>2021-03-02T10:14:41.554000Z</creationTime>
          </creationInfo>
        </arrival>
        <arrival publicID="quakeml:local/arrival/20892/1373" ns0:sta="FUSE">
          <pickID>quakeml:local/pick/20892</pickID>
          <phase>S</phase>
          <azimuth>66.0</azimuth>
          <distance>0.18</distance>
          <timeResidual>0.04</timeResidual>
          <timeWeight>1.2</timeWeight>
          <earthModelID>quakeml:local/earthmodel/</earthModelID>
          <creationInfo>
            <creationTime>2021-03-02T10:14:41.588000Z</creationTime>
          </creationInfo>
        </arrival>
        <arrival publicID="quakeml:local/arrival/20893/1373" ns0:sta="MPRI">
          <pickID>quakeml:local/pick/20893</pickID>
          <phase>P</phase>
          <azimuth>123.0</azimuth>
          <distance>0.184</distance>
          <timeResidual>0.16</timeResidual>
          <timeWeight>1.36</timeWeight>
          <earthModelID>quakeml:local/earthmodel/</earthModelID>
          <creationInfo>
            <creationTime>2021-03-02T10:14:41.696000Z</creationTime>
          </creationInfo>
        </arrival>
        <arrival publicID="quakeml:local/arrival/20894/1373" ns0:sta="MPRI">
          <pickID>quakeml:local/pick/20894</pickID>
          <phase>S</phase>
          <azimuth>123.0</azimuth>
          <distance>0.184</distance>
          <timeResidual>-0.01</timeResidual>
          <timeWeight>0.5</timeWeight>
          <earthModelID>quakeml:local/earthmodel/</earthModelID>
          <creationInfo>
            <creationTime>2021-03-02T10:14:41.731000Z</creationTime>
          </creationInfo>
        </arrival>
        <arrival publicID="quakeml:local/arrival/20895/1373" ns0:sta="CSM">
          <pickID>quakeml:local/pick/20895</pickID>
          <phase>P</phase>
          <azimuth>336.0</azimuth>
          <distance>0.188</distance>
          <timeResidual>0.14</timeResidual>
          <timeWeight>1.39</timeWeight>
          <earthModelID>quakeml:local/earthmodel/</earthModelID>
          <creationInfo>
            <creationTime>2021-03-02T10:14:41.799000Z</creationTime>
          </creationInfo>
        </arrival>
        <arrival publicID="quakeml:local/arrival/20896/1373" ns0:sta="CSM">
          <pickID>quakeml:local/pick/20896</pickID>
          <phase>S</phase>
          <azimuth>336.0</azimuth>
          <distance>0.188</distance>
          <timeResidual>-0.35</timeResidual>
          <timeWeight>1.4</timeWeight>
          <earthModelID>quakeml:local/earthmodel/</earthModelID>
          <creationInfo>
            <creationTime>2021-03-02T10:14:41.833000Z</creationTime>
          </creationInfo>
        </arrival>
        <arrival publicID="quakeml:local/arrival/20897/1373" ns0:sta="MLN">
          <pickID>quakeml:local/pick/20897</pickID>
          <phase>P</phase>
          <azimuth>209.0</azimuth>
          <distance>0.217</distance>
          <timeResidual>-0.02</timeResidual>
          <timeWeight>1.13</timeWeight>
          <earthModelID>quakeml:local/earthmodel/</earthModelID>
          <creationInfo>
            <creationTime>2021-03-02T10:14:41.902000Z</creationTime>
          </creationInfo>
        </arrival>
        <arrival publicID="quakeml:local/arrival/20898/1373" ns0:sta="MLN">
          <pickID>quakeml:local/pick/20898</pickID>
          <phase>S</phase>
          <azimuth>209.0</azimuth>
          <distance>0.217</distance>
          <timeResidual>0.29</timeResidual>
          <timeWeight>0.6</timeWeight>
          <earthModelID>quakeml:local/earthmodel/</earthModelID>
          <creationInfo>
            <creationTime>2021-03-02T10:14:41.936000Z</creationTime>
          </creationInfo>
        </arrival>
        <arrival publicID="quakeml:local/arrival/20899/1373" ns0:sta="CIMO">
          <pickID>quakeml:local/pick/20899</pickID>
          <phase>P</phase>
          <azimuth>263.0</azimuth>
          <distance>0.223</distance>
          <timeResidual>-0.34</timeResidual>
          <timeWeight>2.78</timeWeight>
          <earthModelID>quakeml:local/earthmodel/</earthModelID>
          <creationInfo>
            <creationTime>2021-03-02T10:14:42.039000Z</creationTime>
          </creationInfo>
        </arrival>
        <arrival publicID="quakeml:local/arrival/20900/1373" ns0:sta="CIMO">
          <pickID>quakeml:local/pick/20900</pickID>
          <phase>S</phase>
          <azimuth>263.0</azimuth>
          <distance>0.223</distance>
          <timeResidual>-0.56</timeResidual>
          <timeWeight>0.7</timeWeight>
          <earthModelID>quakeml:local/earthmodel/</earthModelID>
          <creationInfo>
            <creationTime>2021-03-02T10:14:42.073000Z</creationTime>
          </creationInfo>
        </arrival>
        <arrival publicID="quakeml:local/arrival/20901/1373" ns0:sta="BOO">
          <pickID>quakeml:local/pick/20901</pickID>
          <phase>P</phase>
          <azimuth>95.0</azimuth>
          <distance>0.232</distance>
          <timeResidual>-0.1</timeResidual>
          <timeWeight>1.81</timeWeight>
          <earthModelID>quakeml:local/earthmodel/</earthModelID>
          <creationInfo>
            <creationTime>2021-03-02T10:14:42.176000Z</creationTime>
          </creationInfo>
        </arrival>
        <arrival publicID="quakeml:local/arrival/20902/1373" ns0:sta="BOO">
          <pickID>quakeml:local/pick/20902</pickID>
          <phase>S</phase>
          <azimuth>95.0</azimuth>
          <distance>0.232</distance>
          <timeResidual>-0.4</timeResidual>
          <timeWeight>0.9</timeWeight>
          <earthModelID>quakeml:local/earthmodel/</earthModelID>
          <creationInfo>
            <creationTime>2021-03-02T10:14:42.210000Z</creationTime>
          </creationInfo>
        </arrival>
        <arrival publicID="quakeml:local/arrival/20903/1373" ns0:sta="FVI">
          <pickID>quakeml:local/pick/20903</pickID>
          <phase>P</phase>
          <azimuth>3.0</azimuth>
          <distance>0.256</distance>
          <timeResidual>0.1</timeResidual>
          <timeWeight>1.81</timeWeight>
          <earthModelID>quakeml:local/earthmodel/</earthModelID>
          <creationInfo>
            <creationTime>2021-03-02T10:14:42.278000Z</creationTime>
          </creationInfo>
        </arrival>
        <arrival publicID="quakeml:local/arrival/20904/1373" ns0:sta="FVI">
          <pickID>quakeml:local/pick/20904</pickID>
          <phase>S</phase>
          <azimuth>3.0</azimuth>
          <distance>0.256</distance>
          <timeResidual>-0.17</timeResidual>
          <timeWeight>1.2</timeWeight>
          <earthModelID>quakeml:local/earthmodel/</earthModelID>
          <creationInfo>
            <creationTime>2021-03-02T10:14:42.313000Z</creationTime>
          </creationInfo>
        </arrival>
        <arrival publicID="quakeml:local/arrival/20905/1373" ns0:sta="ZOU2">
          <pickID>quakeml:local/pick/20905</pickID>
          <phase>P</phase>
          <azimuth>34.0</azimuth>
          <distance>0.261</distance>
          <timeResidual>0.23</timeResidual>
          <timeWeight>2.41</timeWeight>
          <earthModelID>quakeml:local/earthmodel/</earthModelID>
          <creationInfo>
            <creationTime>2021-03-02T10:14:42.415000Z</creationTime>
          </creationInfo>
        </arrival>
        <arrival publicID="quakeml:local/arrival/20906/1373" ns0:sta="ZOU2">
          <pickID>quakeml:local/pick/20906</pickID>
          <phase>S</phase>
          <azimuth>34.0</azimuth>
          <distance>0.261</distance>
          <timeResidual>0.19</timeResidual>
          <timeWeight>1.2</timeWeight>
          <earthModelID>quakeml:local/earthmodel/</earthModelID>
          <creationInfo>
            <creationTime>2021-03-02T10:14:42.449000Z</creationTime>
          </creationInfo>
        </arrival>
        <arrival publicID="quakeml:local/arrival/20907/1373" ns0:sta="GEPF">
          <pickID>quakeml:local/pick/20907</pickID>
          <phase>P</phase>
          <azimuth>105.0</azimuth>
          <distance>0.268</distance>
          <timeResidual>-0.06</timeResidual>
          <timeWeight>0.9</timeWeight>
          <earthModelID>quakeml:local/earthmodel/</earthModelID>
          <creationInfo>
            <creationTime>2021-03-02T10:14:42.518000Z</creationTime>
          </creationInfo>
        </arrival>
        <arrival publicID="quakeml:local/arrival/20908/1373" ns0:sta="GEPF">
          <pickID>quakeml:local/pick/20908</pickID>
          <phase>S</phase>
          <azimuth>105.0</azimuth>
          <distance>0.268</distance>
          <timeResidual>0.03</timeResidual>
          <timeWeight>0.9</timeWeight>
          <earthModelID>quakeml:local/earthmodel/</earthModelID>
          <creationInfo>
            <creationTime>2021-03-02T10:14:42.552000Z</creationTime>
          </creationInfo>
        </arrival>
        <arrival publicID="quakeml:local/arrival/20909/1373" ns0:sta="BUA">
          <pickID>quakeml:local/pick/20909</pickID>
          <phase>P</phase>
          <azimuth>116.0</azimuth>
          <distance>0.278</distance>
          <timeResidual>0.02</timeResidual>
          <timeWeight>1.36</timeWeight>
          <earthModelID>quakeml:local/earthmodel/</earthModelID>
          <creationInfo>
            <creationTime>2021-03-02T10:14:42.655000Z</creationTime>
          </creationInfo>
        </arrival>
        <arrival publicID="quakeml:local/arrival/20910/1373" ns0:sta="BUA">
          <pickID>quakeml:local/pick/20910</pickID>
          <phase>S</phase>
          <azimuth>116.0</azimuth>
          <distance>0.278</distance>
          <timeResidual>0.2</timeResidual>
          <timeWeight>0.5</timeWeight>
          <earthModelID>quakeml:local/earthmodel/</earthModelID>
          <creationInfo>
            <creationTime>2021-03-02T10:14:42.695000Z</creationTime>
          </creationInfo>
        </arrival>
        <arrival publicID="quakeml:local/arrival/20911/1373" ns0:sta="CSO">
          <pickID>quakeml:local/pick/20911</pickID>
          <phase>P</phase>
          <azimuth>258.0</azimuth>
          <distance>0.312</distance>
          <timeResidual>-0.41</timeResidual>
          <timeWeight>0.57</timeWeight>
          <earthModelID>quakeml:local/earthmodel/</earthModelID>
          <creationInfo>
            <creationTime>2021-03-02T10:14:42.794000Z</creationTime>
          </creationInfo>
        </arrival>
        <arrival publicID="quakeml:local/arrival/20912/1373" ns0:sta="CSO">
          <pickID>quakeml:local/pick/20912</pickID>
          <phase>S</phase>
          <azimuth>258.0</azimuth>
          <distance>0.312</distance>
          <timeResidual>-0.26</timeResidual>
          <timeWeight>0.6</timeWeight>
          <earthModelID>quakeml:local/earthmodel/</earthModelID>
          <creationInfo>
            <creationTime>2021-03-02T10:14:42.826000Z</creationTime>
          </creationInfo>
        </arrival>
        <arrival publicID="quakeml:local/arrival/20913/1373" ns0:sta="APGO">
          <pickID>quakeml:local/pick/20913</pickID>
          <phase>P</phase>
          <azimuth>236.0</azimuth>
          <distance>0.336</distance>
          <timeResidual>-0.13</timeResidual>
          <timeWeight>1.13</timeWeight>
          <earthModelID>quakeml:local/earthmodel/</earthModelID>
          <creationInfo>
            <creationTime>2021-03-02T10:14:42.860000Z</creationTime>
          </creationInfo>
        </arrival>
        <arrival publicID="quakeml:local/arrival/20914/1373" ns0:sta="APGO">
          <pickID>quakeml:local/pick/20914</pickID>
          <phase>S</phase>
          <azimuth>236.0</azimuth>
          <distance>0.336</distance>
          <timeResidual>0.09</timeResidual>
          <timeWeight>1.1</timeWeight>
          <earthModelID>quakeml:local/earthmodel/</earthModelID>
          <creationInfo>
            <creationTime>2021-03-02T10:14:42.895000Z</creationTime>
          </creationInfo>
        </arrival>
        <arrival publicID="quakeml:local/arrival/20915/1373" ns0:sta="PLRO">
          <pickID>quakeml:local/pick/20915</pickID>
          <phase>P</phase>
          <azimuth>52.0</azimuth>
          <distance>0.337</distance>
          <timeResidual>0.17</timeResidual>
          <timeWeight>0.6</timeWeight>
          <earthModelID>quakeml:local/earthmodel/</earthModelID>
          <creationInfo>
            <creationTime>2021-03-02T10:14:42.997000Z</creationTime>
          </creationInfo>
        </arrival>
        <arrival publicID="quakeml:local/arrival/20916/1373" ns0:sta="PLRO">
          <pickID>quakeml:local/pick/20916</pickID>
          <phase>S</phase>
          <azimuth>52.0</azimuth>
          <distance>0.337</distance>
          <timeResidual>0.15</timeResidual>
          <timeWeight>1.2</timeWeight>
          <earthModelID>quakeml:local/earthmodel/</earthModelID>
          <creationInfo>
            <creationTime>2021-03-02T10:14:43.032000Z</creationTime>
          </creationInfo>
        </arrival>
        <arrival publicID="quakeml:local/arrival/20917/1373" ns0:sta="BAD">
          <pickID>quakeml:local/pick/20917</pickID>
          <phase>P</phase>
          <azimuth>108.0</azimuth>
          <distance>0.349</distance>
