<?xml version='1.0' encoding='utf-8'?>
<q:quakeml xmlns="http://quakeml.org/xmlns/bed/1.2" xmlns:q="http://quakeml.org/xmlns/quakeml/1.2" xmlns:ns0="http://rts.crs.inogs.it/xmlns/ogs/0.1" xmlns:ns1="http://rts.crs.inogs.it/xmlns/catalogo/0.1">
  <eventParameters publicID="smi:local/6a38abbd-7402-4e91-a9d7-203389600114">
    <event publicID="quakeml:local/event/00001314" ns1:datasource="ogs" ns1:eventid="1314" ns1:eventsource="ogs">
      <preferredOriginID>quakeml:local/origin/1314</preferredOriginID>
      <preferredMagnitudeID>quakeml:local/magnitude/2397</preferredMagnitudeID>
      <type>earthquake</type>
      <creationInfo>
        <agencyID>ogs</agencyID>
        <author>Antelope event2qml process</author>
        <creationTime>2021-03-02T10:13:31.055000Z</creationTime>
        <version>1614680011</version>
      </creationInfo>
      <origin publicID="quakeml:local/origin/1314" ns1:datasource="ogs" ns1:dataid="1314">
        <time>
          <value>2019-07-28T15:56:01.620000Z</value>
        </time>
        <latitude>
          <value>46.2095</value>
          <uncertainty>0.00361663652803</uncertainty>
        </latitude>
        <longitude>
          <value>12.738</value>
          <uncertainty>0.00520111325797</uncertainty>
        </longitude>
        <depth>
          <value>16160.0</value>
          <uncertainty>600.0</uncertainty>
        </depth>
        <quality>
          <associatedPhaseCount>60</associatedPhaseCount>
          <usedPhaseCount>60</usedPhaseCount>
          <standardError>0.23</standardError>
        </quality>
        <type>hypocenter</type>
        <evaluationMode>manual</evaluationMode>
        <evaluationStatus>reviewed</evaluationStatus>
        <comment>
          <text>algorithm: hypo71</text>
        </comment>
        <creationInfo>
          <author>ogsbulletin</author>
          <version>1614680011.01</version>
        </creationInfo>
        <originUncertainty>
          <preferredDescription>horizontal uncertainty</preferredDescription>
          <minHorizontalUncertainty>400.0</minHorizontalUncertainty>
          <maxHorizontalUncertainty>400.0</maxHorizontalUncertainty>
          <azimuthMaxHorizontalUncertainty>0.0</azimuthMaxHorizontalUncertainty>
        </originUncertainty>
        <arrival publicID="quakeml:local/arrival/19953/1314" ns0:sta="MLN">
          <pickID>quakeml:local/pick/19953</pickID>
          <phase>P</phase>
          <azimuth>235.0</azimuth>
          <distance>0.104</distance>
          <timeResidual>-0.09</timeResidual>
          <timeWeight>2.34</timeWeight>
          <earthModelID>quakeml:local/earthmodel/</earthModelID>
          <creationInfo>
            <creationTime>2021-03-02T10:13:31.341000Z</creationTime>
          </creationInfo>
        </arrival>
        <arrival publicID="quakeml:local/arrival/19954/1314" ns0:sta="MLN">
          <pickID>quakeml:local/pick/19954</pickID>
          <phase>S</phase>
          <azimuth>235.0</azimuth>
          <distance>0.104</distance>
          <timeResidual>-0.07</timeResidual>
          <timeWeight>1.2</timeWeight>
          <earthModelID>quakeml:local/earthmodel/</earthModelID>
          <creationInfo>
            <creationTime>2021-03-02T10:13:31.381000Z</creationTime>
          </creationInfo>
        </arrival>
        <arrival publicID="quakeml:local/arrival/19955/1314" ns0:sta="MPRI">
          <pickID>quakeml:local/pick/19955</pickID>
          <phase>P</phase>
          <azimuth>80.0</azimuth>
          <distance>0.175</distance>
          <timeResidual>0.13</timeResidual>
          <timeWeight>0.99</timeWeight>
          <earthModelID>quakeml:local/earthmodel/</earthModelID>
          <creationInfo>
            <creationTime>2021-03-02T10:13:31.478000Z</creationTime>
          </creationInfo>
        </arrival>
        <arrival publicID="quakeml:local/arrival/19956/1314" ns0:sta="MPRI">
          <pickID>quakeml:local/pick/19956</pickID>
          <phase>S</phase>
          <azimuth>80.0</azimuth>
          <distance>0.175</distance>
          <timeResidual>0.2</timeResidual>
          <timeWeight>0.7</timeWeight>
          <earthModelID>quakeml:local/earthmodel/</earthModelID>
          <creationInfo>
            <creationTime>2021-03-02T10:13:31.506000Z</creationTime>
          </creationInfo>
        </arrival>
        <arrival publicID="quakeml:local/arrival/19957/1314" ns0:sta="MORT">
          <pickID>quakeml:local/pick/19957</pickID>
          <phase>P</phase>
          <azimuth>352.0</azimuth>
          <distance>0.19</distance>
          <timeResidual>-0.08</timeResidual>
          <timeWeight>1.52</timeWeight>
          <earthModelID>quakeml:local/earthmodel/</earthModelID>
          <creationInfo>
            <creationTime>2021-03-02T10:13:31.535000Z</creationTime>
          </creationInfo>
        </arrival>
        <arrival publicID="quakeml:local/arrival/19958/1314" ns0:sta="MORT">
          <pickID>quakeml:local/pick/19958</pickID>
          <phase>S</phase>
          <azimuth>352.0</azimuth>
          <distance>0.19</distance>
          <timeResidual>-0.24</timeResidual>
          <timeWeight>1.0</timeWeight>
          <earthModelID>quakeml:local/earthmodel/</earthModelID>
          <creationInfo>
            <creationTime>2021-03-02T10:13:31.563000Z</creationTime>
          </creationInfo>
        </arrival>
        <arrival publicID="quakeml:local/arrival/19959/1314" ns0:sta="PURA">
          <pickID>quakeml:local/pick/19959</pickID>
          <phase>P</phase>
          <timeWeight>1.32</timeWeight>
          <earthModelID>quakeml:local/earthmodel/</earthModelID>
          <creationInfo>
            <creationTime>2021-03-02T10:13:31.592000Z</creationTime>
          </creationInfo>
        </arrival>
        <arrival publicID="quakeml:local/arrival/19960/1314" ns0:sta="PURA">
          <pickID>quakeml:local/pick/19960</pickID>
          <phase>S</phase>
          <timeWeight>0.7</timeWeight>
          <earthModelID>quakeml:local/earthmodel/</earthModelID>
          <creationInfo>
            <creationTime>2021-03-02T10:13:31.620000Z</creationTime>
          </creationInfo>
        </arrival>
        <arrival publicID="quakeml:local/arrival/19961/1314" ns0:sta="CIMO">
          <pickID>quakeml:local/pick/19961</pickID>
          <phase>P</phase>
          <azimuth>297.0</azimuth>
          <distance>0.228</distance>
          <timeResidual>-0.08</timeResidual>
          <timeWeight>2.03</timeWeight>
          <earthModelID>quakeml:local/earthmodel/</earthModelID>
          <creationInfo>
            <creationTime>2021-03-02T10:13:31.717000Z</creationTime>
          </creationInfo>
        </arrival>
        <arrival publicID="quakeml:local/arrival/19962/1314" ns0:sta="CIMO">
          <pickID>quakeml:local/pick/19962</pickID>
          <phase>S</phase>
          <azimuth>297.0</azimuth>
          <distance>0.228</distance>
          <timeResidual>-0.38</timeResidual>
          <timeWeight>1.0</timeWeight>
          <earthModelID>quakeml:local/earthmodel/</earthModelID>
          <creationInfo>
            <creationTime>2021-03-02T10:13:31.746000Z</creationTime>
          </creationInfo>
        </arrival>
        <arrival publicID="quakeml:local/arrival/19963/1314" ns0:sta="POLC">
          <pickID>quakeml:local/pick/19963</pickID>
          <phase>P</phase>
          <azimuth>222.0</azimuth>
          <distance>0.246</distance>
          <timeResidual>0.34</timeResidual>
          <timeWeight>1.75</timeWeight>
          <earthModelID>quakeml:local/earthmodel/</earthModelID>
          <creationInfo>
            <creationTime>2021-03-02T10:13:31.809000Z</creationTime>
          </creationInfo>
        </arrival>
        <arrival publicID="quakeml:local/arrival/19964/1314" ns0:sta="POLC">
          <pickID>quakeml:local/pick/19964</pickID>
          <phase>S</phase>
          <azimuth>222.0</azimuth>
          <distance>0.246</distance>
          <timeResidual>-0.11</timeResidual>
          <timeWeight>0.6</timeWeight>
          <earthModelID>quakeml:local/earthmodel/</earthModelID>
          <creationInfo>
            <creationTime>2021-03-02T10:13:31.837000Z</creationTime>
          </creationInfo>
        </arrival>
        <arrival publicID="quakeml:local/arrival/19965/1314" ns0:sta="CLUD">
          <pickID>quakeml:local/pick/19965</pickID>
          <phase>P</phase>
          <azimuth>22.0</azimuth>
          <distance>0.266</distance>
          <timeResidual>-0.09</timeResidual>
          <timeWeight>0.66</timeWeight>
          <earthModelID>quakeml:local/earthmodel/</earthModelID>
          <creationInfo>
            <creationTime>2021-03-02T10:13:31.934000Z</creationTime>
          </creationInfo>
        </arrival>
        <arrival publicID="quakeml:local/arrival/19966/1314" ns0:sta="CLUD">
          <pickID>quakeml:local/pick/19966</pickID>
          <phase>S</phase>
          <azimuth>22.0</azimuth>
          <distance>0.266</distance>
          <timeResidual>0.07</timeResidual>
          <timeWeight>0.7</timeWeight>
          <earthModelID>quakeml:local/earthmodel/</earthModelID>
          <creationInfo>
            <creationTime>2021-03-02T10:13:31.963000Z</creationTime>
          </creationInfo>
        </arrival>
        <arrival publicID="quakeml:local/arrival/19968/1314" ns0:sta="APGO">
          <pickID>quakeml:local/pick/19968</pickID>
          <phase>S</phase>
          <azimuth>257.0</azimuth>
          <distance>0.267</distance>
          <timeResidual>0.17</timeResidual>
          <timeWeight>1.2</timeWeight>
          <earthModelID>quakeml:local/earthmodel/</earthModelID>
          <creationInfo>
            <creationTime>2021-03-02T10:13:32.088000Z</creationTime>
          </creationInfo>
        </arrival>
        <arrival publicID="quakeml:local/arrival/19967/1314" ns0:sta="APGO">
          <pickID>quakeml:local/pick/19967</pickID>
          <phase>P</phase>
          <azimuth>257.0</azimuth>
          <distance>0.267</distance>
          <timeResidual>0.21</timeResidual>
          <timeWeight>2.34</timeWeight>
          <earthModelID>quakeml:local/earthmodel/</earthModelID>
          <creationInfo>
            <creationTime>2021-03-02T10:13:32.060000Z</creationTime>
          </creationInfo>
        </arrival>
        <arrival publicID="quakeml:local/arrival/19969/1314" ns0:sta="BUA">
          <pickID>quakeml:local/pick/19969</pickID>
          <phase>P</phase>
          <azimuth>88.0</azimuth>
          <distance>0.268</distance>
          <timeResidual>0.24</timeResidual>
          <timeWeight>3.38</timeWeight>
          <earthModelID>quakeml:local/earthmodel/</earthModelID>
          <creationInfo>
            <creationTime>2021-03-02T10:13:32.191000Z</creationTime>
          </creationInfo>
        </arrival>
        <arrival publicID="quakeml:local/arrival/19970/1314" ns0:sta="BUA">
          <pickID>quakeml:local/pick/19970</pickID>
          <phase>S</phase>
          <azimuth>88.0</azimuth>
          <distance>0.268</distance>
          <timeResidual>0.24</timeResidual>
          <timeWeight>0.8</timeWeight>
          <earthModelID>quakeml:local/earthmodel/</earthModelID>
          <creationInfo>
            <creationTime>2021-03-02T10:13:32.220000Z</creationTime>
          </creationInfo>
        </arrival>
        <arrival publicID="quakeml:local/arrival/19971/1314" ns0:sta="BOO">
          <pickID>quakeml:local/pick/19971</pickID>
          <phase>P</phase>
          <azimuth>66.0</azimuth>
          <distance>0.273</distance>
          <timeResidual>-0.07</timeResidual>
          <timeWeight>1.32</timeWeight>
          <earthModelID>quakeml:local/earthmodel/</earthModelID>
          <creationInfo>
            <creationTime>2021-03-02T10:13:32.317000Z</creationTime>
          </creationInfo>
        </arrival>
        <arrival publicID="quakeml:local/arrival/19972/1314" ns0:sta="BOO">
          <pickID>quakeml:local/pick/19972</pickID>
          <phase>S</phase>
          <azimuth>66.0</azimuth>
          <distance>0.273</distance>
          <timeResidual>-0.06</timeResidual>
          <timeWeight>0.7</timeWeight>
          <earthModelID>quakeml:local/earthmodel/</earthModelID>
          <creationInfo>
            <creationTime>2021-03-02T10:13:32.345000Z</creationTime>
          </creationInfo>
        </arrival>
        <arrival publicID="quakeml:local/arrival/19973/1314" ns0:sta="FUSE">
          <pickID>quakeml:local/pick/19973</pickID>
          <phase>P</phase>
          <azimuth>42.0</azimuth>
          <distance>0.274</distance>
          <timeResidual>-0.07</timeResidual>
          <timeWeight>1.32</timeWeight>
          <earthModelID>quakeml:local/earthmodel/</earthModelID>
          <creationInfo>
            <creationTime>2021-03-02T10:13:32.448000Z</creationTime>
          </creationInfo>
        </arrival>
        <arrival publicID="quakeml:local/arrival/19974/1314" ns0:sta="FUSE">
          <pickID>quakeml:local/pick/19974</pickID>
          <phase>S</phase>
          <azimuth>42.0</azimuth>
          <distance>0.274</distance>
          <timeResidual>-0.02</timeResidual>
          <timeWeight>0.7</timeWeight>
          <earthModelID>quakeml:local/earthmodel/</earthModelID>
          <creationInfo>
            <creationTime>2021-03-02T10:13:32.477000Z</creationTime>
          </creationInfo>
        </arrival>
        <arrival publicID="quakeml:local/arrival/19975/1314" ns0:sta="GEPF">
          <pickID>quakeml:local/pick/19975</pickID>
          <phase>P</phase>
          <azimuth>78.0</azimuth>
          <distance>0.284</distance>
          <timeResidual>0.18</timeResidual>
          <timeWeight>0.99</timeWeight>
          <earthModelID>quakeml:local/earthmodel/</earthModelID>
          <creationInfo>
            <creationTime>2021-03-02T10:13:32.539000Z</creationTime>
          </creationInfo>
        </arrival>
        <arrival publicID="quakeml:local/arrival/19976/1314" ns0:sta="GEPF">
          <pickID>quakeml:local/pick/19976</pickID>
          <phase>S</phase>
          <azimuth>78.0</azimuth>
          <distance>0.284</distance>
          <timeResidual>0.13</timeResidual>
          <timeWeight>0.7</timeWeight>
          <earthModelID>quakeml:local/earthmodel/</earthModelID>
          <creationInfo>
            <creationTime>2021-03-02T10:13:32.568000Z</creationTime>
          </creationInfo>
        </arrival>
        <arrival publicID="quakeml:local/arrival/19977/1314" ns0:sta="CAE">
          <pickID>quakeml:local/pick/19977</pickID>
          <phase>P</phase>
          <azimuth>226.0</azimuth>
          <distance>0.29</distance>
          <timeResidual>0.15</timeResidual>
          <timeWeight>2.34</timeWeight>
          <earthModelID>quakeml:local/earthmodel/</earthModelID>
          <creationInfo>
            <creationTime>2021-03-02T10:13:32.631000Z</creationTime>
          </creationInfo>
        </arrival>
        <arrival publicID="quakeml:local/arrival/19978/1314" ns0:sta="CAE">
          <pickID>quakeml:local/pick/19978</pickID>
          <phase>S</phase>
          <azimuth>226.0</azimuth>
          <distance>0.29</distance>
          <timeResidual>-0.2</timeResidual>
          <timeWeight>0.6</timeWeight>
          <earthModelID>quakeml:local/earthmodel/</earthModelID>
          <creationInfo>
            <creationTime>2021-03-02T10:13:32.659000Z</creationTime>
          </creationInfo>
        </arrival>
        <arrival publicID="quakeml:local/arrival/19979/1314" ns0:sta="CSO">
          <pickID>quakeml:local/pick/19979</pickID>
          <phase>P</phase>
          <azimuth>283.0</azimuth>
          <distance>0.294</distance>
          <timeResidual>-0.13</timeResidual>
          <timeWeight>1.52</timeWeight>
          <earthModelID>quakeml:local/earthmodel/</earthModelID>
          <creationInfo>
            <creationTime>2021-03-02T10:13:32.762000Z</creationTime>
          </creationInfo>
        </arrival>
        <arrival publicID="quakeml:local/arrival/19980/1314" ns0:sta="CSO">
          <pickID>quakeml:local/pick/19980</pickID>
          <phase>S</phase>
          <azimuth>283.0</azimuth>
          <distance>0.294</distance>
          <timeResidual>-0.23</timeResidual>
          <timeWeight>1.0</timeWeight>
          <earthModelID>quakeml:local/earthmodel/</earthModelID>
          <creationInfo>
            <creationTime>2021-03-02T10:13:32.791000Z</creationTime>
          </creationInfo>
        </arrival>
        <arrival publicID="quakeml:local/arrival/19981/1314" ns0:sta="CSM">
          <pickID>quakeml:local/pick/19981</pickID>
          <phase>P</phase>
          <azimuth>349.0</azimuth>
          <distance>0.308</distance>
          <timeResidual>0.26</timeResidual>
          <timeWeight>1.52</timeWeight>
          <earthModelID>quakeml:local/earthmodel/</earthModelID>
          <creationInfo>
            <creationTime>2021-03-02T10:13:32.870000Z</creationTime>
          </creationInfo>
        </arrival>
        <arrival publicID="quakeml:local/arrival/19982/1314" ns0:sta="CSM">
          <pickID>quakeml:local/pick/19982</pickID>
          <phase>S</phase>
          <azimuth>349.0</azimuth>
          <distance>0.308</distance>
          <timeResidual>0.11</timeResidual>
          <timeWeight>1.0</timeWeight>
          <earthModelID>quakeml:local/earthmodel/</earthModelID>
          <creationInfo>
            <creationTime>2021-03-02T10:13:32.899000Z</creationTime>
          </creationInfo>
        </arrival>
        <arrival publicID="quakeml:local/arrival/19983/1314" ns0:sta="BAD">
          <pickID>quakeml:local/pick/19983</pickID>
          <phase>P</phase>
          <azimuth>86.0</azimuth>
          <distance>0.352</distance>
          <timeResidual>-0.16</timeResidual>
          <timeWeight>2.53</timeWeight>
          <earthModelID>quakeml:local/earthmodel/</earthModelID>
          <creationInfo>
            <creationTime>2021-03-02T10:13:32.967000Z</creationTime>
          </creationInfo>
        </arrival>
        <arrival publicID="quakeml:local/arrival/19984/1314" ns0:sta="BAD">
          <pickID>quakeml:local/pick/19984</pickID>
          <phase>S</phase>
          <azimuth>86.0</azimuth>
          <distance>0.352</distance>
          <timeResidual>-0.0</timeResidual>
          <timeWeight>0.8</timeWeight>
          <earthModelID>quakeml:local/earthmodel/</earthModelID>
          <creationInfo>
            <creationTime>2021-03-02T10:13:33.002000Z</creationTime>
          </creationInfo>
        </arrival>
        <arrival publicID="quakeml:local/arrival/19985/1314" ns0:sta="VINO">
          <pickID>quakeml:local/pick/19985</pickID>
          <phase>P</phase>
          <azimuth>83.0</azimuth>
          <distance>0.38</distance>
          <timeResidual>-0.22</timeResidual>
          <timeWeight>0.98</timeWeight>
          <earthModelID>quakeml:local/earthmodel/</earthModelID>
          <creationInfo>
            <creationTime>2021-03-02T10:13:33.104000Z</creationTime>
          </creationInfo>
        </arrival>
        <arrival publicID="quakeml:local/arrival/19986/1314" ns0:sta="VINO">
          <pickID>quakeml:local/pick/19986</pickID>
          <phase>S</phase>
          <azimuth>83.0</azimuth>
          <distance>0.38</distance>
          <timeResidual>-0.19</timeResidual>
          <timeWeight>0.7</timeWeight>
          <earthModelID>quakeml:local/earthmodel/</earthModelID>
          <creationInfo>
            <creationTime>2021-03-02T10:13:33.133000Z</creationTime>
          </creationInfo>
        </arrival>
        <arrival publicID="quakeml:local/arrival/19987/1314" ns0:sta="ZOU2">
          <pickID>quakeml:local/pick/19987</pickID>
          <phase>P</phase>
          <azimuth>25.0</azimuth>
          <distance>0.384</distance>
          <timeResidual>0.32</timeResidual>
          <timeWeight>0.98</timeWeight>
          <earthModelID>quakeml:local/earthmodel/</earthModelID>
          <creationInfo>
